License Number;Entity Name;Camis Trade Name;Address Bldg;Address Street Name;Address Location;Address City
207905;WING GONG LAUNDRY INC;;240;HURON STREET;;BKLYN
308861;LO,YUK KWAI;9049 LAUNDROMAT;9049;FORT HAMILTON PARKWAY;;BROOKLYN
523879;LEE, JUNG BUM;LEE LAUNDROMAT;73-08;BELL BOULEVARD;;QUEENS
529419;NEWTON, KATHERINE C;;264;GATES AVENUE;;BROOKLYN
572470;DEFILIPPO, JOSEPHINE;AN JO LAUNDRY & CLEANERS;2376;WEST STREET;;BKLYN
574975;LUCKY MACHINE WASH CORP;;2325;   2 AVENUE;;NEW YORK
739785;ENG, SUSAN MEI SIN;;1111;CLARKSON AVE;;BROOKLYN
762700;COSMO'S LAUNDERAMA INC;;142;   1 AVENUE;;NEW YORK
783976;HAPPY WASKO CORP;;2004;   2 AVENUE;;NEW YORK
784251;DAPPER DUDS LAUNDROMAT INC;;1549;   2 AVENUE;;NEW YORK
788138;FOURTEENTH AVENUE   COIN-OP INC;;5910;  14 AVENUE;;BROOKLYN
803996;S.A.B. COIN-OP.I, INC.;YOUR PROFESSIONAL   WASH & DRY;5611;   8 AVENUE;;BROOKLYN
817219;111-40 LEFFERTS BLVD. LAUNDROMAT CORP;;111-40;LEFFERTS BOULEVARD;;SO. OZONE PARK
819962;CHO, YOUNG JIN;D & J LAUNDROMAT;1602;MERMAID AVENUE;;BROOKLYN
837013;FRIENDLY DRY CLEANERLAUNDROMAT INC;FRIENDLY LAUNDROMAT;1936;VICTORY BOULEVARD;;STATEN ISLAND
853212;1590 WHITE PLAINS ROAD LAUNDROMAT CORPORATION;;1590;WHITE PLAINS ROAD;;BRONX
854391;DEMATTEO, MARIO &   DEMATTEO, LEON;MAT-LEE WASH-N-DRY;704;EAST  187 STREET;;BRONX
884442;RHEE, CHUNG;DAISY FRESH DRIVE   IN CLEANER;225-06;MERRICK BOULEVARD;;LAURELTON
891437;PARK, CHUL HEE;GENTLE CLEANERS;1140;BAY STREET;;STATEN ISLAND
891783;BRONXWOOD LAUNDER CENTER CORP;;3951;BRONXWOOD AVE;3951-53;BRONX
895418;C U LAUNDERETTE INC;;244;WEST   72 STREET;;NEW YORK
896392;LEU SNOW WHITE      LAUNDROMAT INC;;64-19;MYRTLE AVENUE;;RIDGEWOOD
900404;BERNAL, ANDRES;S O S LAUNDROMAT;332;KEAP STREET;;BROOKLYN
900745;V H A CLEANERS CORP;;78-39;SPRINGFIELD BOULEVARD;;BAYSIDE
900946;SCIARRINO, VITO;EXPRESS LAUNDRY;2837;HARWAY AVENUE;;BROOKLYN
901600;BROOKES, LEROY &    COOPER, ANGELLA;FUN O MAT;3828;WHITE PLAINS ROAD;;BRONX
903545;PAGANO, RUBEN & PAGANO, NORMA;G & M LAUNDROMAT;33-14;  23 AVENUE;;L I CITY
911582;EXCELLENT LAUNDROMAT INC;;48-01;BELL BOULEVARD;;QUEENS
921568;SUPER C LAUNDROMAT INC;SUPER C LAUNDROMAT;133-53;  41 ROAD;;FLUSHING
921731;T & A LAUNDROMAT CORP;HOUSE OF SUDZ;41-16;DITMARS BOULEVARD;;QUEENS
925891;YEE, NANCY;WEST LAKE CLEANERS & LAUNDERER;455;WEST   34 STREET;;NEW YORK
926784;GM HOPE INC;ABC CLEANERS AND LAUNDROMAT;619;HUDSON STREET;;NEW YORK
927278;LEE, WAI KING;LEE CLEANERS;80-84;GUYON AVENUE;;STATEN ISLAND
927418;CNL FABRIC CARE CORP;DAISY CLEANERS;33-54;  62 STREET;;WOODSIDE
934734;RAMOS BROTHERS, INC.;;190-05;UNION TURNPIKE;;QUEENS
940780;R. PENA CORP.;;3082;FULTON STREET;;BROOKLYN
943748;THE THIRD AVENUE LAUNDRY CHUTE INC;;6733;   3 AVENUE;;BROOKLYN
954227;LAVANDERA LAUMDROMAT, INC.;;35-51;JUNCTION BOULEVARD;;CORONA
956800;TOOLSEE WASH CORP;;1310;MORRISON AVENUE;;BRONX
957074;MALLAY, PHILLIP;MELISSA LAUNDROMAT;183-15;JAMAICA AVENUE;;HOLLIS
957515;NEWERA LAUNDROMAT INC;;120;MESEROLE AVENUE;;BROOKLYN
969384;B & M LAUNDROMAT INC;;317;EAST   75 STREET;;NEW YORK
977051;LIANG, GUO;MING'S LAUNDROMAT;110-68;QUEENS BOULEVARD;;QUEENS
977183;LIZ CLEANERS CORP;;107-06;QUEENS BOULEVARD;;QUEENS
977224;CELEBRITY WASH & CLEAN LAUNDRY, INC.;LAUNDROMAT;9512;AVENUE L;;BROOKLYN
991794;GOLDEN 44 WASH & DRY INC;;86-01;JUSTICE AVENUE;;QUEENS
992343;DCA LAUNDRY CORP;.;1;WEST  131 STREET;;NEW YORK
997501;FASHION LAUNDROMAT INC.;;235;EAST   21 STREET;;NEW YORK
999604;15TH ST.BRIGHT & CLEAN INC.;;267;WEST   15 STREET;;NEW YORK
1000243;EPSM ENTERPRISES INC;KWICK WASH LAUNDROMAT & DRY CLEANING;211;WEST   16 STREET;;NEW YORK
1001060;MR. BUBBLES WASH & DRY INC;;143-12;  45 AVENUE;;FLUSHING
1001969;OZONE PARK LAUNDROMAT INC;;74-02; 101 AVENUE;;OZONE PARK
425697;YIU'S BROTHER INC;;210;WEST   10 STREET;;NEW YORK
497008;LEE, ROBERT SUM &   LEE, WAI HING;SUN LAUNDRY;626;EAST   14 STREET;;NEW YORK
523863;97 SECOND AVE LAUNDERETTE INC;;97;   2 AVENUE;;NEW YORK
621429;KYO & KYO INC;BELL BOY DRIVE IN CLEANERS;536;BEACH   20 STREET;;FAR ROCKAWAY
622093;KAO, CHIAO-O;SEVENTY-SEVEN LAUNDROMAT;1481-83;   1 AVENUE;;NEW YORK
622722;MOY, KAM P;;1507;WHITE PLAINS ROAD;;BRONX
626174;FOURTEENTH AVENUE COIN-OP, INC.;;6217;BAY PARKWAY;;BROOKLYN
627806;YORKVILLE LAUNDROMAT INC;;1733;   2 AVENUE;;NEW YORK
671062;BRUCCULERI, ANGELO;45TH AVE LAUNDRY;45-02; 104 STREET;;CORONA
672924;GUFRAN LAUNDRETTE INC;;321;EAST   98 STREET;;BKLYN
677620;MOY, WILLIAM;JAN SUN LAUNDRY;123;EAST   17 STREET;;NEW YORK
733889;YING, CHIN SUET;CHIN LAUNDRY AND DRY CLEANING;199;NASSAU AVENUE;;BKLYN
781040;HERMES LAUNDROMAT   INC.;;24-03;  23 AVENUE;;ASTORIA
811447;67 LAUNDROMAT INC;;67-01;WOODSIDE AVENUE;;WOODSIDE
815341;ROSCIGNO, FRANK;FRANK'S LAUNDRY;42-01;  34 AVENUE;;QUEENS
817684;SKAHG MAINTENANCE INC.;;425;   7 AVENUE;;BROOKLYN
817934;BWAY-PILLING LAUNDROMAT INC;;1785;BROADWAY;;BROOKLYN
833529;BIRDHAR INC.;;351;EAST   82 STREET;;MANHATTAN
854193;PRO-WASH INC;;1707;NOSTRAND AVENUE;;BROOKLYN
854457;83-29 PARSONS LAUNDROMAT CORP;;83-29;PARSONS BOULEVARD;;QUEENS
855212;THOMPSON, GLORIA;G'S LAUNDRYMAT;315;NOSTRAND AVENUE;;BROOKLYN
887007;KAREN & KARLA CORP;;63;BUSHWICK AVENUE;;BROOKLYN
889825;KING'S HIGHWAY WASHMAT, INC.;;317;KINGS HIGHWAY;;BROOKLYN
891376;KNAPIC, MARIO AND KNAPIC BISERKA;M & B LAUNDROMAT;28-20;CRESCENT STREET;;QUEENS
894480;ROZANNO INC;CYCLES LAUNDROMAT;317;BRADLEY AVENUE;;STATEN ISLAND
898174;I & C LAUNDROMAT INC;;4203;HYLAN BOULEVARD;;STATEN ISLAND
898213;SHEN INC;;97-14;  37 AVENUE;;CORONA
899374;ZABLOCKI, KRYSTYNA;KRYSTYNA LAUNDROMAT;75;BERRY STREET;;BROOKLYN
905509;KONG, APRIL;TOM'S LAUNDRY;424;FOSTER AVENUE;;BROOKLYN
911496;SUAREZ, EDWIN;EDDIES WASH AND DRY PLUS;898;EAST  180 STREET;;BRONX
912130;HE, MENG CHANG;FIVE CORNERS LAUNDROMAT;1123;WASHINGTON AVENUE;;BROOKLYN
918170;ELEZOVIC, ROZA;NINE STREET LAUNDROMAT;34-10;   9 STREET;;L I CITY
918938;R & S LAUNDROMAT INC;R & S LAUNDROMAT;2051-53;WILLIAMSBRIDGE ROAD;;BRONX
927029;O'HENRY LAUNDROMAT INC;;37;HENRY STREET;;NEW YORK
927648;CLEAN WASHLAND INC;;84-52;ELIOT AVENUE;;QUEENS
927666;OH, YEONG RYE;DAMOWA DRY CLEANING & LAUNDRY CENTER;280;MARSH AVENUE;;STATEN ISLAND
932361;TAK MING INC.;MISTER SUDS LAUNDROMAT;632;CATON AVENUE;;BROOKLYN
936349;80TH ST CLEANERS INC;PIERMONT EAST;245;EAST   80 STREET;;NEW YORK
942353;HUANG, PEI YAN;HUANG'S LAUNDRY & DRY CLEANING;215;EAST   26 STREET;;NEW YORK
949598;S.I. SUPERLEAN, INC.;;2435;HYLAN BOULEVARD;;STATEN ISLAND
956895;A G HOPE, INC;;259;   3 AVENUE;;NEW YORK
976718;LILY-WHITE LAUNDROMAT INC;XL CORORTION SERVICES INC;85-15;MAIN STREET;;QUEENS
977428;SPOTLESS CLEANING LTD.;;419;MADISON STREET;;BROOKLYN
978434;NEREID LAUNDRY INC;;2630;UNIVERSITY AVENUE;;BRONX
988829;WING HING LAUNDROMAT INC.;;97;QUENTIN ROAD;;BROOKLYN
990576;WOOK CORPORATION;MONACO CLEANERS & LAUNDERERS;2580;NOSTRAND AVENUE;;BROOKLYN
992900;GREMI LAUNDROMAT INC.;;93-11;ROOSEVELT AVENUE;;QUEENS
997743;CHRISTY LAUNDROMAT, INC;;2195;MORRIS AVENUE;;BRONX
998800;PUN, FU TAI;SUPER LAUNDRY;355;SMITH STREET;;BROOKLYN
999034;CEBRA LAUNDROMAT INC;;10;CEBRA AVENUE;;STATEN ISLAND
1002005;BAI,SHANPING;PING'S LAUNDROMAT;199-06;  32 AVENUE;;QUEENS
1002894;TOMPKINS LAUNDROMAT INC;;62;TOMPKINS AVENUE;;BROOKLYN
1002976;998, INC;;43-15;  28 AVENUE;;QUEENS
456070;GRAHAM, CLINTON;C & G LAUNDROMAT;119-08;SUTPHIN BOULEVARD;;JAMAICA
579895;MAXI, SYLVIO;MARTO FAMILY LAUNDRY;1129;NOSTRAND AVENUE;;BKLYN
623444;LAU, BURD J;BURD J LAU          LAUNDROMAT;119-14;METROPOLITAN AVENUE;;QUEENS
624747;WILL-BET LAUNDROMATIC INC;;173;   7 AVENUE;;BROOKLYN
627302;ST PAUL, CHARLES;;1350;SUTTER AVENUE;;BKLYN
815626;WONDER WASH & DRY INC;;10;ELIZABETH STREET;;NEW YORK
816157;TSCHERNE, HERBERT;LAUNDER-KING;2049;PALMETTO STREET;;RIDGEWOOD
816930;GLO-BRITE LAUNDROMATS INC;;28-03;  23 AVENUE;;ASTORIA
835190;DOURMAS, CONTANTINOS;PARK VIEW LAUNDROMAT;36-18;  24 AVENUE;;L I CITY
838375;VRETTOS, NICK;44TH STREET LAUNDERCENTER;44-02;  43 AVENUE;;SUNNYSIDE
838580;HEMRAJ, RAJENDRA &  HEMRAJ, DEOWATTIE;ROCKAWAY WASH & DRY;133-01;ROCKAWAY BOULEVARD;;SO. OZONE PK
850002;WESTSIDE LAUNDROMAT CORP;;165;WEST   74 STREET;;MANHATTAN
850980;KONG, SUK KYONG;SUPER CLEAN LAUNDROMAT;181;WYCKOFF AVENUE;;BROOKLYN
853622;STEP N LAUNDRO MAT CORP;STEP N LAUNDROMAT;222;MAPLE STREET;;BROOKLYN
853865;123 JS INC.;;42-73;HUNTER STREET;;L I CITY
856223;TILDEN LAUNDROMAT INC;;1075;NEW YORK AVENUE;;BROOKLYN
881274;PARK, JONG C;NOBLE CLEANERS;284;COURT STREET;;BROOKLYN
882135;UNIVERSITY LAUNDRY CENTER INC;;2690;UNIVERSITY AVENUE;;BRONX
890040;ROE, DAVID;ECONO-WASH LAUNDRY;362;GRAHAM AVENUE;;BROOKLYN
896242;ALTAN INTERNATIONAL SERVICE CORP SERVICE CORP;;191;COURT STREET;;FISH TALES
896770;TONY & MIKE LAUNDROMAT INC;;2951;MIDDLETOWN ROAD;;BRONX
902633;SEKAR CLEANERS INC;DOUGLASTON FRENCH   CLEANERS;242-01;NORTHERN BOULEVARD;;DOUGLASTON
903550;LERNER, BELLA;B & B  LAUNDROMAT;811;AVENUE H;;BROOKLYN
904683;GRAHAM, CLINTON;C & G LAUNDROMAT;107-55;SUTPHIN BOULEVARD;;JAMAICA
905478;KAO, TAI-LIEN;LOTUS LAUNDRY;75-11 B;ROCKAWAY BOULEVARD;;WOODHAVEN
905771;PARK WEST           LAUNDROMAT CORP;;101;WEST   84 STREET;;MANHATTAN
909694;CHUNG'S SNOW WHITE LAUNDROMAT INC;;305;EAST BURNSIDE AVENUE;;BRONX
913801;BLUE HAVEN LAUNDROMAT INC;BLUE HAVEN LAUNDROMAT;2220;BATH AVENUE;;BROOKLYN
916121;CHESTER LAUNDROMAT INC;CHESTER LAUNDROMAT;865;EAST  241 STREET;;BRONX
916231;66 CARMINE DRY CLEANING & LAUNDROMAT INC;66 CARMINE DRY CLEANING & LAUNDROMAT;66;CARMINE STREET;;NEW YORK
917552;COMFORT II INC.;;93-34;CORONA AVENUE;;ELMHURST
918494;FARINHA BROS INC;FARINHA BROS;567;ALBANY AVENUE;;BROOKLYN
919734;WASH CYCLE OF SUNNYSIDE INC;WASH CYCLE;43-09;  48 AVENUE;43-09/43-11 48 AVE;WOODSIDE
922252;TEITELBAUM'S INC;;35-45;  35 STREET;;L I CITY
922424;S KOHAN FRENCH CLEANERS INC;;73-17;MAIN STREET;;FLUSHING
927563;NGAI, FAI SHOON;NEW STAR LAUNDROMAT;124;AVENUE O;;BROOKLYN
933980;ROMANO, LOUIS;FRESH SCENT LAUNDRY;68-18;FRESH MEADOW LANE;;QUEENS
937773;IPANEMA LAUNDRY INC;;25;LENOX AVENUE;;NEW YORK
952217;COLLAZO, CARLOS;BARKER LAUNDROMAT;2708;BARKER AVENUE;;BRONX
956812;YUSEF LAUNDRY INC;;925A;BURKE AVENUE;;BRONX
962852;MAYSONET, ROBERT;BUSY B'S LAUNDROMAT;218;COVERT STREET;;BROOKLYN
975294;GARCIA, MANUEL E;QUICK-WASH LAUNDROMAT;110-04;GUY R BREWER BOULEVARD;;JAMAICA
977111;RUDIK, RITA;R & B LAUNDROMAT;5022;  12 AVENUE;;BROOKLYN
978155;USA CLEAN CENTER CO INC;;75-77;  31 AVENUE;;QUEENS
984674;JOEAL DRY CLEANERS INC;;1743;FULTON STREET;;BROOKLYN
988868;GOTAY, MARINA;MARINA'S LAUNDROMAT;331;EAST  109 STREET;;NEW YORK
991118;GATES LAUNDROMAT INC;;1503;GATES AVENUE;;BROOKLYN
1000498;RICHMOND, EDITH D.;LAUNDROMAT;1008;RUTLAND ROAD;;BROOKLYN
1006242;CRYSTAL CLEAN, LLC;;1020;   8 AVENUE;;BROOKLYN
1007121;WASH CYCLE II INC;;340;MYRTLE AVENUE;;BROOKLYN
1009705;THE AMANDA GROUP INC.;;85-52; 118 STREET;;KEW GARDENS
1010673;CHOI, DUKG JUNG;CHOI LAUNDROMAT;912;EAST  233 STREET;;BRONX
472484;TONG, CHEUNG CHUEN;;180;UNDERHILL AVENUE;;BKLYN
522965;BOWNE STREET LAUNDROMAT INC;;41-98;BOWNE STREET;;FLUSHING
574948;D R WASH, INC.;;1274;BRONX RIVER AVENUE;;BRONX
813743;PRO-WASH INC;;1210;ROGERS AVENUE;;BROOKLYN
816899;HAPPY & POLEN CORP;95TH ST LAUNDROMAT &DRY CLEANING CENTER;378;  95 STREET;;BROOKLYN
817891;CAMPBELL, JEAN & CAMPBELL, TREVOR;MERRICK LAUNDERMAT;109-30;MERRICK BOULEVARD;;JAMAICA
833345;JIMMY'S BUBBLES II LAUNDROMAT CORP;;3723;AVENUE S;;BROOKLYN
833597;B BUBBLES INC;;3147;BROADWAY;;NEW YORK
851444;CHOW & LAM CORP;;204;EAST   10 STREET;A&B;NEW YORK
856191;SZETO, FOON;MAY WAH LAUNDRY;196;MOTT STREET;;NEW YORK
883440;WASH TOWN INC;;87-19;LEFFERTS BOULEVARD;;RICHMOND HILL
885155;SHI, CINDY CHUEN S;VILLAGE WASH;321;WEST   11 STREET;STORE WEST;MANHATTAN
887366;GRAHAM, CLINTON;C G LAUNDROMAT;94-16;SUTPHIN BOULEVARD;GROUND FLOOR;JAMAICA
887581;ALFONSO , ROBERTO A;4TH AVENUE BRITE AND CLEAN LAUNDROMAT;593;   4 AVENUE;;BROOKLYN
889159;CHEUNG, STANLEY;SUPERIOR HALF HOUR LAUNDRY;91-05;  37 AVENUE;;JACKSON HEIGHTS
891471;SYMPHONY 44 CLEANERS INC;;245;EAST   44 STREET;;MANHATTAN
891802;PASTORINO, CARLOS;THIRTEEN STREET LAUNDROMAT;513;   5 AVENUE;;BROOKLYN
894178;LOFAIR INC;;3200;BAINBRIDGE AVENUE;;BRONX
895752;QUACH, KENNY KIET;FRANKLIN LAUNDROMAT;190;FRANKLIN STREET;;BROOKLYN
896625;MADISON CLEANERS 28TH ST CORP;;22;EAST   28 STREET;;NEW YORK
907659;LAMAR HOLDING CORP;-;2463;UNIVERSITY AVENUE;;BRONX
912898;JIFFY-JEFF INC;JIFFY-JEFF;45-07;  28 AVENUE;;QUEENS
916153;BARFIELD REALTY CORP;BARFIELD REALTY;1804;CEDAR AVENUE;;BRONX
920667;LAM, MINH TRIEU;LAM'S LAUNDROMAT;990;CONEY ISLAND AVENUE;;BROOKLYN
921595;THEN, NELSON;THEN'S LAUNDROMAT;134;AUDUBON AVENUE;;NEW YORK
923796;J J CLEANERS & LAUNDROMAT CORP;J J CLEANERS & LAUNDROMAT;339;EAST    5 STREET;;NEW YORK
924980;SUDS R US LAUNDROMAT INC;;60-72A;  72 STREET;;QUEENS
926778;TSARSI, EDDIE;GREGORY'S LAUNDROMAT;1143;OLMSTEAD AVENUE;;BRONX
928698;SALEH, AHMED M;ST. NICHOLAS LAUNDROMAT;275;ST NICHOLAS AVENUE;;NEW YORK
964391;ULTIMATE COIN-OP CORP;;1015;RUTLAND ROAD;;BROOKLYN
965831;LIM, YOUNG O.;YOUNG'S LAUNDROMAT;35-58;  78 STREET;;JACKSON HEIGHTS
970680;2893 LAUNDROMAT CORP;;2893;SEDGWICK AVENUE;;BRONX
972834;LAUNDRY KING OF FLATBUSH INC;;2038;BEDFORD AVENUE;2038/2040;BROOKLYN
974534;NUNEZ, ELENA;NUNEZ SUPER LAUNDRY;2593;   8 AVENUE;2595;NEW YORK
975934;YUSHIN INC;;80-42;JAMAICA AVENUE;;WOODHAVEN
976366;HOM, MUI YUNG;HOM'S LAUNDROMAT;107;MADISON STREET;;NEW YORK
977054;YEN, CHIN MIN;LUCKY LAUNDROMATE;1215;   8 AVENUE;;BROOKLYN
978742;NEW SUNBRIGHT CORP;;21-19;  31 STREET;;QUEENS
999103;AKINS LAUNDROMAT;;298;ALBANY AVENUE;;BROOKLYN
1002992;J.A.J.A. CORPORATION;;1189;WALTON AVENUE;;BRONX
1003135;SUPERIOR SUDS, INC;;99;   5 AVENUE;;BROOKLYN
1003768;GRAND AVENUE LAUNDROMAT INC;;34-15;  30 AVENUE;;QUEENS
1005967;I D A CLEANERS INC;;579;KINGS HIGHWAY;;BROOKLYN
1022945;CATORCE LAUNDROMAT INC;;91-01;SPRINGFIELD BOULEVARD;;QUEENS VILLAGE
1024655;2200-02 FLATBUSH REALTY INC;FLATBUSH & R LAUNDROMAT;2200;FLATBUSH AVENUE;;BROOKLYN
1025040;A.T.& M LAUNDROMAT & SERVICES INC;;1361;WHITE PLAINS ROAD;;BRONX
1026231;CLEANER WASH INC.;;2054;ROCKAWAY PARKWAY;;BROOKLYN
1026234;ITMAM INC;;770;FRANKLIN AVENUE;;BROOKLYN
1031470;65 SUPER LAUNDRY LLC;;2301;  65 STREET;;BROOKLYN
1034668;ORCHARD CLEANER & LAUNDROMAT INC;;28;ORCHARD STREET;;NEW YORK
1037599;FOWLER ROUTE CO., INC;;2152;EAST TREMONT AVENUE;;BRONX
1039565;ZHENG, JIAN ZHONG;ZHENG'S LAUNDROMAT;7605;   5 AVENUE;1ST FLOOR;BROOKLYN
1057492;JODINA HILLSIDE CORP;CLEARVIEW CLEANERS;202-16;HILLSIDE AVENUE;;HOLLIS
404343;GUFRAN LAUNDRETTE INC;;1444;ST JOHN PLACE;;BROOKLYN
424640;ROYAL SUTTON LAUNDROMAT CORP;;1138;   1 AVENUE;;NEW YORK
430336;3267 3RD AVENUE LAUNDROMAT CORP;;3267;   3 AVENUE;;BRONX
442794;ROBINSON, LEROY;MAURICE'S LAUNDROMAT;151;LENOX AVENUE;;NEW YORK
495191;DOW, DANNY H;;2490;WILLIAMSBRIDGE ROAD;;BRONX
621599;GRAHAM, CLINTON;C G LAUNDROMAT;111-58;VAN WYCK EXPRESSWAY;;JAMAICA
628065;BOWNE ST LAUNDROMAT INC;;41-85;BOWNE STREET;;FLUSHING
674798;CHIN, CHOW;;1067;   1 AVENUE;;NEW YORK
761344;TOM, LIN SING;;196;JAMAICA AVENUE;;BKLYN
787923;APOSTOLAKIS, APOSTOLOS;;28-03;  24 AVENUE;;ASTORIA
808700;MINT MAKERS INC;DUTCH GIRL CLEANERS;1082;PARK AVENUE;;NEW YORK
830261;PETZNICK, BRUCE;PARADISE LAUNDROMAT;578;GRAND STREET;;BROOKLYN
832700;YUEN, WANDA B Y;;453;EAST   78 STREET;;NEW YORK
836000;526 COLUMBUS MERCHANTS INC;;526;COLUMBUS AVENUE;;NEW YORK
836456;PARK, HO-CHIN;MAJOR LAUNDRY;2504;EAST TREMONT AVENUE;;BRONX
856416;BROWNE, LAUREL;BROWNE LAUNDRY;110-39;SUTPHIN BOULEVARD;;JAMAICA
857900;FEDERICO, ONOFRIO   ET AL;THE KLEENOFAB       PROCESS;2103;WILLIAMSBRIDGE ROAD;;BRONX
859643;1457 INC;ALL WASHED UP;1457;YORK AVENUE;;NEW YORK
881926;WU, ZHUO LIN;NICE LAUNDROMAT;332-3;HOOPER STREET;;BROOKLYN
884166;DORCE, MCCONNELL;TROY AVE LAUNDROMAT;876;TROY AVENUE;;BROOKLYN
884585;AVENUE A LAUNDRY KING INC;;97;AVENUE A;;NEW YORK
885468;ARNOLD K P CORP;SWANS II CLEANERS;181;SEVENTH AVENUE;;NEW YORK
889721;BERMUDEZ, OLGA;NORTHSIDE LAUNDROMAT;579;DRIGGS AVENUE;;BROOKLYN
889794;FRANCOIS, MARIE P;MARIE P FRANCOIS    LAUNDROMAT;192;HOWARD AVENUE;;BROOKLYN
891384;KEARNEY STREET LAUNDROMAT INC;;100-11;ASTORIA BOULEVARD;;EAST ELMHURST
896319;1605 INC;ALL WASHED UP;1605;   2 AVENUE;;NEW YORK
897977;8107 CLEANERS LTD;PRESTIGE CLEANERS CO;149-03;GUY R BREWER BOULEVARD;;JAMAICA
898696;HAN, CHI-SEI;45 AVE LAUNDRY;143-01;  45 AVENUE;;FLUSHING
905417;JERIC ENTERPRISES INC.;;37-13;DITMARS BOULEVARD;;QUEENS
910205;NEW FERRARI CLEANERS INC.;;35-06;DITMAS BOULEVARD;;ASTORIA
912072;SUPER LAUNDRY OF CRESCENT INC;;38-06;CRESCENT STREET;;QUEENS
912151;CHANG, KUM LING;NEW CONEY ISLAND LAUNDROMAT;2125;CONEY ISLAND AVENUE;;BROOKLYN
918596;TORRES, DELIA;DELIA'S LAUNDROMAT;1950;AMSTERDAM AVENUE;;NEW YORK
921639;HONG, SEONG BEOM;HONG'S LAUNDROMAT;3144;FULTON STREET;;BROOKLYN
922506;CHI, JONG SOOK;LINDEN VIEW LAUNDROMAT;25-33B;PARSONS BOULEVARD;;FLUSHING
926664;FOUR SEASONS LAUNDROMAT INC;;287;   6 AVENUE;;BROOKLYN
936782;SAUNDERS LAUNDROMAT INC;TODA LAUNDROMAT;63-75;SAUNDERS STREET;;REGO PARK
952670;5416 CORP;;5416;   7 AVENUE;;BROOKLYN
960252;LAUNDROMAT PLUS INC;;1683;LEXINGTON AVENUE;;NEW YORK
962899;EAST VILLAGE LAUNDERETTE INC;EAST VILLAGE LAUNDERETTE;153;EAST    3 STREET;;NEW YORK
968002;JAY LAUNDROMAT CORP.;;2217;AVENUE U;;BROOKLYN
971685;NEW 97 CLEANERS INC;YOUNG'S VALET INC;888;   8 AVENUE;;NEW YORK
974476;FOUR CORNERS LAUNDROMAT INC;;2373;BELMONT AVENUE;;BRONX
976260;CHEN, RICHARD I;CHEN LAUNDROMAT;50-16;  39 AVENUE;;WOODSIDE
978625;YEE, DAVID, M;YEE'S EXCELLENT CLEANERS & LAUNDROMAT;524;   9 AVENUE;;NEW YORK
978699;AMY G LAUNDRY INC;;2702;BARNES AVENUE;;BRONX
979657;SUDS ON 8TH AVENUE, INC;;1521;   8 AVENUE;;BROOKLYN
980367;JUNG LEE LAUNDROMAT, INC.;;465;MARCUS GARVEY BOULEVARD;;BROOKLYN
992320;351 1/2 CORP;ALL WASHED UP;351 1/2;EAST   54 STREET;;NEW YORK
1002861;TURBO LAUNDRY CENTER INC;;62-01C;NORTHERN BOULEVARD;;WOODSIDE
1003533;G.P.LAUDROMAT, INC.;;35-05;  34 STREET;;QUEENS
1009047;SKWEEKY KLEEN LAUNDROMAT INC.;;21;NAGLE AVENUE;;NEW YORK
1020593;B.K. SUPERCLEAN INC;;1502;  86 STREET;;BROOKLYN
526598;BORO PARK WASH CENTER INC;;5321;FT HAMILTON PARKWAY;;BKLYN
528928;LABADY, RAOUL;DAWN LAUNDROMAT AND CLEANERS;754;WASHINGTON AVENUE;;BROOKLYN
579770;NG, NGAU WOON;;1067;BRIGHTON BEACH AVENUE;;BROOKLYN
620298;CYNGIEL, SHLOMO;;116;BRIGHTON   11 STREET;;BKLYN
739493;FAST WASH INC;MR MACHINE LAUNDROMAT;140-11;CHERRY AVENUE;;QUEENS
785994;LEMODETIS, MARIA;ANGELO'S LAUNDROMAT;30-95;  32 STREET;;QUEENS
813266;HONG, SUNG MIN;SNOW WHITE LAUNDROMAT;2006;  61 STREET;;BROOKLYN
832176;GUFRAN LAUNDERETTE INC;;1307;NOSTRAND AVENUE;;BROOKLYN
837813;BIG RUSS LTD;;105-04;NORTHERN BOULEVARD;;QUEENS
839629;M V L LAUNDROMAT INC;;1012;MANHATTAN AVENUE;;BROOKLYN
856880;PYUN CLEANERS INC;TRAFALGAR CLEANERS;1352;LEXINGTON AVENUE;;NEW YORK
858581;ISABEL'S LAUNDRY CORP;;37-24; 103 STREET;;CORONA
880239;F.M.A. LAUNDROMAT CORP.;;24-46;STEINWAY STREET;;QUEENS
881691;WIEGAND, WILLIAM;LAUNDER MAGIC;70;EAST MT EDEN AVENUE;;BRONX
882598;MANIATOPOULOS, ARGY  & SHAPIRO, DAVID;4TH AVENUE LAUNDROMAT;784;   4 AVENUE;;BROOKLYN
886215;JUNG, SO SUN;HEIGHTS HAND LAUNDRYAND DRY CLEANERS;117;HENRY STREET;;BROOKLYN
889745;BERMUDEZ, ANGELA;ANGELA'S LAUNDROMAT;993;MANHATTAN AVENUE;;BROOKLYN
890272;KO, KYUNG SIK;FAMILY LAUNDROMAT;147-14A;NORTHERN BOULEVARD;;QUEENS
890888;BANDO CLEANERS INC;TOWER WEST CLEANERS;161;AMSTERDAM AVENUE;;MANHATTAN
890981;PARK SLOPE WASH CENTER INC;;261;FLATBUSH AVE;;BROOKLYN
893280;CHEN, YUK CHUN;THRIFT-O-WASH;8920;   3 AVENUE;;BROOKLYN
893285;DIFEDE, ANTONIO &   DIFEDE, ROSA DIFEDE, ROSA;TONY'S EUROPEAN CLEANERS & TAILORS;72-07;GRAND AVENUE;;MASPETH
893749;YAE, WON H;SUPER LAUNDERCENTER;2235;GRAND CONCOURSE;;BRONX
894633;LEUNG, JOHN;CHEONG MING CO;83-25;PARSONS BOULEVARD;;JAMAICA
895117;GERMAIN, BIBI Z;ZABEEDA'S LAUNDROMAT;76;MILLER AVENUE;;BROOKLYN
897867;1002 KARISS FRENCH CLEANERS CORP;;1002;ROSSVILLE AVENUE;;STATEN ISLAND
902777;WONG, YOKE MOY;VALET 52 EAST;302;EAST   52 STREET;;NEW YORK
903205;J & J CLEANERS INC;;172-18;  46 AVENUE;;FLUSHING
906198;JESSICA PARK;HI-TOP CLEANERS;1374;YORK AVENUE;;NEW YORK
919635;P & D LAUNDROMAT LTD;P & D LAUNDROMAT;5678;MOSHOLU AVENUE;;BRONX
920577;CHAN, KA-TING;TOY CHAN LAUNDRY;262;WEST   77 STREET;;NEW YORK
934085;WL LAUNDRY SERVICE INC;;82-40;LEFFERTS BOULEVARD;;KEW GARDENS
938120;RICHARDS, LASCELLES;ADNAK SUDS LAUNDROMAT;1093;RUTLAND ROAD;;BROOKLYN
942113;DU HONG WASHERTERIA, INC;;37;LINCOLN ROAD;;BROOKLYN
943852;GUYANA ENTERPRISE INC;;104-07; 123 STREET;1ST FLOOR;RICHMOND HILL
954001;OCEAN VIEW LAUNDROMAT INC;;521-527;OCEAN AVE;;NEW YORK
954107;CLEAN ACTION LAUNDROMAT INC;;3476;BROADWAY;;NEW YORK
955954;HANADY CORPORATION;;81;LAFAYETTE AVENUE;;BROOKLYN
969954;CHIU, HO SHEUNG HENRY;GOODY LAUNDROMAT & DRY CLEANERS;6108;   5 AVENUE;;BROOKLYN
977030;CLEAN RITE CENTER-EMPIRE BLVD LLC;;259;EMPIRE BOULEVARD;;BROOKLYN
977055;CHIN, LAI W;CHIN'S LAUNDROMAT;8315;  20 AVENUE;;BROOKLYN
977137;NEPOMNYASHCHIY, MIKHAIL;LUCKY MIKE'S LAUNDRY;1612;AVENUE Z;;BROOKLYN
978614;ALPHA LAUNDROMAT INC;;43-14;  34 AVENUE;;QUEENS
986971;KANG & KANGHEE INC;;129;WEST   72 STREET;;NEW YORK
989505;ETNA STREET LAUNDROMAT & CLEANERS, INC;;380;ETNA STREET;;BROOKLYN
999682;WON FEI YUN;WONG LAUNDROMAT;1502;AVENUE H;;BROOKLYN
1000573;D & K LAUNDRY INC;;2175;STARLING AVENUE;;BRONX
1001555;GEORGE, ELSIE;LAUNDER CENTER;2460;DAVIDSON AVENUE;;BRONX
1001759;THE NATIONAL KEYSTONE FOR SERVICES, INC;QUALITY WASH;587;MIDLAND AVENUE;;STATEN ISLAND
1001913;CLEAN RITE CENTERS - 442 39 STREET, LLC;;442;  39 STREET;;BROOKLYN
1001922;SUPER BAXTER LAUNDRY INC;;82-10;BAXTER AVENUE;;QUEENS
1002922;YIP, YIU LAM;;2113;BATH AVENUE;;BROOKLYN
524060;102 WEST LAUNDROMAT CORP;;102;WEST   71 STREET;;NEW YORK
527675;SETO, WILLIAM;LAUNDROMAT;65-28;MYRTLE AVENUE;;QUEENS
570937;C & D LAUNDRY INC;;264;KINGSTON AVENUE;;BROOKLYN
622520;KONG, KEE VOIR;SCHENLEY'S LAUNDROMAT;86-15;NORTHERN BOULEVARD;;QUEENS
628439;BERNARD LAUNDROMAT CORP;;173-17;JAMAICA AVENUE;;QUEENS VILLAGE
628612;ALPHONSO, LEWIS;;4124;AVENUE D;;BKLYN
677988;PRASINOS, MAROUSA;;23-19;  24 AVENUE;;L I CITY
698851;LAI, KAI MUN;K M CLEANERS;1629;RALPH AVENUE;;BKLYN
807305;WORRELL, ELSWORTH;TROY WASHERMAT;325;TROY AVENUE;;BKLYN
809472;LEONG, FOOK THONG & LEONG, SHOO MOI;NAJAY CLEANERS;230;PROSPECT PARK WEST;;BKLYN
815099;LUCIEN, JEAN;HALSEY LAUNDROMAT;511;HALSEY STREET;;BKLYN
816645;LE PORE DRY CLEANERS INC;MARIO'S FRENCH CLEANERS;191;NEW DORP LANE;;STATEN ISLAND
817185;HARIC LAUNDRY INC.;;335;EAST   65 STREET;;NEW YORK
837346;WHITEPOINT CLEANERS INC;;132-07;  14 AVENUE;;COLLEGE POINT
851729;C.D. DITMARS LAUNDRY INC;;24-19;DITMARS BOULEVARD;;QUEENS
854694;YU, DING YIN;DRY CLEANING LAUNDRY WASH CENTER;65-11;METROPOLITAN AVENUE;;MIDDLE VILLAGE
889082;LAUNDROMAT BROOME ST. CORP;GREEN CASTLE;519;BROOME STREET;;NEW YORK
894305;CHEN, SHAO JU;A & A LAUNDRY & DRY CLEAN;51-05;SKILLMAN AVENUE;;WOODSIDE
899498;KIM, KUN KWON;21 ST CENTURY       CLEANERS;129-02;GUY R BREWER BOULEVARD;;JAMAICA
902914;FANA WORKS INC;;860;MANHATTAN AVENUE;;BROOKLYN
916814;106 AUDUBON AVENUE LAUNDROMAT INC;;106;AUDUBON AVENUE;;NEW YORK
917049;SBM SUDS INC;SBM SUDS;1012;AMSTERDAM AVENUE;;NEW YORK
923831;A.C.J. INTERNATIONAL INC;DOWN TOWN CLEANERS;84;LIVINGSTON STREET;;BROOKLYN
925721;SUDZY INC;BEECHHURST WASH & DRY;25/Nov; 154 STREET;;WHITESTONE
928315;DOKKO, HWEE;HAPPY LAUNDRY;619;WEST  175 STREET;;NEW YORK
931871;NEW J AND K CORP;;145-05; 243 STREET;;ROSEDALE
938379;MADAME PAULETTE LIC LLC;;42-20;  12 STREET;;LONG ISLAND CTY
939608;RENOIR FRENCH CLEANERS & TAILORS INC;;79-06;  21 AVENUE;;JACKON HEIGHTS
940643;CARDINAL HESCOTT;MISS BUBBLES;3802;CHURCH AVENUE;;BROOKLYN
955029;PRESTIGE FIRST AVE. CLEANING CORP.;;646;   1 AVENUE;;NEW YORK
956589;LEE, JUNG WOO;18ST KINGS HIGHWAY LAUNDROMAT;1723;KINGS HIGHWAY;;BROOKLYN
957211;YOON, OK H;E-Z LAUNDROMAT;1731;RICHMOND ROAD;;STATEN ISLAND
970302;VILLAGE BLEACHERS LAUNDROMAT INC.;;34;EAST   11 STREET;;NEW YORK
971945;OFF-BROADWAY LAUNDROMAT INC;;224;WEST  104 STREET;;NEW YORK
975815;SY,KO, FUNG;EAST SIDE LAUNDROMAT & DRY CLEANER;1692;   2 AVENUE;;NEW YORK
977106;LUNG FAI LAUNDROMAT INC;;58-07;WOODSIDE AVENUE;;WOODSIDE
977257;RAMIREZ, MILTON;J & M LAUNDROMAT;190;AVENUE U;;BROOKLYN
979489;SUPERCLEAN SUPER LAUNDROMAT INC;;94-01;  37 AVENUE;;QUEENS
983834;5416 CORPORATION;;5211;   7 AVENUE;;BROOKLYN
989106;EDEN LAUNDROMAT INC.;;367;EAST  204 STREET;;BRONX
992706;1082 LAUNDROMAT CORP.;;1082;BOSTON ROAD;;BRONX
1014332;LEE, KANG MIN;CROSBY CLEANERS AND FURS;3279;WESTCHESTER AVENUE;;BRONX
1015194;SONG, CHIN S;183 ST LAUNDROMAT;182-42;HILLSIDE AVENUE;;QUEENS
1023314;AIRPORT LAUNDROMAT, INC;SUDS YA DUDS II LAUNDROMAAT;115-95;LEFFERTS BOULEVARD;;SO OZONE PARK
1024746;H.M. TANG CORP;;106;BAY RIDGE AVENUE;;BROOKLYN
1028092;RAMAKAH, SHAHEID & SHAHEID;R & S LAUNDROMAT;110;VAN SICLEN AVENUE;;BROOKLYN
1029362;LAUNDRY DEPOT OF N.Y. & N.J.,INC;;179-26;JAMAICA AVENUE;;JAMAICA
1032363;MILVERNIS ENTERPRISES LLC;;301;BROOK AVENUE;;BRONX
1036844;FOWLER INC.;;1386;METROPOLITAN AVENUE;;BRONX
1038240;FULTON ONE LAUNDROMAT INC;;666;FULTON STREET;;BROOKLYN
1040210;DIAMOND DRY CLEANER & LAUNDROMAT, INC.;;43-45;45 STREET;;SUNNYSIDE
1058619;DAISY LAUNDROMAT, INC;;69-15;CALAMUS AVENUE;;WOODSIDE
1059919;MF SOAP BOX LAUNDROMAT INC.;;247-01;JAMAICA AVENUE;;QUEENS
1006585;STYLE CLEANER & LAUNDRY CORP;;1737;   2 AVENUE;;NEW YORK
1009013;AHMED, HOSSAIN;S.H.F.F. LAUNDRY;328;HALSEY STREET;;BROOKLYN
1022880;HYLTON, DEBRAH;AKKD LAUNDROMAT;783;ST JOHN'S PLACE;;BROOKLYN
1024593;MIR INTERNATIONAL INC;;44-70;  21 STREET;;QUEENS
1027363;PREM'S LAUNDRY INC;;116-18; 101 AVENUE;;RICHMOND HILLS
1027468;MARDAN GROUP HOLDING CORP;;128A;WEST FORDHAM ROAD;;BRONX
1028429;SUD ZONE INC;SUD ZONE;29-06;  34 AVENUE;;QUEENS
1037600;FOWLER ROUTE CO., INC.;;1584;UNIONPORT ROAD;;BRONX
1059783;KLEEN WASH INC;;261A;BUFFALO AVENUE;;BROOKLYN
1061135;WASHMAN LAUNDRY CENTERS INC.;;72-16;ROOSEVELT AVENUE;;QUEENS
1074184;SHARON'S LAUNDRY SERVICE INC;;204;EAST   13 STREET;;NEW YORK
1077550;METRO LAUNDROMAT NY, INC.;;70-78;KISSENA BOULEVARD;;QUEENS
1085532;LAB-MART INC;;50;EAST END AVENUE;;NEW YORK
1088376;GADURAS LAUNDROMAT, INC.;;114-10; 101 AVENUE;;RICHMOND HILL
1089989;LAVANDERIA EXPRESS III, INC.;;476;SENECA AVENUE;;RIDGEWOOD
1097592;3N BUBBLES, INC;;13/Mar;27 AVENUE;;LONG ISLND CITY
1098069;GARCIA, RAFAEL A.;VESINO LAUNDROMAT;280;WOODBINE STREET;;BROOKLYN
1099462;CHOE, WON SOON;WSC SMITH LAUNDROMAT;137;SMITH STREET;;BROOKLYN
1100275;BARDENSHTEYN, OSKAR & SHMOLSVSKY,FAINA;VIN'S LAUNDROMAT CO;3221;QUENTIN ROAD;;BKLYN
1101475;BANACO LLC;;1515;LEXINGTON AVENUE;;NEW YORK
1105614;NAR DRY CLEANING, INC.;ROMANO DRIVE-IN CLEANERS;26-05;FRANCIS LEWIS BOULEVARD;;BAYSIDE
1106760;WATERFALL LAUNDROMAT CORPORATION, II;;234;EAST GUN HILL ROAD;;BRONX
1107262;CHENG WANG INC;;60-90;MYRTLE AVENUE;;RIDGEWOOD
1109358;AN CHI CORP;;141-12;NORTHERN BOULEVARD;;QUEENS
1116905;MASPETH WASH RITE CORPORATION;MASPETH WASH RITE LAUNDROMAT;73-50;GRAND AVENUE;;QUEENS
1117750;LEW, SAMMY;L.S.W. LAUNDROMAT;64-07;BROADWAY;;WOODSIDE
1121608;CIAMPA 21 LLC;;14-56;  31 DRIVE;;QUEENS
1121743;MGM LAUNDROMAT INC;;4012;BRONXWOOD AVENUE;;BRONX
1123445;GRAND DRY CLEANERS, INC.;;64-05;CENTRAL AVENUE;;QUEENS
1124787;HOST CARRERA INC;;90-02;  43 AVENUE;;QUEENS
1127845;CENTURY WASH & DRY INC;;127-19; 111 AVENUE;;SO OZONE PARK
1130332;FOURTEEN TOWER CORPORATION;;2;SOUTH END AVENUE;BATTERY PARK CITY;NEW YORK
1132944;SKC LAUNDROMAT INC.;CORPORATE CLEARANCE CORP.;286;SMITH STREET;;BROOKLYN
1134724;YUAN SHING LAUNDROMAT INC;;360;KNICKERBOCKER AVENUE;;BROOKLYN
1137639;ROOSEVELT LAUNDROMAT CORPORATION;;08/Dec;  36 AVENUE;;LONG ISLND CITY
1140398;2025 LAUNDROMAT CORP;;2025;PITMAN AVENUE;;BRONX
1146282;LUO, WEN ZHU;;36-28;WHITE PLAINS ROAD;;BRONX
1147410;TSYLYA'S WASH & DRY, INC;BUBBLES R US;107-16/18;ATLANTIC AVENUE;;RICHMOND HILL
1150405;ABSOLUTE LAUNDRY & CLEANERS CORP;;390;   2 AVENUE;;NEW YORK
1151945;DAVID, MARIA;HEGEMAN NEIGHBORHOOD LAUNDROMAT;609;HEGEMAN AVENUE;;BROOKLYN
1152924;4403 FT HAMILTON LLC;;4403;FT HAMILTON PARKWAY;;BROOKLYN
1155953;GUANG MING GROUP INC.;E & K LAUNDROMAT;2407;TRATMAN AVENUE;;BRONX
1156201;CHEN, PEI JUAN;MAH LAUNDROMAT;691;86TH STREET;;BROOKLYN
1156911;JASON'S LAUNDRY, INC.;;100-21;37TH AVENUE;;FLUSHING
1157125;IRA DIRT BUSTERS INC;;325;ATLANTIC AVENUE;;BROOKLYN
1157619;NASSAU LAUNDRY INC.;;124;NASSAU AVENUE;;BROOKLYN
1157939;HERKIMER LAUNDROMAT INC;;155;ROCKAWAY AVENUE;;BROOKLYN
1158077;103 CLEANERS INC.;;216;WEST  103 STREET;;NEW YORK
1158092;SUPER CLEAN CLEAN INC.;;7415;  15 AVENUE;;BROOKLYN
1158130;PARK'S NY CLEANERS INC;;104;WEST   17 STREET;;NEW YORK
1158142;SUNNY CLEAN USA, INC;;2407;  65 STREET;;BROOKLYN
1158664;LISA LAUNDROMAT INC.;;2921;AVENUE K;;BROOKLYN
1158850;LAGOS LAUNDROMAT INC;;330;EAST  209 STREET;;BRONX
1159611;ZOU, XIAO MING;BLUE SKY LAUNDROMAT;3740;   3 AVENUE;;BRONX
1003652;NELSON CLEANERS, INC;;2A;NELSON AVENUE;;STATEN ISLAND
1013469;TWO MI KIM CLEANERS INC;;40-18;CRESCENT STREET;;LONG ISLND CITY
1016565;D C CENTER CORP;;47-55;  48 STREET;;WOODSIDE
1017124;SONNY INDUSTRIES OF NEW YORK INC;CYCLE KING LAUNDROMAT;644;UTICA AVENUE;;BROOKLYN
1018056;BO BO LAUNDROMAT INC;;99-31;CORONA AVENUE;;CORONA
1022196;WESTCHESTER SUPER CLEAN LAUNDROMAT LLC;;2135;WESTCHESTER AVENUE;;BRONX
1024543;TINA'S LAUNDERMAT & DRY CLEANER, INC;;60-49;CATALPA AVENUE;;RIDGEWOOD
1025505;AUDOBON SUPER LAUNDROMAT INC;;282;AUDOBON AVENUE;;NEW YORK
1026232;CLEANER WASH INC;;1106;NOSTRAND AVENUE;;BROOKLYN
1028616;ULLAH, MOHAMED;NEIGHBORHOOD LAUNDRY;616;ROGERS AVENUE;;BROOKLYN
1028871;ALPHA OMEGA CLEANERS;;101-11A;QUEENS BOULEVARD;;FOREST HILLS
1028954;4305 CORPORATION;;4305;KATONAH AVENUE;;BRONX
1036855;FOWLER INC.;;1536;UNIONPORT ROAD;;BRONX
1037602;FOWLER ROUTE CO., INC;;1557;METROPOLITAN AVENUE;;BRONX
1038036;G & J LAUNDROMAT INC;;2618;DECATUR AVENUE;;BRONX
1040632;MISR LENOX CORP;;545;LENOX AVENUE;;NEW YORK
1072130;CLEAN RITE CENTER - 190-12 JAMAICA AVENUE LLC;;190-12;JAMAICA AVENUE;;QUEENS
1072351;STAR LAUNDROMAT CORP;;46-21;KISSENA BOULEVARD;;QUEENS
1074605;NEIGHBORHOOD LAUNDRY & CLEANERS, INC.;;71-70;YELLOWSTONE BOULEVARD;;QUEENS
1076827;DIKOMO INC;;30-98;  43 STREET;;QUEENS
1084665;PACHAMANA LAUNDROMAT CORP;;442C;LORIMER STREET;;BROOKLYN
1087962;THE ''4S'' CORP;;1835-1837;WHITE PLAINS ROAD;;BRONX
1089835;TAINO GOLD COIN LAUNDROMAT INC.;;2253;   3 AVENUE;;NEW YORK
1090304;SUPERIOR SUDS, INC.;;303;FLATBUSH AVENUE;;BROOKLYN
1091330;GONG'S LAUNDROMAT, INC.;;7324;  20 AVENUE;;BROOKLYN
1093134;YANG, RUI YUN;RUI YUN LAUNDROMAT;1906;AVENUE Y;1906-1910;BROOKLYN
1095331;M&D DOUBLE BUBBLE LAUNDROMAT, INC;;402;EAST  136 STREET;;BRONX
1097463;CHOIL WHITE EXPRESS, INC.;;43-28;  43 AVENUE;;SUNNYSIDE
1097527;88 LAUNDROMAT, INC;;2418;BROADWAY;;NEW YORK
1098753;HENRY STREET LAUNDROMAT CORPORATION;;416;HENRY STREET;;BROOKLYN
1100504;XIE, GUO QIN;XIE LAUNDROMAT;34-50;JUNCTION BOULEVARD;;JACKSON HEIGHTS
1106642;ELMHURST LAUNDRY CENTER INC;;45-12;  74 STREET;;ELMHURST
1111054;RQ ENTERPRISES, LLC;;728;WEST  181 STREET;;NEW YORK
1132582;OCEAN LAUNDRY CENTER INC.;;104;ST NICHOLAS AVENUE;;BROOKLYN
1132854;GA' ASIDE, INC;;275;NOSTRAND AVENUE;;BROOKLYN
1134677;BEST WINNER INC;;90-30;  43 AVENUE;;ELMHURST
1147627;HBH LAUNDRY CORP;ECO WASH;72;WEST   69 STREET;;NEW YORK
1155666;CASTLE HILL LAUNDROMAT, INC;;1203;CASTLE HILL AVENUE;;BRONX
1157807;JENNY LAUNDROMAT INC.;;1080;MYRTLE AVENUE;;BROOKLYN
1158113;CAMBRIDGE CLEANERS' INC.;;719;   2 AVENUE;;NEW YORK
1158219;YU, MEI-YING;M.Y LAUNDROMAT;31-08;  81 STREET;;JACKSON HEIGHTS
1158372;C & H WONDER LAUNDROMAT INC;;874;MANOR ROAD;;STATEN ISLAND
1159426;THOMPSON, DERYCK D;E N & S THOMPSON'S LAUNDROMAT;172;TOMPKINS AVENUE;;BROOKLYN
1159822;PURR-FECT CLEANERS, INC.;;232-17;MERRICK BOULEVARD;;QUEENS
1162381;SHERIDAN LAUNDROMAT INC.;;1539;SHERIDAN AVE;;BRONX
1164610;ALL AMERICAN SUDS, INC;;77-15;25TH AVENUE;;JACKSON HEIGHTS
1164774;472 ATLANTIC LAUNDROMAT INC;;472;ATLANTIC AVENUE;;BROOKLYN
1168637;812A CLEANERS CORP;;812A;FRANKLIN AVENUE;;BROOKLYN
1168992;1793 ACTION LAUNDROMAT INC;;1793;AMSTERDAM AVENUE;;NEW YORK
1169816;CLEAN O MATIC INC;;108-43;CORONA AVENUE;;QUEENS
1175322;ARLYNNE & PARTNERS LLC;;886;NOSTRAND AVENUE;;BROOKLYN
1175435;TAI SHAN LAUNDROMAT INC;;543;GRAND STREET;;BROOKLYN
1178709;AARYM DEVELOPMENT CORP;M & M COMMUNITY LAUNDRY;411;TOMPKINS AVENUE;;BROOKLYN
1180984;OLD NEIGHBORS LAUNDRY INC;;34-17;BROADWAY;;QUEENS
1014393;CHANG, HYO K.;CHANG'S LAUNDROMAT;171-67;  46 AVENUE;;QUEENS
1014980;CHEUK, SHUI YU;KING WONG LAUNDROMAT;14622;34TH AVE;;FLUSHING
1021982;CHUC, TRANG MY;FRIENDLY LAUNDROMAT;42-04; 108 STREET;;CORONA
1023836;HILLSIDE LAUNDROMAT, INC;SUPER CLEAN LAUNDROMAT;3391;BOSTON ROAD;;BRONX
1034024;CHA, HEE H;48TH AVENUE LAUNDROMAT;212-05;  48 AVENUE;;QUEENS
1036849;FOWLER INC;;1660;METROPOLITAN AVENUE;;BRONX
1039477;LI, KAI LEUNG;LEE'S LAUNDROMAT;74-15;WOODSIDE AVENUE;;QUEENS
1039922;MEKONG LAUNDROMAT & CLEANERS INC;;1612;YORK AVENUE;;NEW YORK
1039932;CLEAN RITE CENTERS- 1760 EASTERN PARKWAY LLC;;1760;EASTERN PARKWAY;;BROOKLYN
1040294;BENFICA INC;SPLASH LAUNDROMAT;159-35;CROSS BAY BOULEVARD;;QUEENS
1058731;OLD BROADWAY LAUNDROMAT, CORP;;3643;BROADWAY;;NEW YORK
1058877;CHON, MYUNG;1403 NECK ROAD LAUNDROMAT;1403;GRAVESEND NECK ROAD;FIRST FLOOR;BROOKLYN
1063628;SECOND CYCLE INC;;6111;   4 AVENUE;;BROOKLYN
1064470;CLEAN RITE CENTER, 762 SHEFFIELD AVE, LLC;;762;SHEFFIELD AVENUE;;BROOKLYN
1064947;G & J LAUNDERETTE INC.;;60-37;FRESH POND ROAD;;QUEENS
1067648;JH LAUNDROMAT CORP.;;118;NAGLE AVENUE;;NEW YORK
1069816;WATER FALL LAUNDROMAT INC;;217;SHERMAN AVENUE;;NEW YORK
1073164;CHO, BIK FA;RAINBOW LAUNDROMAT;83-09;GRAND AVENUE;;QUEENS
1077697;J.J. LAUNDROMAT CORP.;;315;EAST  166 STREET;;BRONX
1089332;NGUYEN, TUYEN T;P AND T LAUNDROMAT;786;LYDIG AVENUE;;BRONX
1094736;DONALD LEUNG & HANG SIM CHAN LEUNG;D & H LAUNDROMAT;2026;AVENUE X;;BROOKLYN
1097365;PACIFIC GEM, INC;MICKY'S LAUNDROMAT;82-37A; 153 AVENUE;;QUEENS
1097810;MEYO, RODOLFO;JOEY'S CLEANERS;1244;EAST GUN HILL ROAD;;BRONX
1099785;1631 LTD;;1631;WESTCHESTER AVENUE;;BRONX
1101342;Z.H. ASTORIA ENTERPRISES INC;;20-20;  21 AVENUE;;ASTORIA
1102497;ED'S LAUNDRY, CORP;;76-02;  21 AVENUE;;EAST ELMHURST
1102804;158 LAUNDROMAT CORP.;;158-19;HORACE HARDING EXPRESSWAY;AKA 158-11/27;FLUSHING
1104674;BROADWAY SUPERCLEAN SUPER LAUNDROMAT INC;;1150;BROADWAY;;BROOKLYN
1105096;I. TENERIFE CORP.;;75-33;PARSONS BOULEVARD;;QUEENS
1111818;TORRES, EMILIO;EMILIO'S LAUNDROMAT;100;COVERT STREET;;BROOKLYN
1111874;SPARKLEAN LAUNDRY INC;;291-293;SCHENECTADY AVENUE;;BROOKLYN
1124697;2987 FULTON STREET INC;;2987;FULTON STREET;;BROOKLYN
1125110;E Z SPIN LAUNDROMAT INC;;603-609;EAST  137 STREET;;BRONX
1132783;NEW HEAVEN ENTERPRISES, INC;;82-20;  63 AVENUE;;QUEENS
1135262;FU LAI LAUNDROMAT INC;;693;FLATBUSH AVENUE;;BROOKLYN
1138378;K & L LAUNDROMAT INC;;3012;AVENUE D;;BROOKLYN
1141543;SKY BLUE LAUNDROMAT,INC.;;243;EAST  204 STREET;;BRONX
1151585;WOODSIDE SUPER LAUNDRY INC.;;61-04;39 AVENUE;;WOODSIDE
1152550;R & C LAUNDROMAT INC;;274;  56 STREET;;BROOKLYN
1154004;MANK, LTD.;SOAPY'S LAUNDRY CENTER;274;BAY RIDGE PARKWAY;;BROOKLYN
1155203;NEW D & W LAUNDROMAT INC.;;4504;   8 AVENUE;;BROOKLYN
1156351;LAVANDERIA EXPRESS CORP.;;687;KNICKERBOCKER AVENUE;;BROOKLYN
1157658;VILLAGE WASH LAUNDROMAT INC.;;216-19;  90 AVENUE;;QUEENS VILLAGE
1158134;ON TIME EAST CLEANERS INC.;;477;   3 AVENUE;;NEW YORK
1158447;CLASSIC LAUNDRY CENTER JEROME, INC.;;2371;JEROME AVENUE;;BRONX
1158516;WANG, CHANG, HUA;CYPRESS LAUNDROMAT;316;CYPRESS AVENUE;;BRONX
1158517;MBJ DRY CLEANERS CORP.;;297;IRVING AVENUE;;BROOKLYN
1160185;J.M.B. LAUNDROMAT CORP;;102-20;NORTHERN BOULEVARD;;QUEENS
1164781;BRONX WONDERFUL LAUNDROMAT INC;;1470-1478;WESTCHESTER AVENUE;;BRONX
1166391;A & R NORTHERN BLVD INC;;96-01;NORTHERN BOULEVARD;;CORONA
1170728;JEON, BYUNG HYUN;J. MIDWOOD LAUNDROMAT;1416;CONEY ISLAND AVENUE;;BROOKLYN
1172184;NEW GIANT LAUNDER CENTER CORP;;113-20;JAMAICA AVENUE;;RICHMOND HILL
1172555;YOON, KIWOOK;O.K. CLEANER;84-11;ELMHURST AVENUE;;QUEENS
1020277;CARBALLO, MIRIAM;M & W LAUNDROMAT;995;MANHATTAN AVENUE;;BROOKLYN
1022144;CENTRAL LAUNDRY SERVICE CORP;;46;CROWN STREET;;BROOKLYN
1023415;YUHHSAN, INC;;61;WEST   74 STREET;;NEW YORK
1024190;TAVERAS, ISMAEL;GRAHAM LAUNDROMAT;174;GRAHAM AVENUE;;BROOKLYN
1024998;CHESTERFIELD CLEANERS CO .INC.;;409;AMSTERDAM AVENUE;;NEW YORK
1025267;LUM, ALFONSO;HILLSIDE LAUNDROMAT;147-12;HILLSIDE AVENUE;;JAMAICA
1025302;JONES, KAREN E;KAREN'S LAUNDRY;103-12;ASTORIA BOULEVARD;;EAST ELMHURST
1026101;PALAGUACHI, JOSE M.;FRAN TONE CLEANERS;6222;  11 AVENUE;;BROOKLYN
1027140;LEE'S LAUNDROMAT CORP;;1848;CONEY ISLAND AVENUE;;BROOKLYN
1027484;MANLEY LAUNDROMAT INC;;166;HENRY STREET;;NEW YORK
1027635;YOUNG LAUNDROMAT & DRY CLEANER INC;;52-69;  65 PLACE;;MASPETH
1029758;1663 CLEANERS INC;QUICK AS WINK;1498;EAST AVENUE;;BRONX
1033139;SIEGEL, MARAL;NEWNESS BRIGHTNESS HAPPINESS FULNESS;158-06;  84 DRIVE;;JAMAICA
1039336;SUNNY COIN-OP CORP;;1702;CHURCH AVENUE;;BROOKLYN
1063795;193 CORP;;193;HIMROD STREET;;BROOKLYN
1065813;L.L.I. LAUNDROMAT LTD;;361;LENOX AVENUE;;NEW YORK
1070760;FRATELLO LAUNDERIA INC;;4610;BEDFORD AVENUE;;BROOKLYN
1081299;RINSE CYCLE CORPORATION;;98-18;ROCKAWAY BEACH BOULEVARD;;ROCKAWAY PARK
1088993;JOHNSON, BELIGNA S;THREE STARS LAUNDROMAT;439;MYRTLE AVENUE;;BROOKLYN
1090640;NEW ANSONIA CLEANING, LLC;;230;WEST   74 STREET;;NEW YORK
1097972;KUANG, BAO YU;6738 LAUNDROMAT;6738;   5 AVENUE;;BROOKLYN
1098948;KALLIOPE'S SUNNY SUDS, LLC;;39-43;  43 AVENUE;;SUNNYSIDE
1100963;842 RALPH AVE LAUNDRY, INC;;842;RALPH AVENUE;;BROOKLYN
1101571;LOKENATH LAUNDROMAT INC;;41-20;JUNCTION BOULEVARD;;QUEENS
1102088;HOI KWAN TSUI & HOI MING TSUI;OCEAN LAUNDROMAT;7520;  18 AVENUE;;BROOKLYN
1105406;YANG GUANG CHAO & XIAO MING ZHANG;Y & Z LAUNDRY;1692;GROVE STREET;;RIDGEWOOD
1107293;A.A.A.C. CORP.;;1599;MCDONALD STREET;;BROOKLYN
1117097;STEPHEN, ELAVUANKAL M.;STAR LAUNDROMAT;89;WYCKOFF AVENUE;;BROOKLYN
1127399;JANET WASH & DRY CLEAN INC;;130-03; 101 AVENUE;;RICHMOND HILL
1140806;B & P LAUNDROMAT OF NY INC;;7320;   5 AVENUE;;BROOKLYN
1148665;4841 WASHRITE CORP;WASHRITE;4841;BROADWAY;;NEW YORK
1152603;JIA JIA LAUNDROMAT INC;;1888;ARCHER STREET;1888/1886;BRONX
1154216;MR. CLEAN LAUNDROMAT CORP.;;210;EAST  167TH STREET;;BRONX
1154472;GOLD COIN II LAUNDRY, CORP;TOWN LAUNDROMAT;83-20;NORTHERN BOULEVARD;;QUEENS
1158001;RAHMAN, MOHAMMED M;LIBERTY SUPER CLEAN LAUNDROMAT;401;CORTELYOU ROAD;;BROOKLYN
1158100;Q & Y LAUNDROMAT INC;;149-56;  14 AVENUE;;WHITESTONE
1158127;PARK'S NY CLEANERS INC;NY LAUNDROMAT;105;WEST   16 STREET;;NEW YORK
1158362;ATLANTIC SUPER LAUNDROMAT, LLC;;100-25;ATLANTIC AVENUE;;RICHMOND HILL
1165270;JIANG'SLAUNDROMAT, INC;;1115;FULTON STREET;;BROOKYN
1166871;AN HUA, INC.;;6322;20TH AVENUE;;BROOKLYN
1170695;ELEGANT CLEANERS & SHIRT LAUNDRY INC;;1579;CONEY ISLAND AVENUE;;BROOKLYN
1171204;EXCELLENT LAUNDRY & DRYCLEANER, INC;;412;EAST 64 STREET;;NEW YORK
1180524;J & I LAUNDROMATS INC;;3007;AVENUE J;;BROOKLYN
1180841;CHONG, LIAN WAH;ONE STOP DO ALL ENTERPRISE;318;EAST 70TH STREET;;NEW YORK
1180896;CHOW'S LAUNDRY INC.;;33-13;BROADWAY;;QUEENS
1183417;SUPER PLAN ASSOCIATE INC.;;754B;ST NICHOLAS AVENUE;;NEW YORK
1183945;CIAMPA JAMAICA LLC.;;90-05; 161 STREET;;JAMAICA
1184840;LIZ LAUNDROMAT CORP;;73-12;AUSTIN STREET;;FOREST HILLS
1185724;PARK, DU KYU;DK LAUNDROMAT;715;4 AVENUE;;BROOKLYN
1185796;LALO C & K LAUNDROMAT;;971;COLUMBUS AVENUE;;NEW YORK
1186937;KAVREN LAUNDROMAT INC.;;370;CRESCENT STREET;;BROOKLYN
1189656;XL LAUNDROMAT, INC.;;27-20;30 AVENUE;;ASTORIA
1191248;K & I LLC;;4113;   8 AVENUE;;BROOKLYN
1066111;HUANG & PAUL LAUNDROMAT INC;;43-20;  25 AVENUE;;ASTORIA
1068831;JILLYBABY LAUNDROMAT, INC.;;512;EAST   14 STREET;;NEW YORK
1078585;LORETHA, JOANNE,J.;PARADISE LAUNDROMAT;65-06;CENTRAL AVENUE;;QUEENS
1081650;CORONA RIGHT WASH CORPORATION;;37-53; 103 STREET;;QUEENS
1094384;TRIPLE 8 LAUNDROMAT, INC.;;1437;CONEY ISLAND AVENUE;;BROOKLYN
1094595;MAXWIL CORP.;;182;DEKALB AVENUE;;BROOKLYN
1097996;158TH STREET & BROADWAY LAUNDROMAT, INC;;3802;BROADWAY;;NEW YORK
1099575;NEW ELEGANT LAUNDROMAT INC.;;06/Apr;EAST  199 STREET;;BRONX
1100726;8TH AVENUE LAUNDROMAT INC;;4309;   8 AVENUE;;BROOKLYN
1100848;A.S.P.D. CORP;SUDSY BUBBLES;371;MANOR ROAD;;STATEN ISLAND
1100935;SAMANTHA LAUNDRY, CORP;;108-57;GUY R BREWER BOULEVARD;;JAMAICA
1115160;NEW TOWN LAUNDROMAT OF NY, INC.;;28-37;  31 STREET;;LONG ISLND CITY
1121341;OLYMPIC LAUNDROMAT SERVICES, INC;;21-06;NEWTON AVENUE;;ASTORIA
1128897;NEW BROADWAY LAUNDROMAT, INC;;81-15;BROADWAY;;QUEENS
1130938;CRYSTAL LAUNDROMAT, INC;;34-20;UNION STREET;;FLUSHING
1134181;MR. BUBBLES LAUNDROMAT INC.;;95-04;  35 AVENUE;;JACKSON HEIGHTS
1139048;OCEANWAVE LAUNDROMAT INC;;89-08;NORTHERN BOULEVARD;;QUEENS
1144711;COTTON WHITE LAUNDROMAT INC;;256;WEST   15 STREET;;NEW YORK
1146376;TONG YING ZHENG / RUIPING YANG;HONG KONG WASH & DRY;102-57;JAMAICA AVENUE;;RICHMOND HILL
1148716;LAUNDRY BASKET OF FIRST AVENUE, LLC;;2295;   1 AVENUE;;NEW YORK
1157793;S.B.C. LAUNDROMAT, INC.;;489;ROCKAWAY AVENUE;;BROOKLYN
1157839;ARIRANG CLEANERS, INC.;;172;EAST   61 STREET;;NEW YORK
1158252;ANDY & NIKI LAUNDROMAT, INC;;1523;AVENUE U;;BROOKLYN
1158381;OCEANSIDE GOLD CROWN INC;THE KLEEN MACHINE LAUNDROMAT;309;   5 AVENUE;;NEW YORK
1158449;CLASSIC LAUNDRY CENTER MORRIS, INC.;;1037;MORRIS AVENUE;;BRONX
1159044;MEADOW LAUNDROMAT INC.;;156-01;  45 AVENUE;;FLUSHING
1159266;SUPER LAUNDRY OF OGDEN INC;;96;WEST  162 STREET;;BRONX
1160899;659 ESSEX LAUNDRY LTD;;659;ESSEX STREET;;BROOKLYN
1161620;HEW, CHONG MEN;SAM HOP LAUNDRY;251;WEST   91 STREET;;NEW YORK
1163609;ODUGBEMI, MODUPE B;MOFET LAUNDROMAT SERVICES;1231;PUGSLEY AVENUE;;BRONX
1164046;SO FRESH & SO CLEAN INC.;;874A;MORRIS PARK AVENUE;;BRONX
1165204;ALPINE CLEANERS INC;;25A;SAINT JAMES PLACE;;NEW YORK
1166853;QUISQUEYA LAUNDROMAT CORP;;2338;AMSTERDAM AVENUE;;NEW YORK
1171374;PARK, YEAR S;REGO PARK LAUNDRY CENTER;97-21;64TH ROAD;;REGO PARK
1172697;BLUE WHITE LAUNDROMAT INC;;1015;OGDEN AVENUE;;BRONX
1175606;CHAU, WING KIT;NEW BELLROSE LAUNDROMAT;4002;CHURCH AVE;;BROOKLYN
1175960;WASH & SCRUB LAUNDRY INC.;;465;LENOX AVENUE;;NEW YORK
1178402;CAISIMU CORP;EMERALD VALLEY DRY CLEANERS;206;WEST  238 STREET;;BRONX
1181860;HURTADO, LUIS C;LAUNDRY MASTER;21;E 175TH ST;;BRONX
1185041;BUBBLY CLEAN LAUNDROMAT INC;;8612;BAY PARKWAY;;BROOKLYN
1187181;M&M LAUNDROMAT, INC;;97-03;JAMAICA AVENUE;;WOODHAVEN
1188637;BACCHUS, MOHINI ISHACK;BACCHUS LAUNDROMAT;136-36;HOOKCREEK BOULEVARD;;ROSEDALE
1189600;WHANG, EUN-AEH;EVERGREEN LAUNDRY;245-08;HORACE HARDING BOULEVARD;;LITTLE NECK
1190182;BIG B&B LAUNDROMAT, INC.;;77;RICHMOND HILL ROAD;;STATEN ISLAND
1203091;GREAT WALL LAUNDRY & CLEANING, INC.;;200;WEST 14TH STREET;;NEW YORK
1203677;MARINE PARK LAUNDROMAT INC;;3834;FLATLANDS AVENUE;;BROOKLYN
1206283;COSMOS LAUNDROMAT INC;;1240;EDWARD L GRANT HIGHWAY;;BRONX
1208147;5705 LAUNDROMAT INC.;;5705;7TH AVENUE;;BROOKLYN
1212161;2439 LTD.;AC SPARKLE SPOT;2439;CRESTON AVENUE;;BRONX
1213068;PLAN 452 SPIN & SPAN INC.;;452;9 AVENUE;;NEW YORK
1214430;HAM, SOOK JA;HAPPY & BRIGHT LAUNDROMAT;471;   5 AVENUE;;BROOKLYN
1215810;GERMAN, CRISTINA V;1683 MACOMBS LAUNDROMAT;1683;MACOMBS ROAD;;BRONX
1216814;COLORFUL LAKE INC.;;112-20;FARMERS BOULEVARD;;ST. ALBANS
206974;HUANG, KEH LIEH;;101;   7 AVENUE;;BROOKLYN
573980;LOU, QUAN TOR & LOU,KAREN;;115-16;ROCKAWAY BOULEVARD;;RICHMOND HILL
620851;ESPERANZA LAUNDROMAT INC;;4512;SKILLMAN AVE;;SUNNYSIDE
625886;BAY RIDGE LAUNDER CENTER INC;;7007;   3 AVENUE;;BROOKLYN
629918;WILLIAMS, FRANK;;205-15;LINDEN BOULEVARD;;ST ALBANS
699664;DANG, LONG GIANG;LONG GIANG DANG CO;168;ELIZABETH STREET;;NEW YORK
781274;S.A.B. COIN-OP. I, INC.;;8681 -83;  20 AVENUE;;BKLYN
789087;BRUSCO, MICHAEL;WEST 79TH ST LAUNDROMAT;218;WEST   79 STREET;;NEW YORK
805172;PAK LAUNDRY & PRESSING INC;;1194;NECK ROAD;;BROOKLYN
818212;85TH LAUNDROMAT INC;;251;WEST   85 STREET;;NEW YORK
830618;A-PLUS LAUNDROMAT CORP;;115-09;ATLANTIC AVENUE;;RICHMOND HILL
831450;DINNY'S LAUNDROMAT INC;;162-10;SOUTH ROAD;;JAMAICA
833279;LOUISMA ENTERPRISES INC;;413-415;REMSEN AVENUE;;BROOKLYN
837097;MR. D. LAUNDROMAT LTD;MR D'S LAUNDROMAT;23;BROAD STREET;;STATEN ISLAND
839096;MALCOM/HANCOCK      LAUNDRY INC;;656;HANCOCK STREET;;BROOKLYN
839755;JOHNSON, CASSEL J;C & I LAUNDERMAT;122-16;SUTPHIN BOULEVARD;;JAMAICA
851676;EVERGREEN 238/58 LAUNDRY & CLEANERS INC;CLEAN MORE;250;EAST   90 STREET;;NEW YORK
882291;WIEGAND, WILLIAM E;ULTRA CLEAN         LAUNDRY #2;269;EAST  198 STREET;;BRONX
882932;DUN-RITE LAUNDROMAT INC;;21-33;  31 AVENUE;;ASTORIA
883627;DUCE LAUNDROMAT INC;;267;DYCKMAN STREET;;NEW YORK
890285;VITALE, VINCEZO, VITALE, MARIA;CIRVIT LAUNDROMAT;638;EAST  183 STREET;638-640 E 183 ST;BRONX
894631;EVONIS INC;MASPETH DRY CLEANERS;69-27;GRAND AVENUE;;MASPETH
895136;PULLEY, JUNGNAM;CARESS DRY CLEANERS;208;EAST   73 STREET;;NEW YORK
895331;CHARLIE'S LAUNDROMAT& DRY CLEANERS CORP;;79-20;PARSONS BOULEVARD;;FLUSHING
896428;AYALA, MARIO;MARIO LAUNDROMA;37-89; 103 STREET;;QUEENS
898353;PLAZA CONTINENTAL CLEANERS INC C;;15;STATION SQUARE;15 & 17 STATION SQUARE;FOREST HILLS
905791;PRASINOS, DEMETRA;STAVROS LAUNDROMAT;516;GRANDVIEW AVENUE;;RIDGEWOOD
913939;METRO COMMUNITY LAUNDROMAT CORP;;561;METROPOLITAN AVENUE;;BROOKLYN
917623;MISR CLEANING CENTER CORPORATION;;1330;   5 AVENUE;;NEW YORK
924128;J & M CROCHERON LAUNDROMAT CORP;J & M CROCHERON LAUNDROMAT;169-14;CROCHERON AVENUE;;QUEENS
925883;POLANCO & SON LAUNDROMAT CORP;;944;AMSTERDAM AVENUE;;NEW YORK
926525;SPLISH-SPLASH INC;;145-08;LIBERTY AVENUE;;QUEENS
928503;YING HUA, TI CHEN;;224;LEXINGTON AVENUE;;NEW YORK
934626;CHAN, AI GUANG;CHAN'S LAUNDRONAT;3920;   5 AVENUE;;BROOKLYN
937582;LEE, DONG CHIN;9TH STREET LAUNDROMAT CLEANERS;334;   9 STREET;;BROOKLYN
947157;RAMSEWAK, CAMGRAJ;CRESCENT FAMILY LAUNDROMAT;2763;PITKIN AVENUE;ROOM 16;BROOKLYN
951783;KOST, JERRY M;SUSAN PLACE LAUNDROMAT;79;DRIGGS AVENUE;;BROOKLYN
953144;RAMOS, ISMAEL J;AROUND THE BLOCK LAUNDROMAT;1707;MELVILLE STREET;;BRONX
953425;LEUNG, SUEY HAR;BRIGHT LAUNDROMAT CLEANERS;51-16;SKILLMAN AVENUE;;WOODSIDE
965447;COINDET, RAMON;WASH & DRY;84-09;NORTHERN BOULEVARD;;QUEENS
969258;S H F F LAUNDRY INC;;530;GATES AVENUE;;BROOKLYN
971305;MICHEL, LUCIEN;SUZE LAUNDROMAT;469;VERMONT STREET;;BROOKLYN
976041;HA, YUNG SOO;MORRIS PARK LAUNDROMAT;1015;MORRIS PARK AVENUE;;BRONX
976470;WASH-TIME INC;;33-13;  36 AVENUE;;QUEENS
979377;112-09 ROCKAWAY BLVD LAUNDROMAT INC;;112-09;ROCKAWAY BOULEVARD;;OZONE PARK
979830;KING FOUNTAIN LAUNDROMAT INC;;84-09;   3 AVENUE;;BROOKLYN
981108;HEIGHTS DRY CLEANERS INC;;89-19;NORTHERN BOULEVARD;;JACKSON HGTS
981275;LA GUARDIA LAUNDRY MART CORP.;;23-42;  94 STREET;;EAST ELMHURST
983835;D & R MFG. CORP.;;61-25;SPRINGFIELD BOULEVARD;;QUEENS
988501;RAMSUNDAR,  BHOOJNAUTH;RIO BRAVO LAUNDERAMA;1612;AVENUE H;;BROOKLYN
996069;ONE NINETY SIXTH ST LLC;;92-06; 196 STREET;;HOLLIS
997339;CHO, MICHAEL H;M & S CLEANERS;292;PORT RICHMOND AVENUE;292-294;STATEN ISLAND
1022736;JEAN'S MANHATTAN CLEANERS & LAUNDROMAT, INC;;198;   9 AVENUE;;NEW YORK
1024035;WASH IT RIGHT LAUNDROMATS, INC;;352;SOUTH    1 STREET;;BROOKLYN
1024354;STAR WASH LAND INC;;2373;  86 STREET;;BROOKLYN
1025786;CITY BRITE CLEANER INC;;238;LAFAYETTE STREET;;NEW YORK
1029486;ALL AMERICAN LAUNDRY SERVICE, INC;BAY PARK CLEANERS;3182;WESTCHESTER AVENUE;;BRONX
1030194;M&I LAUNDROMAT CORP;;2540;LINDEN BOULEVARD;;BROOKLYN
1034083;SAPEG, JUAN J;SAINT LAWRENCE LAUNDROMAT;1295;ST LAWRENCE AVENUE;;BRONX
1034929;D & J LAUNDROMAT CORP;;1251;WESTCHESTER AVENUE;;BRONX
1058911;LAUNDRY MANIA LLC;;411;DITMAS AVENUE;;BROOKLYN
1059423;METRO COMMUNITY LAUNDROMAT CORP;;571;METROPOLITAN AVENUE;;BROOKLYN
1069142;LAUNDRY COLOSSEUM INC.;;2625;JEROME AVENUE;;BRONX
1078377;KIM, SANG H;QUALITY LAUNDROMAT;50-21;SKILLMAN AVENUE;;WOODSIDE
1082728;BROOKLYN'S BEST LAUNDROMAT INC;;7918;FLATLANDS AVENUE;;BROOKLYN
1092177;CITY SUPER LAUNDRY INC;;173;EAST    2 STREET;;NEW YORK
1094456;JIN XIU LAUNDRYMAT INC.;;89-43;ELMHURST AVENUE;;ELMHURST
1097265;PACIFIC LAUNDROMAT, INC.;;6719;  14 AVENUE;1ST FLOOR;BROOKLYN
1099338;A & P LAUNDROMAT, INC;;1474;ST PETERS AVENUE;;BRONX
1099862;LUCKY TWO CLEANERS INC;;335;   1 AVENUE;;NEW YORK
1102740;CLEAN RITE CENTER-621 4TH AVE LLC;;621;   4 AVENUE;;BROOKLYN
1107185;KIM, HANGYU;HAN'S LAUNDROMAT;18-43;COLLEGE POINT BOULEVARD;;QUEENS
1109142;SUDS & DUDS #2, INC;;162;UNION STREET;;BROOKLYN
1115540;NEW MODERN FRENCH CLEANERS INC.;;530;   2 AVENUE;;NEW YORK
1118516;TOOLSEE LAUNDROMAT CORP;;1527;WESTCHESTER AVENUE;;BRONX
1121967;CRYSTAL CLEAN HOUSE INC.;;109;EAST  116 STREET;;NEW YORK
1127797;SUPER STAR LAUNDROMAT, INC;;214;SCHENECTADY AVENUE;;BROOKLYN
1127928;BEST WASH LAUNDROMAT CORP.;;3901;NEW UTRECHT AVENUE;;BROOKLYN
1131335;BEST LAUNDROMAT INC.;;3642;BAILEY AVENUE;;BRONX
1133421;KIM, DONG C;AVALON LAUNDROMAT;8218;   5 AVENUE;;BROOKLYN
1137914;LANDI, MANUEL & LANDI, HILDA;M & H LAUNDROMAT;687;SENECA AVENUE;;RIDGEWOOD
1139018;185 LAUNDER CENTER CORP.;;71-10;  35 AVENUE;;QUEENS
1142089;H.F. LAUNDROMAT, INC.;;7523;  20 AVENUE;;BROOKLYN
1145599;JORGE'S LAUNDRY, INC.;;1645;AMSTERDAM AVENUE;;NEW YORK
1147722;WU, SHU SEN;TIP TOP LAUNDROMAT;370;RALPH AVENUE;;BROOKLYN
1147883;LAUNDRY CORNER, INC;;158;SOUTH AVENUE;;STATEN ISLAND
1149321;TEDDIMATTS, INC;;630;EAST  176 STREET;;BRONX
1153226;LEE, SUN, W;NEW 108 LAUNDROMAT;63-40; 108 STREET;;FOREST HILLS
1154904;NABI CLEANERS INC;;335;   2 AVENUE;;NEW YORK
1155951;CONCOURSE LAUNDROMAT CORP;;2569;GRAND CONCOURSE;;BRONX
1157251;LARBI, MARTIN;M'S J WALTON LAUNDROMAT;1295;WALTON AVENUE;;BRONX
1157753;MIDWAY CLEANERS, INC.;;560;   3 AVENUE;;NEW YORK
1158074;LI, SHI YUAN;SHI YUAN LAUNDRY;7021;  18 AVENUE;;BROOKLYN
1158990;CARROLL GARDENS WASH-N-DRY CORP;;425;COURT STREET;;BROOKLYN
1159028;D & P LAUNDROMAT INC.;;525;   9 AVENUE;;NEW YORK
1160267;YANG GUANG LAUNDROMAT, INC.;;30-94;  34 STREET;;ASTORIA
1163772;DIOS RESTAURA LAUNDROMAT INC;;671;PROSPECT AVENUE;;BRONX
1165546;ENC LAUNDROMAT INC;;98-14;  37 AVENUE;;CORONA
1168983;UPTOWN LAUNDROMAT, INC.;;2916;   8 AVENUE;;NEW YORK
1173314;DAI LE KANG LAUNDROMAT INC.;;3914;47 AVE;;SUNNYSIDE
1175210;RIDGEWOOD BUBBLES, CORP;;1039;SENECA AVENUE;;RIDGEWOOD
1181072;SHALUJA LAUNDRY CORP.;;145-30;LAKEWOOD AVENUE;;JAMAICA
1181571;CLEAN LAUNDRYLAND, INC.;;4027;WHITE PLAINS ROAD;;BRONX
1183276;PAN LAUNDROMAT INC.;;91-62;97TH STREET;;WOODHAVEN
1184081;PLAN 233 SPARK-WASH INC.;;233;   9 AVENUE;;NEW YORK
1186230;PARKWAY LAUNDRY, LLC;;2452;WILLIMSBRIDGE ROAD;;BRONX
1182142;3411 LAUNDRY CORP;;3411;AVENUE H;;BROOKLYN
1183166;JIANG, JIN XIA;STARS LAUNDROMAT;7202;3RD AVENUE;;BROOKLYN
1184167;NAN YANG LAUNDRY, INC;;32-63;FRANCIS LEWIS BOULEVARD;;QUEENS
1185317;LAUNDRY DEPOT OF N.Y. & N.J., INC.;;73;EMPIRE BOULEVARD;;BROOKLYN
1186789;KIM, KILJA;GREENPOINT LAUNDROMAT;39-15;GREENPOINT AVENUE;;QUEENS
1188218;1392 LAUNDROMAT LLC;;1392;ATLANTIC AVENUE;;BROOKLYN
1188406;NICO LAUNDROMAT CORP.;;988;EAST  163 STREET;;BRONX
1188615;LUO, SONG;;68-08;FRESH POND ROAD;;RIDGEWOOD
1188758;BANG, HYUN SOO;A & K HYUN CLEANERS;8302;3RD AVENUE;;BROOKLYN
1192088;9 KIT INC.;;43-07;GREENPOINT AVENUE;;SUNNYSIDE
1194969;WANG, JIAO OH & GAO, LIH SHIANG;GREEN POINT LAUNDROMAT;132;FRANKLIN STREET;;BROOKLYN
1196133;NEIGHBORHOOD LAUNDRY & DRY CLEANERS, INC.;;1746;FIRST AVENUE;;NEW YORK
1199403;VENUS LAUNDROMAT, L.L.C.;;7022;  13 AVENUE;;BROOKLYN
1202392;HEIGHTS DROP-OFF CENTER AND LAUNDROMAT INC;;6;COLUMBIA PLACE;;BROOKLYN
1202799;LUCKY COIN LAUNDROMAT, INC.;;323;MADISON STREET;;NEW YORK
1206206;BENSON LAUNDROMAT INC.;;770;GRAND STREET;;BROOKLYN
1208919;HAGHANEGI HASSAN, HAGHANEGI PAYAM & HAGHANEGI PEDRAM;P & P LAUNDROMAT;82;SOUTH    4 STREET;;BROOKLYN
1209969;NEW OVINGTON LAUNDROMAT CORP;;277;OVINGTON AVENUE;;BROOKLYN
1210003;K & K LAUNDROMAT INC;;5413;AVENUE N;;BROOKLYN
1210566;2J CORP;;3421;BOSTON ROAD;;BRONX
1211519;COSMO'S LAUNDERAMA, INC.;;121;FIRST AVENUE;;NEW YORK
1213854;R B MODERNA CORP.;BROOKLYN BUBBLES LAUNDROMAT;129;WILSON AVENUE;;BROOKLYN
1215293;UP ALL NIGHT LAUNDRY, INC.;;1965;AMSTERDAM AVENUE;;NEW YORK
1215676;GRANDBROOK ENTERPRISES, INC.;;655;SUTTER AVENUE;;BROOKLYN
1215848;J & M LAUNDROMAT LLC;;231;NEPTUNE AVENUE;;BROOKLYN
1216164;CLEAN CITY EASTCHESTER, LLC;;3501;BOSTON ROAD;;BRONX
1216220;SUPER LAUNDRYLAND INC.;;1263;WHITE PLAINS ROAD;;BRONX
1216804;FENG, PEI XIA;HING WONG LAUNDROMAT;783;CYPRESS AVENUE;;RIDGEWOOD
1217147;TORRES, FERNANDO DE JESUS;C & G LAUNDROMAT;224;SOUTH 3RD STREET;;BROOKLYN
1217748;VOA INC.;;112-20;FARMERS BOULEVARD;;ST. ALBANS
1218469;BETTY CONVENIENCE LAUNDROMAT, CORP.;;1051;BEDFORD AVENUE;;BROOKLYN
1219354;NO. 1 LAUNDROMAT INC.;;5921;   4 AVENUE;;BROOKLYN
1221131;3 STAR BRONX LAUNDROMAT, INC.;;680;MELROSE AVENUE;;BRONX
1224917;2001 PALMETTO, CORP;WASH & GLO LAUNDROMAT;2001;PALMETTO STREET;;RIDGEWOOD
1225084;3052 INC;;3052;KINGSBRIDGE AVENUE;;BRONX
1225270;MAGIC LAUNDRY SERVICES, INC.;;26-02/04;18 STREET;;ASTORIA
1225736;JIANG'S WASHBASKET INC;;92-04;JAMAICA AVENUE;;WOODHAVEN
1226141;ISABELLA LAUNDROMAT, INC;;2462;VALENTINE AVENUE;;BRONX
1226243;SUPER KINGDOM LAUNDROMAT INC;;266;WEST  135 STREET;;NEW YORK
1228246;YUN, ANNA KYONGIM;ANNA'S LAUNDROMAT;2467;EAST TREMONT AVENUE;;BRONX
1230165;BRUSTO, INC;THE LAUNDRY CENTER;262D;ARDEN AVENUE;;STATEN ISLAND
1230389;DENNIS LAUNDROMAT ENTERPRISES INC;;323;CITY ISLAND AVENUE;;BRONX
1230887;JSV LAUNDROMAT INC.;;1558;BATH AVENUE;;BROOKLYN
1232752;PECUNIA, ERIC;CLOTHESLINE LAUNDROMAT;23;GIFFORDS LANE;;STATEN ISLAND
1232877;DAE YOUNG LAUNDROMAT CORP.;;359;EAST  105 STREET;;NEW YORK
1233100;4 BROS. LAUNDRY INC.;;355;EAST  167 STREET;;BRONX
1237878;KING II LAUNDROMAT, INC;;4718;CHURCH AVENUE;;BROOKLYN
1239911;69-32 BRIGHT LAUNDROMAT CORP.;;69-32;MAIN STREET;;FLUSHING
1241602;BLUE STAR LAUNDROMAT INC.;;55;GUNTON PLACE;;STATEN ISLAND
1241805;TUNG LAUNDROMAT, INC;;69-19;FRESH POND ROAD;;RIDGEWOOD
1243583;ARAUJO, WIDALIN;ARAUJO LAUNDROMAT;3391;WHITE PLAINS ROAD;;BRONX
1243730;SPRING LAUNDROMAT OF NY, INC.;;1906;CHURCH AVENUE;;BROOKLYN
1244821;RUBY'S LAUNDROMAT LLC;;345;TOMPKINS AVENUE;;BROOKLYN
1159722;CROWN STAR, INC.;;884;FRANKLIN AVE;;BROOKLYN
1161422;LIU, XIU MEI;LUCKY LAUNDROMAT;248;KINGS HIGHWAY;;BROOKLYN
1162062;THOMPSON STREET LAUNDROMAT INC;;233;THOMPSON STREET;;NEW YORK
1164684;YANG, YOUNG S;PROFESSIONAL LAUNDROMAT OF N Y;34-07;CRESCENT STREET;;QUEENS
1166796;K & R LAUNDRIES, INC.;;87-04;ASTORIA BOULEVARD;;EAST ELMHURST
1168236;LAUNDRY DEPOT KNICKERBOCKER, LLC;;493;KNICKERBOCKER AVENUE;;BROOKLYN
1170069;SANCHEZ, FELIPE;S & P LAUNDROMAT;307;EAST  176 STREET;;BRONX
1175071;RESTO, MAGDA;GLENDALE LAUNDROMAT COMPANY;6739;CENTRAL AVE;;RIDGEWOOD
1175304;YANGTZE RIVER LAUNDROMAT, INC;;324;EAST    3 STREET;;NEW YORK
1177374;ZHAN, JIAN AI;A.J. SUNNY LAUNDROMAT;218;EAST   89 STREET;;NEW YORK
1180384;PNR LAUNDROMAT, INC;MR. MACHINE;147-03;UNION TURNPIKE;;FLUSHING
1180406;LIN, DE LONG;LIN'S LAUNDROMAT;1319;FOSTER AVENUE;;BROOKLYN
1182120;JANDAR, INC.;ULTRA BRIGHT LAUNDROMAT;2306;  86 STREET;;BROOKLYN
1182996;ZHENG, QI;QI LAUNDROMAT;143;TOMPKINS AVENUE;;BROOKLYN
1187936;CLASSIC LAUNDRY 145 LLC;;268-270;W 145TH ST;;NEW YORK
1187997;DYNAMO PIN AN, INC;;610;NOSTRAND AVENUE;;BROOKLYN
1188021;2099 LAUNDROMAT INC;;47-14;   7 AVENUE;;BROOKLYN
1188155;KIM'S NY LAUNDROMAT, INC;;208;AVENUE A;;NEW YORK
1189766;CUEVAS, PATRICIO;MORRIS HTS LAUNDROMAT;1669;GRAND AVENUE;;BRONX
1189987;CHEN, FEI;NEW VANDERBILT LAUNDROMAT;630;VANDERBILT AVENUE;;BROOKLYN
1190022;KWIK LAUNDROMAT, INC.;;33-34;21 STREET;;LONG ISLND CITY
1198273;MENESES ENTERPRISES, LTD;HILL LAUNDROMAT;202-23B;HILLSIDE AVENUE;;QUEENS
1202280;SUPERWASH 86, INC.;;2432;86 STREET;;BROOKLYN
1204037;INTERBORO LAUNDROMAT, CORP;;661;CENTRAL AVENUE;;BROOKLYN
1210268;ZHENG, YU-JING;NEW HAPPY LAUNDROMAT;5106;AVENUE N;;BROOKLYN
1212348;MERMAID LAUNDROMAT INC.;;24;CHARLES STREET;;NEW YORK
1213129;MS BUBBLE LAUNDRY INC.;;1440;AMSTERDAM AVENUE;;NEW YORK
1213700;LAM'S LAUNDROMAT, INC.;;67-05A;AUSTIN STREET;;FOREST HILLS
1214219;ARBA MANAGEMENT GROUP, INC;DOUBLE BUBBLE LAUNDROMAT;2928;AVENUE P;;BROOKLYN
1215364;JENNIFER DRY CLEANER, INC.;;181-04;UNION TURNPIKE;;FLUSHING
1215942;MEYO, RODOLFO;MEYO'S DRY CLEANERS;1121;ASTOR AVENUE;;BRONX
1216338;GERMAN, CRISTINA V;FRIENDLY LAUNDROMAT;1705A;UNIVERSITY AVENUE;;BRONX
1217055;SUNNY BRIGHT CLEANERS INC;SUNNY BRITE CLEANERS;65-02;FRESH MEADOWS LANE;;FRESH MEADOWS
1217579;IRMAS ASSOCIATES LLC;;666;EAST  233 STREET;;BRONX
1218435;RITE WASH INC;;281-289;CROWN STREET;;BROOKLYN
1219365;BRIGHT LAUNDRY LAND CORP.;;108;STANTON STREET;;NEW YORK
1219745;STOP ONLY LAUNDROMAT INC.;;228;BAY RIDGE AVENUE;;BROOKLYN
1222991;MATA, RAFAEL;SOL Y LUNA LAUNDROMAT;642;MELROSE AVENUE;;BRONX
1223683;SILVER LAUNDROMAT, INC.;;1520;SILVER STREET;;BRONX
1226031;CHOW, OI FONG;NEW BRITE LAUNDROMAT;43-08;34TH AVE;;LONGISLANDCITY
1226131;W.X. LAUNDROMAT INC.;;90-43; 149 STREET;;JAMAICA
1226497;MRJ MOSHOLU LAUNDRY, INC.;;7;WEST MOSHOLU PARKWAY NORTH;;BRONX
1234582;140 GREEN LAUNDROMAT, INC;;140;HAMILTON PLACE;;NEW YORK
1234597;N.C.M. LAUNDRY CORPORATION;;76-12;LIBERTY AVENUE;;OZONE PARK
1235727;SUDSMASTER CORP;;3202;LAYTON AVENUE;;BRONX
1236716;109-10 LAUNDRY CORP;EXPRESS 1 LAUNDROMAT;109-10;NORTHERN BOULEVARD;;CORONA
1236746;KE IMMACULATE LAUNDRY INC.;;271;SHERMAN AVENUE;;NEW YORK
1237927;CLEAN RITE CENTERS-FARMERS/I 2005, LLC;CITY LAUNDRY;127-02;FARMERS BOULEVARD;;SPRINFIELD GRDS
1240014;URBAN LAUNDROMAT, INC;;37-05; 108 STREET;;QUEENS
1243349;MARLENE'S LAUNDROMAT AND DRY CLEANING SERVICES CORP.;;84-02;  91 AVENUE;;WOODHAVEN
1244026;BROAD LAUNDRY CORP;;3181;WEBSTER AVENUE;;BRONX
1244531;CHENS LAUNDROMAT INC;;32;ROCKAWAY AVENUE;;BROOKLYN
1246846;SPRING LAUNDROMAT, INC;;47-06;  47 AVENUE;;WOODSIDE
1173648;BARRERA, GLADYS;PEARLS LAUNDROMAT;162;CRESCENT ST;;BROOKLYN
1184978;EMPIRE LAUNDROMAT USA INC;;109-03;LIBERTY AVENUE;;S RICHMOND HILL
1185075;W & G LAUNDROMAT & DRY CLEANERS, INC.;63RD DRIVE LAUNDROMAT & DRY CLEANERS;96-08;63RD DRIVE;;REGO PARK
1185798;T & Z LAUNDROMAT CORPORATION;KLEAN & KLEANER LAUNDROMAT;13-15;BEACH CHANNEL DRIVE;;QUEENS
1186429;ABREU, RAMONA;EBONY LAUNDROMAT;551;ONDERDONK AVENUE;;RIDGEWOOD
1186737;BI BEST LAUNDROMAT, INC;;2510;WHITE PLAINS ROAD;;BRONX
1188201;MALAVE, EDWIN & MALAVE, GLADYS;M & J LAUNDROMAT;1159;BLAKE AVENUE;;BROOKLYN
1188781;RAINBOW DROP LAUNDROMAT, INC;;97-22;CORONA AVENUE;;QUEENS
1188850;K & D QUALITY SUDS INC.;;114-29;135TH AVENUE;;SOUTH OZONE PK
1190089;SARAH N SHELLY, INC.;;1107;CYPRESS AVENUE;;RIDGEWOOD
1192282;AZUL-34 LLC;;33-18;34TH STREET;;ASTORIA
1193186;MURRAY HILL LAUNDROMAT INC;;40-02; 150 STREET;;QUEENS
1199415;LANE CLEANERS CORP;;164-10;69TH AVENUE;;FRESH MEADOWS
1200846;50-14 ROOSEVELT AVENUE LLC;LAUNDRY CITY;50-18;ROOSEVELT AVENUE;;WOODSIDE
1202882;BROTHER LAUNDROMAT INC;;341;OCEAN AVENUE;;BROOKLYN
1203257;ZHENG, XIN ZUI;ZHENG'S LAUNDROMAT;83-35;BROADWAY;;QUEENS
1204731;NEW PAK LUCKY STAR LAUNDROMAT, INC;;661;CONEY ISLAND AVENUE;;BROOKLYN
1205137;HON-DA LAUNDROMAT, INC.;;86-07;ROCKAWAY BEACH BOULEVARD;;ROCKAWAY BEACH
1206656;ZENG'S LAUNDROMAT, INC;;1702-12;EAST   16 STREET;;BROOKLYN
1211821;CL LAUNDROMAT INC;;104-02;FLATLANDS AVENUE;;BROOKLYN
1211934;CONNECTICUT CORP.;FARMERS LAUNDROMAT;136-33;FARMERS BOULEVARD;;SPRINGFIELS GDS
1211974;QL LAUNDROMAT INC;;3921;   7 AVENUE;;BROOKLYN
1214433;FEI DA LAUNDROMAT INC;;4416;   4 AVENUE;;BROOKLYN
1215143;A R J SERVICES INC;;215-217;EAST 84TH STREET;;NEW YORK
1215667;LAUNDRY MART, INC.;;1060;WOODYCREST AVENUE;;BRONX
1216087;LI, XIAN QIN;LI'S 11 AVE. LAUNDROMAT;6412;  11 AVENUE;;BROOKLYN
1216803;PAI, TA-KUANG;PAI LAUNDROMAT;45-25;PARSONS BOULEVARD;;FLUSHING
1217108;MANNAN, ABDUL;AAA WASH & CLEAN;89-04;ELIOT AVENUE;;REGO PARK
1217326;PROSPECT LAUNDROMAT, INC.;;223;PROSPECT PARK WEST;;BROOKLYN
1217785;FIONA LAUNDROMAT, INC.;;4517;AVENUE L;;BROOKLYN
1218207;SAWO, DOROTHY J;CLASSON LAUNDRY;1066;FULTON STREET;;BROOKLYN
1218825;8004 5TH AVE LAUNDRY INC;;8003;   5 AVENUE;;BROOKLYN
1223345;S&M QUALITY LAUNDROMAT, INC.;;74-36;JAMAICA AVENUE;;WOODHAVEN
1224513;DONG, LIN;48 LAUNDROMAT;48;HESTER STREET;;NEW YORK
1225776;FAMILY STOP & WASH LAUNDROMAT INC.;;5910;   7 AVENUE;;BROOKLYN
1225918;SACK A SUDS INC.;;1062;MORRIS PARK AVENUE;;BRONX
1225936;192 LAUNDROMAT INC;;40-48;192 STREET;;FLUSHING
1226551;WHITESTONE LAUNDROMAT (NY) INC.;;Dec/41; 150 STREET;;WHITESTONE
1230685;JMB CAPITAL SUCCESS, INC.;;7708;  17 AVENUE;;BROOKLYN
1232807;CIAMPA NORTH LLC;;132-27;  14 AVENUE;;QUEENS
1232907;PARK & LEE LAUNDROMAT INC.;;700;SOUTHERN BOULEVARD;;BRONX
1235158;OWM GROUP INC.;;41-02;30TH AVENUE;;ASTORIA
1235199;57TH AVENUE, LLC;START FRESH LAUNDRAY;85-27;  57 AVENUE;;ELMHURST
1235575;MDV LAUNDROMAT INC.;;1720;BOONE AVENUE;;BRONX
1236711;XIAO, XIU YUN;LUCKY LAUNDRY;210;KNICKERBOCKER AVENUE;;BROOKLYN
1242597;PJE LAUNDROMAT, INC.;;760;ASTOR AVENUE;;BRONX
1246592;OI WAH LAUNDROMAT INC.;;41-04; 102 STREET;;CORONA
1247635;DAHWAN NY ENTERPRISES, INC;;37-22;ASTORIA BOULEVARD;;ASTORIA
1248750;FA FA LAUNDROMAT, INC;;361;ST NICHOLAS AVENUE;;RIDGEWOOD
1249280;SOUNDVIEW LAUNDROMAT, INC.;;263;SOUNDVIEW AVENUE;;BRONX
1250302;G. VENENOSO SERVICES INC.;GENO'S LAUNDROMAT;30-93;  37 STREET;;QUEENS
1250695;ARCE, ALEJANDRO;PENNY'S LAUNDROMAT;166;NICHOLS AVENUE;;BROOKLYN
1256235;SHUN FA TRADING (USA) INC;;828;LAFAYETTE AVENUE;;BROOKLYN
1195521;ANGEL'S LAUNDROMAT CORP;;92-18;ROOSEVELT AVENUE;;QUEENS
1199188;JIANG, NAI YAN;JIANG'S LAUNDRY AND DRY CLEAN;144-25;JAMAICA AVENUE;;JAMAICA
1200034;34 LAUNDROMAT, INC;;34;LORRAINE STREET;;BROOKLYN
1200435;MAGIC COIN LAUNDROMAT, INC;;1660;SOUTHERN BOULEVARD;;BRONX
1201973;PEACE CLEAN WORLD, INC;;590;MORRIS AVENUE;;BRONX
1202673;1920-22 MCDONALD AVE. LAUNDROMAT, INC.;;1916;MCDONALD AVENUE;;BROOKLYN
1206355;VIEWPARK LAUNDRY ASSOCIATES, INC.;;204;   5 AVENUE;;BROOKLYN
1207214;AVENUE 24 LAUNDRY INC;;27-03;24 AVENUE;27-03 & 27-05;ASTORIA
1208776;YOGI LAUNDROMAT, INC.;;98-36; 212 STREET;;QUEENS VILLAGE
1212059;THE HIGHEST LAUNDROMAT, INC.;;1093;SAINT NICHOLAS AVENUE;;NEW YORK
1212158;YA ZHEN, NI;TOP CLEAN LAUNDRY;1828;FLATBUSH AVENUE;;BROOKLYN
1213497;L J EVER BEST, INC.;;5801;6 AVENUE;;BROOKLYN
1214550;THE NEW LEFRAK CITY LAUNDROMAT, INC.;;96-01;  57 AVENUE;;CORONA
1214744;SUN'S DRY CLEANERS & TAILORS INC;;1936;BATH AVENUE;;BROOKLYN
1216054;WASH-BRITE INC;;1827;HOBART AVENUE;;BRONX
1216305;LIU, SHU KWONG T;ONE STOP LAUNDROMAT;590;AMSTERDAM AVENUE;;NEW YORK
1216738;JCK HOLDING CO, INC.;MR. CLEAN;1503;LEXINGTON AVENUE;;NEW YORK
1216794;OTTEY, ERIC L;SUDD LAUNDROMAT;208;TAPSCOTT STREET;;BRROOKLYN
1216816;206 HOLLIS LAUNDROMAT, LLC;;206-06;HOLLIS AVENUE;;QUEENS VILLAGE
1217847;SPIN CITY CLEANERS, LLC.;;176-180;AVENUE B;;NEW YORK
1217863;HIGH TECH LAUNDROMAT SERVICE CORP;;628;REMSEN AVENUE;;BROOKLYN
1220571;MAGUY LAUNDROMAT, INC.;;4204;AVENUE J;;BROOKLYN
1221837;CHEN, CHENG FU & LIN, YI ZHEN;570 LAUNDROMAT;570;FLATBUSH AVENUE;;BROOKLYN
1223688;CASTLE HILL LAUNDROMAT II L.L.C.;;680;CASTLE HILL AVENUE;;BRONX
1224538;MOHAMED KHALID KHAN;REGINA'S LAUNDROMAT;184;NORMAN AVENUE;;BROOKLYN
1224780;S & T LAUNDROMAT CORP.;;1309;ROSEDALE AVENUE;;BRONX
1231995;A & R HILLSIDE AVE INC;;220-40;HILLSIDE AVENUE;;JAMAICA
1234524;EL MUNDO LAUNDROMAT CORP.;;1612;ST NICHOLAS AVENUE;;NEW YORK
1236602;E.J.A.LAUNDROMAT INC.;;5523;GLENWOOD ROAD;;BROOKLYN
1240129;GUAN, MEI ZHU;LI LI LAUDROMAT;42-15; 162 STREET;;FLUSHING
1241702;ATLANTIS SUPER WASH CENTER INC.;;873;BEDFORD AVENUE;;BROOKLYN
1243962;138 LAUNDROMAT LLC;;138-42;  86 AVENUE;;BRIARWOOD
1247679;Z & Z LAUNDROMAT INC.;;165;EAST  170 STREET;;BRONX
1248191;EVERYDAY SHINE LAUNDROMAT INC;;5116;   8 AVENUE;;BROOKLYN
1250547;42-63 PING AN LAUNDROMAT INC.;;42-63;MAIN STREET;1/FL;FLUSHING
1250734;L & Q LAUNDROMAT INC;;1165;FULTON STREET;;BROOKLYN
1250879;PHOENIX LAUNDROMAT, INC.;;199;   1 AVENUE;;NEW YORK
1251033;AQUAPURA, INC;;3402;FULTON STREET;;BROOKLYN
1251321;NICK LAUNDROMAT & CLEANER INC.;;1142;   2 AVENUE;;NEW YORK
1253736;MOBILE LAUNDROMAT OF RIDGEWOOD INC;;609;WOODWARD AVENUE;;RIDGEWOOD
1254451;YANG, HAI QI;ANNA LAUNDROMAT;136-21;  41 AVENUE;FIRST FLOOR;FLUSHING
1260200;POG CLEANERS CORP;GREAT SCOT CLEANERS;156-50;NORTHERN BOULEVARD;;FLUSHING
1260434;CRYSTAL CLEANERS YE, INC;;350;EAST   20 STREET;;NEW YORK
1261203;NEW RAINBOW LAUNDROMAT INC;;49-16;  30 AVENUE;;WOODSIDE
1265902;DNC LAUNDROMAT INC.;;35-02; 108 STREET;;CORONA
1267690;EURO-FRENCH CLEANERS CORP;;3706;   3 AVENUE;;BRONX
1273916;SUPER 1665 LAUNDROMAT, INC.;;1665;   1 AVENUE;;NEW YORK
1274485;NEW SNM LAUNDROMAT, INC;;79-03;MAIN STREET;;QUEENS
1274755;HANDSOMELY DONE CLEANERS, INC.;;9317;CHURCH AVENUE;;BROOKLYN
1274867;CRISTAL BUBBLE LAUNDROMAT INC;;2683;EAST   14 STREET;;BROOKLYN
1275107;PRINCE, BARRY B.;PARKWAY LAUNDROMAT;1382;EASTERN PARKWAY;;BROOKLYN
1275141;DAY FLOWER LAUNDROMAT INC;;551;EVERGREEN AVENUE;;BROOKLYN
1275248;ICEBERG 13 CORP;;2345;WASHINGTON AVENUE;;BRONX
1275258;NEW LAVAMAX LAUNDROMAT, INC.;LONGWOOD LAUNDROMAT;860;LONGWOOD AVENUE;;BRONX
1216861;JIANG, RUI FANG;NEW QUEENS VILLAGE LAUNDROMAT;215-34;HILLSIDE AVENUE;;QUEENS VILLAGE
1216908;9122 LAUNDROMAT, LLC.;QUALITY LAUNDROMAT;9122;   3 AVENUE;;BROOKLYN
1216940;ZHU, XIU-CHUN;GOOD NEIGHBOR LAUNDROMAT;91-10;  31 AVENUE;;QUEENS
1217000;CONCOURSE CLEANERS INC;;2100;GRAND CONCOURSE;;BRONX
1217983;LIAO, ZHEN H;L & Z LAUNDRY;40-15;  48 AVENUE;;SUNNYSIDE
1218338;YANG, MI H;SPIN CITY;345;EAST  204 STREET;;BRONX
1218497;HONG WEI (N.Y.) LAUNDROMAT INC.;;43-13; 162 STREET;;FLUSHING
1218585;GREAT DRY CLEANERS INC.;;840;EAST  233 STREET;;BRONX
1219340;NEW DAY LAUNDROMAT INC.;;6205;FORT HAMILTON PARKWAY;;BROOKLYN
1220361;DING, LE ZHEN;DING'S LAUNDROMAT;271-18;UNION TURNPIKE;;QUEENS
1220746;BUSY BEE FUTURE, INC.;;93-36;  43 AVENUE;;QUEENS
1222951;TYSEN PARK LAUNDROMANT LLC;;2750;HYLAN BOULEVARD;;STATEN ISLAND
1223204;NICE BUNDLES INC.;;176;IRVING AVENUE;;BROOKLYN
1224045;LEMON LAUNDROMAT, INC.;;3440;BROADWAY;;NEW YORK
1225115;TRINH, NICK;NYC LAUNDROMAT;507;WEST  125 STREET;;NEW YORK
1227571;RUSSELL, ADRIAN D;TIP TOP LAUNDROMAT;646;THROOP AVENUE;;BROOKLYN
1232108;EXPRESS & CLEAN LAUNDROMAT INC.;;6509;  20 AVENUE;;BROOKLYN
1232249;LUO FAMILY LAUNDROMAT INC.;;146;RIDGEWOOD AVENUE;;BROOKLYN
1233190;MASPETH LAUNDROMAT INC.;;60-47;  56 ROAD;;QUEENS
1233283;KANGS LAUNDROMAT LLC;;2558;OLINVILLE AVENUE;;BRONX
1233686;NICE LAUNDROMAT INC;;6811;  11 AVENUE;;BROOKLYN
1234032;PAPPAS, CORNELIA A;ALLEN CLEANERS LAUNDROMAT;387-389;BEDFORD PARK BOULEVARD;;BRONX
1234721;PRIMETIME SIX CORP.;;4307;  14 AVENUE;;BROOKLYN
1235473;1755 CONEY ISLAND AVENUE CENTER, INC.;;1755;CONEY ISLAND AVENUE;;BROOKLYN
1238775;COPE BROTHERS LAUNDROMAT INC.;;105;SARATOGA AVENUE;;BROOKLYN
1240633;FU RONG LAUNDROMAT, INC.;;114-15;JAMAICA AVENUE;;RICHMOND HILL
1242181;FELDER & SONS, INC;PEACHES N' KLEAN;2815;FREDERICK DOUGLAS BOULEV;;NEW YORK
1243498;MORRIS LAUNDROMAT, INC;;2092;GRAND CONCOURSE;;BRONX
1244820;NEW LIFE VENTURES, INC;PAGE LAUNDROMAT;240;PAGE AVE;SUITE 104;STATEN ISLAND
1246984;THE MAT TWO, INC;;1605;YORK AVENUE;;NEW YORK
1251205;JIN FENG LAUNDRY CORP.;;3415;FULTON STREET;;BROOKLYN
1255713;NOSTRAND LAUNDROMAT, INC.;;756;NOSTRAND AVENUE;;BROOKLYN
1258800;FULTON LAUNDRY CORP;;28-35;FULTON STREET;;BROOKLYN
1259445;SEASON LAUNDROMAT INC.;;108-10;ROOSEVELT AVENUE;;CORONA
1260212;NEWCO LAUNDRY SYSTEMS I, INC;;1582;WATSON AVENUE;;BRONX
1260949;5509 HAPPY LAUNDROMAT, INC.;;5509;   4 AVENUE;STORE FRONT;BROOKLYN
1261243;GENAO, RAMON;NEW WAY LAUNDROMAT;4524;   3 AVENUE;;BROOKLYN
1261712;BAY ST. LAUNDROMAT, INC.;;852;BAY STREET;;STATEN ISLAND
1261721;VIEWPARK LAUNDRY ASSOCIATES, INC;;656;VANDERBILT AVENUE;;BROOKLYN
1262050;B & E LAUNDROMAT CENTER INC.;;53-78;  65 PLACE;;QUEENS
1263266;HU, FEI MEI;LAUNDROMAT;234;UNION AVENUE;;BROOKLYN
1264058;LI, ZHOU;IVY LAUNDROMAT;6601;  11 AVENUE;STORE;BROOKLYN
1267759;R&C 177 LAUNDRY, LLC;;171;WEST   26 STREET;;NEW YORK
1268174;S.P.J. HOLDINGS CORP.;AROUND THE CORNER LAUNDROMAT;42-10;  23 AVENUE;;QUEENS
1271015;ZHANG, ZHI QIN AND ZHANG, HUI;169 LAUNDROMAT;169;AVENUE W;;BROOKLYN
1271437;CRYSTAL LAUNDRY & DRY CLEANERS INC;;962;CONEY ISLAND AVENUE;;BROOKLYN
1272943;1791 HAPPY LAUNDROMAT INC.;;1791;WALTON AVENUE;;BRONX
1273067;LAU'S WASH & DRY INC;;123;RIVINGTON STREET;;NEW YORK
1274806;GUNHILL LAUNDERCENTER, INC;;1008;EAST GUN HILL ROAD;;BRONX
1274909;MR WASH OF KINGS HIGHWAY, INC;;137;KINGS HIGHWAY;;BROOKLYN
1274957;SMK LAUNDROMAT INC;SOAP OPERA LAUNDROMAT;251;WEST  116 STREET;;NEW YORK
1275225;DARYA LAUNDROMAT CORP;SPLASH LAUNDROMAT;615;WEST  207 STREET;;NEW YORK
1275300;SUPER SHINY USA, INC;;3522;NOSTRAND AVENUE;;BROOKLYN
1186362;SUN BRITE LAUNDROMAT INC.;;79-08;21ST AVENUE;;EAST ELMHURST
1188752;LUMIS LAUNDROMAT CORP;;40-18;83RD STREET;;ELMHURST
1194260;XERAKIAS, JOHN;GLENDALE LAUNDRY;60-52;COOPER AVENUE;;GLENDALE
1194628;GREEN LAUNDROMAT,  INC.;;110;WEST  145 STREET;;NEW YORK
1196671;KBS ENTERPRISES LTD;;94-25;ASTORIA BOULEVARD;;EAST ELMHURST
1196976;BETHEL DRY CLEANERS, INC.;;79-32;PARSONS BOULEVARD;;FLUSHING
1202813;PERUVIAN LAUNDROMAT CORP;;25-01;36TH AVENUE;;LONG ISLND CITY
1204742;795 ROCKAWAY INC;;785;ROCKAWAY AVENUE;;BROOKLYN
1205484;QU SUNRISE LAUNDROMAT, INC.;;68-41;FOREST AVENUE;;RIDGEWOOD
1208920;PACHAMAMA LAUNDROMAT II, CORP.;;352;HOOPER STREET;;BROOKLYN
1215726;KONGS LAUNDRY, INC;;1244;AVENUE U;;BROOKLYN
1215847;TIO, ANTONIUS & PANGESTU, SUSANNA;TIO'S LAUNDROMAT AND CLEANERS;364;WEST   23 STREET;;NEW YORK
1216551;WASHETERIA II CORP;;44-24;GREENPOINT AVENUE;;SUNNYSIDE
1216885;AZ FAVORITE LAUNDRY, INC.;;1643;BATH AVENUE;;BROOKLYN
1217140;WU, AI WAH;FU WAH LAUNDROMAT;7122;FORT HAMILTON PARKWAY;;BROOKLYN
1217238;PRINCE STREET CLEANERS, INC.;;26;PRINCE STREET;;NEW YORK
1217466;SUNNYSIDE LAUNDROMAT CORP;;39-15;QUEENS BOULEVARD;;SUNNYSIDE
1217541;HONG GUANG LAUNDROMAT, INC;;43-45;  41 STREET;;SUNNYSIDE
1217628;ELENA LAUNDROMAT & CLEANERS, INC.;;111-31;ROOSEVELT AVENUE;;CORONA
1217896;DURABLE LAUNDROMAT, INC.;;3046;AVENUE X;;BROOKLYN
1220076;BURNSIDE LAUNDROMAT,  INC.;;253;EAST BURNSIDE AVENUE;;BRONX
1221794;YE'S LAUNDROMAT INC.;;264;PROSPECT PARK WEST;;BROOKLYN
1227001;BROOKLYN'S LAUNDROMAT INC;;1020;EAST   92 STREET;;BROOKLYN
1228472;THANG QUAY LAM;LAM EAST SIDE LAUNDRY;1689;   1 AVENUE;;NEW YORK
1228520;LAUNDRO TIME WHITE PLAINS INC.;;4825;WHITE PLAINS RD;;BRONX
1229136;OS BUBBLES LLC;BROADWAY BUBBLES;2783;BROADWAY;;NEW YORK
1232241;CAPTAIN YANG'S LAUNDROMAT, INC.;;7204;NEW UTRECHT AVENUE;;BROOKLYN
1232785;NANCY'S LAUNDRY SERVICES, INC.;;102-18;JAMAICA AVENUE;;RICHMOND HILL
1234774;MANHATTAN10021 LLC;TODD LAYNE CLEANERS;244;EAST   77 STREET;;NEW YORK
1240346;RASHINI, YAHYA SALEH;WASH RITE LAUNDROMAT;152;PROSPECT PARK SOUTHWEST;;NEW YORK
1240458;ZHENG, SHOU TONG;NICE BUBBLE LAUNDRY;510;COURT STREET;;BROOKLYN
1245730;FULTON STREET LAUNDRY, INC.;;1618;FULTON STREET;AKA 1618-1622 FULTON STREET;BROOKLYN
1246681;FINE FAIR LAUNDRY INC.;BEEKMAN SUPER LAUNDRY;564;FLATBUSH AVENUE;;BROOKLYN
1247755;ZHENG LAUNDROMAT INC.;;7719;  13 AVENUE;;BROOKLYN
1250875;SHEN FA LAUNDROMAT INC.;;206;WYCKOFF AVENUE;AKA 358 BLEEKER STREET;BROOKLYN
1252178;BLUE WAVE LAUNDROMAT, INC.;;75;RALPH AVENUE;;BROOKLYN
1254042;ROSE & TOM'S LAUNDROMAT INC;;101-21;ROCKAWAY BOULEVARD;;QUEENS
1254236;CHANG YAO LAUNDROMAT, INC.;;4912;   4 AVENUE;;BROOKLYN
1254484;PARSONS BLVD LAUNDROMAT INC;;85-41;GRAND AVENUE;;QUEENS
1256250;COCCHI, MICHAEL & COCCHI, ANTONINA;SUNNYBRITE LAUNDROMAT;159;SAND LANE;;STATEN ISLAND
1259222;LAUNDRY CITY-VERNON BLVD, LLC;;47-45;VERNON BOULEVARD;;QUEENS
1260443;WANG, SONG FA;KINDNESS LAUNDROMAT;33-21;JUNCTION BOULEVARD;;QUEENS
1260888;CHUN TIAN LAUNDROMAT, INC.;;01/Dec;  40 AVENUE;;QUEENS
1266457;YI RAE, LLC;ANTHONY CLEANERS;355;EAST   23 STREET;;NEW YORK
1268455;NEW TODAY'S LAUNDROMAT, INC;;48-15;  31 AVENUE;;QUEENS
1270096;SHI & HUANG LAUNDROMAT, INC;;203;BOND STREET;;BROOKLYN
1271379;JLD STAR CORP;;704;   9 AVENUE;;NEW YORK
1272896;FAMILY LAUNDROMAT ON AVENUE M, CORP.;;1909;AVENUE M;;BROOKLYN
1273040;LA MODE 1ST CLEANER, INC.;;342;EAST   71 STREET;;NEW YORK
1273158;ISLAND BUBBLES, INC;;88;ROGERS AVENUE;;BROOKLYN
1273734;288 FREEDOM INC;;88-12;LIBERTY AVENUE;;OZONE PARK
1274148;KIMBERLY'S LAUNDROMAT ENTERPRISES, INC.;;1459;BEDFORD AVENUE;;BROOKLYN
1274174;MASTERS-SONS, INC;LAUNDRY LAND;32-25;BEACH CHANNEL DRIVE;;QUEENS
1245293;FOUR SISTERS LAUNDROMAT, INC;;183;BEACH  116 STREET;;ROCKAWAY BEACH
1245428;NSG LAUNDROMAT, LLC;;253-23;UNION TURNPIKE;;QUEENS
1245839;BIG J'S LAUNDROMAT CORP;;172-12;HILLSIDE AVENUE;;QUEENS
1247193;CLEAN CIRCLE, INC;;1190;WEBSTER AVENUE;AKA 1210 WEBSTER AVE;BRONX
1247267;E & R LAUNDROMAT INC.;;106-02;LIBERTY AVENUE;;QUEENS
1247878;SPARKLE WASH INC.;;1580;ST JOHNS PLACE;;BROOKLYN
1248619;A & S'S JBW LAUNDROMAT INC.;;8018;  17 AVENUE;;BROOKLYN
1248796;JH & H LAUNDROMAT INC.;;91-04; 104 STREET;1 FL;RICHMOND HILL
1248994;WILLIAM'S LAUNDROMAT, INC.;;126-04; 101 AVENUE;;RICHMOND HILL
1253834;DESYY LAUNDROMAT, INC.;NO. 1 LAUNDROMAT;1430;WATSON AVENUE;;BRONX
1254467;JING FANG LAUNDROMAT INC;;170-08;JAMAICA AVENUE;;JAMAICA
1255429;HP 2 LAUNDROMAT, INC.;;44-04;  31 AVENUE;;QUEENS
1256719;NANCY'S LAUNDRY AND DRY CLEANING SERVICE LLC.;;108-14;MYRTLE AVENUE;;RICHMOND HILL
1257235;APOLLO CLEANERS INC;APOLLO EXPRESS;1019;MANHATTAN AVE;;BROOKLYN
1257474;1804 LAUNDRY CORP.;;1804;STILLWELL AVENUE;;BROOKLYN
1259148;YOON & C INC;;1205;FLATBUSH AVENUE;;BROOKLYN
1260083;TIAN AN LAUNDROMAT INC.;;40-22;GREENPOINT AVENUE;;SUNNYSIDE
1260779;L & WANG LAUNDROMAT INC;;113;   4 AVENUE;;BROOKLYN
1262250;NEW CINDY LAUNDROMAT, INC;;216;WEST  233 STREET;;BRONX
1264072;JAY CLEANERS AT 93RD INC.;JAY CLEANERS;274-276;  93 STREET;;BROOKLYN
1264784;BUBBLE AND BUBBLE, INC.;;5803;AVENUE T;;BROOKLYN
1266424;KOPAN LLC;;1394;OGDEN AVENUE;;BRONX
1268938;EMILY' S LAUNDROMAT NY INC;;32;RUTGERS STREET;;NEW YORK
1272936;LI JIA LAUNDROMAT, INC.;;1890;WATSON AVENUE;;BRONX
1273020;BI LAUNDRY INC;;656;  10 AVENUE;;NEW YORK
1273097;NY BELLEROSE LAUNDROMATE INC;;248-23;UNION TURNPIKE;;BELLEROSE
1273542;CHANYANG CORPORATION;MURRAY HILL CLEANERS & LAUNDRY;213;EAST   34 STREET;;NEW YORK
1274140;5804 LAUNDROMAT CORP;;5804;FORT HAMILTON PARKWAY;;BROOKLYN
1274181;BUBBLES & BUBBLES LAUNDROMAT CORP.;;3120;EAST TREMONT AVENUE;;BRONX
1274474;MITCHELL GARDENS CLEANERS, INC;;28-18;UNION STREET;;FLUSHING
1274737;RIDGEWOOD LAUNDROMAT, CORP.;;409;RIDGEWOOD AVENUE;;BROOKLYN
1274899;B&L FAMILY LAUNDRY INC.;;215;SAINT ANNS AVENUE;;BRONX
1275148;P & C LAUNDROMAT INC;;139;IRVING AVENUE;;BROOKLYN
1275154;H.Y.L. SUPER LAUNDROMAT LLC;;220-07;JAMAICA AVENUE;;QUEENS VILLAGE
1275252;LIN, SONG & HUANG, BI JIN;62 RED STAR LAUNDROMAT;62;HESTER STREET;;NEW YORK
1275319;TSUI, HOK KOON;U.S.A. WASH & DRY;1948;BATH AVENUE;;BROOKLYN
1275577;HSP LAUNDROMAT CORP;;345;LINDEN STREET;;BROOKLYN
1275660;LIN SUNSHINE LAUNDROMAT INC;;4111;CHURCH AVENUE;;BROOKLYN
1276177;LOS ANDES INTERNATIONAL CORP;LOS ANDES LAUNDROMAT;99-06;  37 AVENUE;;CORONA
1277888;XIA, SHENG Z;GOOD LUCK LAUNDROMAT;142-44;ROOSEVELT AVENUE;;QUEENS
1278535;PAJENA INC;;87-14; 101 AVENUE;;OZONE PARK
1279167;SING WAH LAUNDROMAT, INC;;6914;   4 AVENUE;;BROOKLYN
1280229;DDK CLEANING, INC.;;15;EAST   21 STREET;;NEW YORK
1282062;CORONA 103 LAUNDROMAT INC.;;102-38;CORONA AVENUE;;CORONA
1282207;JERRY SOAP OPERA INC.;;2816;MIDDLETOWN ROAD;;BRONX
1282367;MADISON AVENUE LAUNDRY LLC;;75;EAST  116 STREET;;NEW YORK
1282454;BRIGHT & SUNNY LAUNDRY, LLC;;1348;EAST GUNHILL ROAD;;BRONX
1282493;LUCKY CHOICE LAUNDROMAT, INC;;121-10;  14 ROAD;;COLLEGE POINT
1283883;L & K LAUNDROMAT, INC.;;7212;  18 AVENUE;;BROOKLYN
1286669;ESTRELLA LAUNDROMAT, CORP;;1500;NOSTRAND AVENUE;;BROOKLYN
1290077;EVERCLEAN LAUNDROMAT INC;;156;WEST   15 STREET;;NEW YORK
1291801;MARIA'S LAUNDROMAT, INC.;;269;EAST GUN HILL ROAD;;BRONX
1292778;HAPPY GARDEN LAUNDROMAT, INC;;59-02;MAIN STREET;;QUEENS
1294712;LAUNDRY HOUSE 4 AVE CORP;;9814;   4 AVENUE;;BROOKLYN
1275632;CATHY'S CLEANERS OF NY INC.;;96-07;  69 AVENUE;;FOREST HILLS
1275712;BISSESSAR, NEILIA P;NP LAUNDRYMART;1723;EAST  174 STREET;;BRONX
1275965;GOLD FIVE STAR LAUNDROMAT, INC;;264;SCHENECTADY AVENUE;;BROOKLYN
1276055;S & S SPARKLE LAUNDROMAT, INC;;1781;NEREID AVENUE;1781-1783 NEREID AVENUE;BRONX
1276447;HU LAUNDROMAT INC.;;1447;BEACH AVENUE;;BRONX
1276785;RYAN & JOHN INC;QUALITY II LAUNDROMAT;47-51;  47 STREET;;WOODSIDE
1276821;AN HUA LAUNDRY SERVICE, INC;;95-40;TUCKERTON STREET;;JAMAICA
1277152;CLEAN RITE CENTERS-1578 E. 233RD ST., LLC;;1578;EAST  233 STREET;;BRONX
1277305;CANARSIE 1772 LAUNDRY, LLC;;1772;ROCKAWAY PARKWAY;;BROOKLYN
1277899;AMORE MIA LAUNDROMAT INC;;75-40;METROPOLITAN AVENUE;;QUEENS
1278835;NEW P.H. LAUNDROMAT, INC;;185;IRVING AVENUE;;BROOKLYN
1281858;HU'S CLEANER, INC.;;56-02;  31 AVENUE;;WOODSIDE
1282562;110 LAUNDROMAT INC.;;91-10;  43 AVENUE;;QUEENS
1283726;NEW SUPER LAUNDROMAT, INC;;3126;DECATUR AVENUE;;BRONX
1284093;ZHENG, XIAO FENG;;353;FRANKLIN AVENUE;;BROOKLYN
1290449;PARAGON 1 LAUNDRY CORP;;7124;   5 AVENUE;;BROOKLYN
1293247;CLEAN & BRIGHT LLC;;1041;PROSPECT AVENUE;;BRONX
1294612;YUAN, BI LIAN;FU WANG LAUNDROMAT;870;CLARKSON AVENUE;;BROOKLYN
1297418;AMACHI LAUNDRY CORP;;123-17;JAMAICA AVENUE;;RICHMOND HILL
1297849;KIM, KYUNG AE;66 VICTORY LAUNDROMAT;66;VICTORY BOULEVARD;;STATEN ISLAND
1298026;SUPER WOODSIDE LAUNDROMAT NY INC;;48-03;  69 STREET;;WOODSIDE
1299293;TPS LAUNDROMAT INC;;32-02;  34 AVENUE;;QUEENS
1303022;LILY LAUNDROMAT INC;;68-34;MYRTLE AVENUE;;RIDGEWOOD
1303140;ALJON I INC.;WEBSTER LAUNDROMAT;3150;WEBSTER AVENUE;;BRONX
1303982;MATEUS, JULIO M;JAE LAUNDROMAT;590;SENECA AVENUE;;RIDGEWOOD
1304031;BUBBLES LAUNDROMAT INC;;203A;SCHENECTADY AVENUE;;BROOKLYN
1305307;CIAMPA CRESCENT LLC;;41-34;CRESCENT STREET;;LONG ISLND CITY
1305386;R & C 529 LLC;;529;HUDSON STREET;;NEW YORK
1305600;FOREMOST LAUNDROMAT INC.;;80-05;NORTHERN BOULEVARD;;QUEENS
1306219;JIN LEI LAUNDROMAT INC;;2027;STILLWELL AVENUE;;BROOKLYN
1309597;FENG HUA LAUNDROMAT INC.;;314;MCDONALD AVENUE;;BROOKLYN
1310011;MERRICK LAUNDROMAT, LLC;;22017;MERRICK BLVD;;LAURELTON
1310599;NEW TEAM CLEANERS INC;;44;AVENUE B;;NEW YORK
1310647;BROADWAY SUPER WASH CORP.;;1628;BROADWAY;;BROOKLYN
1311601;JARVIS, ANNE-MARIE;SOAPY SUDS;11;LOTT PLACE;;BROOKLYN
1314742;NY YOUME CLEANERS INC;;210;EAST   87 STREET;;NEW YORK
1315692;7TH AVENUE LAUNDRY, INC.;;491;7TH AVENUE;;BROOKLYN
1315861;SUNSHINE FRENCH CLEANER, INC;;1566;RICHMOND ROAD;;STATEN ISLAND
1320524;LIBERTY AVE. LAUNDROMAT, INC.;;115-24;LIBERTY AVENUE;;S.RICHMOND HILL
1323123;TAVERAS LAUNDROMAT CORP.;;4215;111  ST;;CORONA
1324234;A & J QUALITY CLEANERS CORP;;212;MCGUINNESS BOULEVARD;;BROOKLYN
1327664;JNL LAUNDROMAT CORP;CASTLE HILL LAUNDRY STATION;1006;CASTLE HILL AVENUE;AKA 1016-1012 CASTLE HILL AVE.;BRONX
1328891;LIKEY LAUNDROMAT INC;;8015;  20 AVENUE;;BROOKLYN
1328959;NEW GOOD DAY LAUNDROMAT INC;;6214A;  11 AVENUE;;BROOKLYN
1329662;L & IAN LAUNDROMAT INC;;62;BEDFORD STREET;;NEW YORK
1329997;K.J.M. FAMOUS CLEANERS CORP;;27-05;  23 AVENUE;;ASTORIA
1331480;BUSHWICK WAH KEE INC;;584;BUSHWICK AVENUE;;BROOKLYN
1336589;CHEN, SHARON X;ANXIN SHIRT LAUNDRY CENTER;7719;   5 AVENUE;;BROOKLYN
1337443;NEW CENTURY LAUNDROMAT INC;;1110;PENNSYLVANIA AVENUE;STORE # 13;BROOKLYN
1337841;NEW KINGS LAUNDROMAT INC;KINGS LAUNDROMAT;4824;CHURCH AVENUE;;BROOKLYN
1339233;HAPPY RAINBOW LAUNDROMAT INC;;37-65;  88 STREET;;JACKSON HEIGHTS
1339408;DREAM CLEAN LAUNDROMAT 2 CORP;;551;HENRY STREET;;BROOKLYN
1340469;81 FAMILY LAUNDROMAT CORP;;81;ELDRIDGE STREET;;NEW YORK
1247418;CLEAN RITE CENTERS-1968 JEROME AVE., LLC;;1968;JEROME AVENUE;;BRONX
1247743;STATEN ISLAND TOP CLEAN LAUNDROMAT, INC;;5;WALKER STREET;;STATEN ISLAND
1250078;149 A & M LAUNDROMAT INC.;;149;HAVEMEYER STREET;;BROOKLYN
1250416;ZAYMI LAUNDROMAT CORP.;;1719;ZEREGA AVENUE;;BRONX
1253353;KEYTEX NEW YORK INC;;586;CONEY ISLAND AVENUE;;BROOKLYN
1255436;HP TRIO LAUNDROMAT INC;;25-45;STEINWAY STREET;;LONG ISLAND CTY
1257130;95 SUPER CLEAN LAUNDRY INC.;;313;EAST   95 STREET;;NEW YORK
1257856;LEE, YOUNG SIM;YS  LAUNDROMAT;69-17;MYRTLE AVENUE;;QUEENS
1261710;MORONTA, NICOLAS;KENESSY LAUNDROMAT;1000;HOE AVENUE;;BRONX
1262980;ALEX'S 33RD STREET LAUNDROMAT INC.;;898;   4 AVENUE;;BROOKLYN
1264094;CHENG XIN NY INC;;295;MYRTLE AVENUE;;BROOKLYN
1268459;YONG LE TAN INC;;299;BROADWAY;;BROOKLYN
1268510;768 SUN & MOON LAUNDROMAT INC.;;768;  57 STREET;;BROOKLYN
1270017;YANG, YE BIN;ORCHID LAUNDROMAT;267-11;HILLSIDE AVENUE;;QUEENS
1270690;JGJC CORP;BOULEVARD LAUNDRY;17/Aug;COLLEGE POINT BOULEVARD;;QUEENS
1271551;YOUR HOUSE LAUNDROMAT INC.;;833;SHERIDAN AVENUE;STORE #2;BRONX
1271846;NYCE DRY CLEANERS, INC.;;2148;RALPH AVENUE;;BROOKLYN
1271944;L&P LAUNDRY, INC;;1254;SOUTHERN BOULEVARD;;BRONX
1271954;FOREST AVE LAUNDROMAT INC.;COOL CYCLE LAUNDRY;352;FOREST AVENUE;;STATEN ISLAND
1272989;Y L TOP LAUNDROMAT, INC.;;55-48;METROPOLITAN AVENUE;;RIDGEWOOD
1273396;HSCS CORP;VANITY FAIR CLEANER;376;   3 AVENUE;;NEW YORK
1274069;B & W LAUNDRY, INC;;302;WILLIS AVENUE;STORE# 2;BRONX
1274080;ROARY LAUNDROMAT INC;;4710;CLARENDON ROAD;;BROOKLYN
1274176;PAZ, DENIS;PROGRESO LAUNDROMAT;4112;  14 AVENUE;;BROOKLYN
1274189;YEE'S CLEANERS GROUP, INC;LITTLE G LAUNDROMAT;194;   1 AVENUE;;NEW YORK
1274269;D & C LAUNDROMAT LLC;;2304;SEDGWICK AVENUE;;BRONX
1274742;FORBELL STREET LAUNDROMAT, CORP;;94-01;FORBELL STREET;;OZONE PARK
1275038;LETICIA LAUNDROMAT INC.;;1136;EAST TREMONT AVENUE;;BRONX
1275411;A & G SYNDICATE, INC;;110-09; 101 AVENUE;;RICHMOND HILL
1275453;E-WASH INC.;;30;CORNELIA STREET;;NEW YORK
1275624;M.Y. COIN LAUNDROMAT INC.;;2115;WASHINGTON AVENUE;;BRONX
1275749;DONG & JING, CORP;;85-23; 126 STREET;;RICHMOND HILL
1275829;GUY R CORPORATION;SUPERCLEAN LAUNDROMAT;117-09;GUY R BREWER BOULEVARD;;JAMAICA
1277033;K&N SUPER SUDS, INC;;104-16;LIBERTY AVENUE;;OZONE PARK
1277908;PROMEX MULTISERVICES INC;CONNIE'S LAUNDROMAT;35;BEDFORD PARK BOULEVARD;;BRONX
1278303;TIP-TOP CLEANERS, INC;BARON CLEANERS;1610;GRAVESEND NECK ROAD;;BROOKLYN
1278934;C.H UNITED CENTURY CORP.;;238;EAST   24 STREET;;NEW YORK
1280355;SILVER COIN NEIGHBORHOOD LAUNDROMAT, INC;;147-01;LIBERTY AVENUE;;JAMAICA
1280633;MELROSE DRY CLEANING & LAUNDROMAT INC;;238;MELROSE STREET;;BROOKLYN
1280778;LKK BRIGHTNESS LAUNDRY CORP.;;129;AVENUE S;;BROOKLYN
1282174;NEW M & K LAUNDROMAT INC;;1797;MONTGOMERY AVENUE;;BRONX
1286107;THANK YOU & GOOD LUCK CORP;;2234;   1 AVENUE;;NEW YORK
1289915;WASH RITE SUPER LAUNDRY, INC.;;537;NORTH CONDUIT AVENUE;;BROOKLYN
1292062;BLUE SKY LAUNDROMAT, INC;;758;EAST  233 STREET;;BRONX
1293402;FLATLANDS LAUNDROMAT LLC;;7718;FLATLANDS AVENUE;;BROOKLYN
1294449;CBX LAUNDROMAT INC;;65-43;  99 STREET;;REGO PARK
1297692;233RD MERRICK LAUNDRY INC.;;233-02;MERRICK BOULEVARD;;LAURELTON
1298945;BTS LAUNDROMAT INC;KRYSTAL CLEAN LAUNDROMAT;63-16;FLUSHING AVENUE;;QUEENS
1303431;LNZ LAUNDROMAT INC;;145-07;JAMAICA AVENUE;;JAMAICA
1304275;ELIOT COMMUNITY LAUNDROMAT LTD;;60-05;ELIOT AVENUE;;MASPETH
1305325;SACK A SUDS II INC;;1443;CROSBY AVENUE;;BRONX
1306063;BNI EXPRESS INC;;711;FRANKLIN AVENUE;;BROOKLYN
1307349;99 JANE LAUNDROMAT CORP;JANE LAUNDROMAT;50;8TH AVENUE;;NEW YORK
1257503;LAUNDRY CITY-UTICA AVENUE, LLC;;155;UTICA AVENUE;;BROOKLYN
1259271;CHAN'S LAUNDROMAT, INC.;;1655;NOSTRAND AVENUE;;BROOKLYN
1263832;UNITED LAUNDROMAT 3, INC;;72-63;KISSENA BOULEVARD;;QUEENS
1267251;H & J LAUNDRY, INC.;ASIA LAUNDRY;1415;   2 AVENUE;;NEW YORK
1267927;335 GRAND COMMUNITY LAUNDROMAT, INC.;;335;GRAND STREET;;BROOKLYN
1268814;NORMAN AVENUE LAUNDERETTE INC;;84;NORMAN AVENUE;;BROOKLYN
1270265;C & Y LAUNDROMAT LLC;;101-07;MARTENSE AVENUE;;QUEENS
1271904;JIE'S LAUNDROMAT INC;SNOW WHITE LAUNDROMAT;20-01;UTOPIA PARKWAY;;WHITESTONE
1272947;GUILIANA CARLOTA CORPORATION;;61-20;LAUREL HILL BOULEVARD;;WOODSIDE
1274416;MAX J. CLEANERS, INC;;503;EAST   73 STREET;;NEW YORK
1274499;THE GOOD CLEAN LAUNDROMAT INC.;;500;WEST  188 STREET;;NEW YORK
1274878;SAM'S RIVERDALE CLEANERS, INC.;;5691;RIVERDALE AVENUE;;BRONX
1274966;57TH STREET LAUNDROMAT INC.;N/A;5706;NEW UTRECHT AVENUE;;BROOKLYN
1275084;JYH PROMISE, INC.;CLEAN CITY LAUNDROMAT;2811;BOSTON ROAD;;BRONX
1275128;Q Z LAUNDROMAT, INC.;CYPRESS LAUNDROMAT;215B;CYPRESS AVENUE;;RIDGEWOOD
1275174;HAQUE, MOHAMMAD Z.;CHEM-1 ENTERPRISES OF NY;147-15B;  45 AVENUE;;FLUSHING
1275212;KCS CRYSTAL INC.;FANCY 93 CLEANERS;2264;1 AVENUE;;NEW YORK
1276633;SUN-PARK LAUNDROMAT INC;;46;MULBERRY STREET;;NEW YORK
1276954;PARK SLOPE LAUNDRY CORP;;512;   4 AVENUE;;BROOKLYN
1277177;BAJ LAUNDROMAT INC;;86-10;ROOSEVELT AVENUE;;QUEENS
1278522;FAITH LAUNDROMAT INC.;SUPER CLEAN LAUNDROMAT;2948;AVENUE X;;BROOKLYN
1281604;CLEAN RITE CENTERS-434 PORT RICHMOND AVENUE, LLC.;;434-438;PORT RICHMOND AVENUE;A/K/A 438 RICHMOND AVENUE;STATEN ISLAND
1282008;METROPOLITAN LAUNDROMAT & WASH INC.;;134-50;GUY R BREWER BOULEVARD;;QUEENS
1282023;WAVE WIZARD LLC;;1994;WEST    6 STREET;;BROOKLYN
1283045;WAN LONG INC.;;2537;CROPSEY AVENUE;2537-2539;BROOKLYN
1283222;NYC FAMILY LAUNDROMAT INC.;;110;SHERMAN AVENUE;;NEW YORK
1286640;GOLDEN LAUNDROMAT CORP;;1615;DR MARTIN LUTHER KING BLVD;;BRONX
1286998;SOUTH SHORE LAUNDROMAT INC.;;30;SNEDEN AVENUE;;STATEN ISLAND
1287316;EIVINLI INC.;5 STAR LAUNDROMAT;1450;HYLAN BOULEVARD;;STATEN ISLAND
1290245;THE GOOD NEIGHBOR SUPER LAUNDROMAT INC.;;980;E 233RD ST;;BRONX
1292209;KOO, HARRY YUNG JIN;SUN LAUNDROMAT;77-04;WOODSIDE AVENUE;;QUEENS
1292590;BLUE BIRD LAUNDROMAT INC.;;125-13; 111 AVENUE;;SOUTH OZONE PK
1295736;SLOPE LAUNDROMAT INC;;54;   5 AVENUE;;BROOKLYN
1300113;ESTRELLA BLANCA, LLC;LA BLANQUITA LAUNDROMAT;226;KNICKERBOCKER AVENUE;;BROOKLYN
1301344;BASKET CASE LAUNDRY CORP.;YELLOSTONE WASH;66-79;SELFRIDGE STREET;;FOREST HILLS
1304182;AVENUE U LAUNDRY INC.;;2606;AVENUE U;;BROOKLYN
1305393;358 6TH AVE LAUNDRY CORP;;358;   6 AVENUE;;BROOKLYN
1306386;NEW CLEAR CLEAN LAUNDROMAT INC;;4822;   6 AVENUE;;BROOKLYN
1306733;HUANG, HUA;MAY FAIR LAUNDROMAT;722;BURKE AVENUE;;BRONX
1307063;THAI SELECT, INC;;3201;CHURCH AVENUE;;BROOKLYN
1308914;STAR STAR LAUNDROMAT INC;;5217;   4 AVENUE;;BROOKLYN
1311955;CHENG, MARGARITA;LA CHINITA LAUNDROMAT;445;BAY RIDGE AVENUE;;BROOKLYN
1318005;GUO, ZHEN HUA;JFK LAUNDROMAT;146-07;ROCKAWAY BOULEVARD;;JAMAICA
1320936;BIN'S CLEAN LAUNDROMAT LLC;;3126;AVENUE U;;BROOKLYN
1323178;548 LEFFERTS LLC;FAYE'S LAUNDRY CENTER;548;LEFFERTS AVENUE;;BROOKLYN
1325881;3916 LUCKY LAUNDROMAT INC.;;3916;FT HAMILTON PARKWAY;;BROOKLYN
1327657;KIM N.Y. INC;;325;   1 AVENUE;;NEW YORK
1327859;YUN, YONG TAE;YUN'S LAUNDROMAT;1853;ARCHER STREET;;BRONX
1331951;RED FLOWER LAUNDROMAT INC;;385;BAY STREET;;STATEN ISLAND
1332213;BONILLA BROS LAUNDRY CORP;;664;GRAND STREET;;BROOKLYN
1332227;EGQ LAUNDROMAT INC.;;87-01;  91 AVENUE;;WOODHAVEN
1332539;LI'S LIBERTY INC;;735;LIBERTY AVENUE;;BROOKLYN
1333490;MULAN INC;;172;EAST   89 STREET;;NEW YORK
1000032;CLEAN RITE-EAST TREMONT LLC;;1240;EAST TREMONT AVENUE;;BRONX
1013878;C & C LAUNDROMAT INC;;47-15;FRANCIS LEWIS BOULEVARD;;QUEENS
1016174;YOO, KWANG;EARTH CLEANER;250;   8 AVENUE;;NEW YORK
1018677;YOO, BOO Y;CLASSIC CLEANER;515;CHURCH AVENUE;;BROOKLYN
1022564;GRACE DRY CLEAN & LAUNDROMAT INC;;1953;VICTORY BOULEVARD;;STATEN ISLAND
1023897;94-15 JACKSON LAUNDRY INC;;94-15;  37 AVENUE;;JACKSON HEIGHTS
1023921;708 SPLASHING LAUNDROMAT II, INC;;708;WEST  177 STREET;;NEW YORK
1024954;JOSEPH LAUNDROMAT INC;;459;DEKALB AVENUE;;BROOKLYN
1025537;CAMPBELL, KASSANDRA M.;T.K. LAUNDROMAT;322;SARATOGA AVENUE;;BROOKLYN
1025582;BIG V CLEANERS CORP;BONNIE BRITE CLEANERS;29-19;FRANCIS LEWIS BOULEVARD;;QUEENS
1026229;KIM, SOON H;KIM PREMIER CLEANER'S;1028;   2 AVENUE;;NEW YORK
1030646;COINDET, RAMON F.;99TH STREET LAUNDROMAT;41-03;  99 STREET;;CORONA
1035370;THE SOAP FACTORY INC;;6624;AVENUE U;;BROOKLYN
1061257;168 CLEANING & LAUNDROMAT INC;;558;VANDERBILT AVENUE;;BROOKLYN
1069811;OZONE SUNSHINE LAUNDROMAT INC;;75-03; 101 AVENUE;;OZONE PARK
1070092;BABY GIRLS BUBBLES & CLEANERS INC;;2212-2214;FREDERICK DOUGLAS BLVD;;NEW YORK
1086688;WHITE STAR LAUNDROMAT INC;;4434;AMBOY ROAD;;STATEN ISLAND
1096466;CLEAN CORONA LAUNDROMAT INC;;94-56;CORONA AVENUE;;ELMHURST
1097922;DJOMA LAUNDROMAT CORP;;234;ROGERS AVENUE;;BROOKLYN
1099464;ST. NICHOLAS LAUNDROMAT, INC.;;1051;ST NICHOLAS AVENUE;;NEW YORK
1099675;ZHENG, MEI YING;SUN KWONG LAUNDROMAT;251;BROOME STREET;;NEW YORK
1100464;MESIAS, ROSA;CHABELITA LAUNDROMAT;79-18;JAMAICA AVENUE;;WOODHAVEN
1101011;NEW WESTSIDE CLEANER, INC;;224;WEST   82 STREET;;NEW YORK
1102224;CHAN, SAU MAY;SMITH LUCKY MAY;313;SMITH STREET;;BROOKLYN
1102653;G & M LAUNDERAMA INC.;;336;EAST   13 STREET;;NEW YORK
1117071;V R M CORP;;94-10;  80 STREET;;OZONE PARK
1117745;J D LAUNDROMAT INC.;;65-49;MYRTLE AVENUE;;GLENDALE
1117767;TIAN TIAN LAUNDROMAT, INC.;;137;ALLEN STREET;;NEW YORK
1125608;K B LAUNDROMAT INC;;3079;BRIGHTON   14 STREET;;BROOKLYN
1127481;DUMAGUALA, MANUEL I;R & R LAUDROMAT;445;BLEECKER STREET;;BROOKLYN
1130519;CHOI, KYUNG S;WOODROW LAUNDROMAT;655-231;ROSSVILLE AVENUE;;STATEN ISLAND
1132359;CHI, DE MING;MANHATTAN'S BEST LAUNDROMAT;60;EAST   97 STREET;;NEW YORK
1133540;RIVER BANK LAUNDROMAT INC.;;6906;  15 AVENUE;;BROOKLYN
1135231;PAK, SAM KYU;S.J. LAUNDROMAT;3985-3989;WHITE PLAINS ROAD;;BRONX
1136222;H.M.Y. CORP;;84-14;JAMAICA AVENUE;;WOODHAVEN
1144716;ASSV ENTERPRISES INC;KEW GARDENS SUPER KING SIZE LAUNDROMAT & DRY CLEANERS;80-57;LEFFERTS BOULEVARD;;KEW GARDENS
1146843;KIM, TAESUK;BUBBLE LAUNDROMAT;400;GRAHAM AVENUE;;BROOKLYN
1149492;CHAN, MING YAU;FRESH POND LAUNDROMAT;66-29;FRESH POND ROAD;;RIDGEWOOD
1154489;BERKELY SUTTON CLEANERS CORP.;;516;EAST   20 STREET;;NEW YORK
1156044;49 SNOW WHITE LAUNDROMAT, INC;;49-02;  43 AVENUE;;SUNNYSIDE
1158068;NEW SUNRISE LAUNDROMAT INC;;9012;AVENUE B;;BROOKLYN
1158072;DEKHKANOV, NISON;DEKHKANOV'S LAUNDRY;346;EAST   21 STREET;;NEW YORK
1158151;ROOSIE LAUNDROMAT INC.;;111-08;ROOSEVELT AVENUE;;CORONA
1158861;CRYSTAL PRIDE CLEANER, INC;BETTY BRITE CLEANERS;1627;SHEEPSHEAD BAY ROAD;;BROOKLYN
1159165;14TH ST. WASH & DRY INC;;602;EAST   14 STREET;;NEW YORK
1159206;BERNARD, MICHAEL F;M & M LAUNDROMAT;778;BLAKE AVENUE;;BROOKLYN
1159441;NY LIBERTY CLEANERS INC.;;56-21;CATALPA AVENUE;;RIDGEWOOD
1160702;NEW SUNRISE LAUNDROMAT II, INC;;9214;AVENUE L;;BROOKLYN
1160809;HOYAA LAUNDRY INC;;73;WEST   83 STREET;;NEW YORK
1167765;A & Z BUSINESS CORP.;;180;EAST  156 STREET;;BRONX
1173422;EGL LAUNDROMAT LLC;;613;WESTCHESTER AVENUE;;BRONX
1174113;HOU, GUO F;OUR LAUNDRY;604;COURTLAND AVENUE;;BRONX
1174234;REE, JIN S;JIN SEUNG LAUNDROMAT AND CLEANERS;51-23;43 AVENUE;;WOODSIDE
1275526;FREDY SANDERS;EASY LAUNDROMAT;981;GLENMORE AVENUE;;BROOKLYN
1275553;J.J. CLEANERS & LAUNDROMAT CORP;;341;EAST    5 STREET;;NEW YORK
1277094;WASHINGTON HEIGHTS LAUNDROMAT, INC.;;2011;AMSTERDAM AVENUE;;NEW YORK
1277306;SURIEL, FRANCISCO;JASLYNN LAUNDROMAT;201-12;HOLLIS AVENUE;;ST ALBANS
1277744;RITE WASH INC.;;375;TROY AVENUE;;BROOKLYN
1278519;JIN HO YOON;B & J LAUNDROMAT CO;3475;DEKALB AVENUE;;BRONX
1279026;LORRY CORPORATION;;569;SUTTER AVENUE;;BROOKLYN
1280068;LEO LIN LAUNDROMAT INC;;159-10A;HILLSIDE AVENUE;;JAMAICA
1282003;C11 CLEANERS, INC.;;185;AVENUE C;STORE 1A & 1B;NEW YORK
1282021;M3K GROUP, LLC;SOAP SUDS AND BUBBLES LAUNDROMAT;51-11;BROADWAY;;WOODSIDE
1282157;WEST 57 CLEANERS CORP;PARC WEST VALET;356;WEST   57 STREET;;NEW YORK
1282390;2115 LAUNDROMAT CORP;;2115;AVENUE Z;;BROOKLYN
1288838;GOOD FRIEND LAUNDROMAT INC.;;970;POST AVENUE;;STATEN ISLAND
1289198;STRATFORD AVE. LAUNDROMAT, INC.;;1215;STRATFORD AVENUE;;BRONX
1298941;Z ENTERPRISE INC.;Z LAUNDROMAT;172-02;JAMAICA AVENUE;;QUEENS
1301053;NATIONAL MANAGEMENT GROUP, INC;SUPER LAUNDRY OF WATSON;1611;WATSON AVENUE;;BRONX
1301637;EZ WASH LAUNDROMAT INC;;129-12;LIBERTY AVENUE;;RICHMOND HILL
1303666;MATT F WASH AND DRY, LLC;PREMIER LAUNDRY;6027;BROADWAY;;BRONX
1304869;OH, MEE JA;HELLO LAUNDROMAT 41;136-78;  41 AVENUE;;FLUSHING
1305895;SP USA INC.;;2052;MCGRAW AVENUE;;BRONX
1307410;R & W LAUNDROMAT INC;;991;CLARKSON AVENUE;;BROOKLYN
1307661;XIA'S LAUNDROMAT, INC;;245;FRANKLIN AVENUE;;BROOKLYN
1307700;LAUNDRY STOP ON COOPER INC.;;909;KNICKERBOCKER AVENUE;;BROOKLYN
1308720;PARK'S WASH TOWN, INC.;;3870;WHITE PLAINS ROAD;;BRONX
1309323;NEW R & D LAUNDRY CORP;;125-06;ROCKAWAY BOULEVARD;;S. OZONE PARK
1309894;4-SUDS LAUNDRY LLC.;;122-10;  14 AVENUE;;COLLEGE POINT
1310336;BEPOT LAUNDROMAT, INC;;6724;  11 AVENUE;;BROOKLYN
1310775;TENCHODO MANAGEMENT CORP.;TENCHODO LAUNDROMAT;33-33;CRESCENT STREET;;QUEENS
1311487;NEW YORK RELIABLE LAUNDRY & CLEANERS INC;;47;CLINTON STREET;;NEW YORK
1312645;NELIA Y. LUGO;NELIA LAUNDROMAT;131;EAST  169 STREET;;BRONX
1313716;BIG JS, INC.;HEAVENLY ANGELS;762;MORRIS PARK AVENUE;;BRONX
1314373;1950 LAUNDROMAT INC.;;1950;FULTON STREET;;BROOKLYN
1314899;301 LAUNDROMAT INC.;;55-03;  69 STREET;;MASPETH
1317571;SUNNY'S LAUNDROMAT NY CORP;;123;   3 AVENUE;;BROOKLYN
1317727;KING LAUNDROMAT MANAGEMENT LLC;;370;LENOX AVENUE;;NEW YORK
1319545;WAY CLEANER INC.;ROCK A WASH;864;ROCKAWAY AVE;;BROOKLYN
1320368;DND NATION LLC;ROCK-A-MAT LAUNDRY;71-30;BEACH CHANNEL DRIVE;;ARVERNE
1324360;32-01 JUNCTION INC;;32-01;JUNCTION BOULEVARD;;EAST ELMHURST
1324510;LAUNDRY EXPRESS CENTER INC;;1360;FOREST AVENUE;;STATEN ISLAND
1327823;JIANG, MEI ZHEN;EL APPLE LAUNDRY;409;7TH AVENUE;;BROOKLYN
1328103;XIAODAN, ZHANG & XIAO, BING WANG;LUCKY MAMA LAUNDROMAT;45-10;  30 AVENUE;;LONG ISLND CITY
1329224;GRANDMA LAUNDRY CORNER INC;;895;FRANKLIN AVENUE;;BROOKLYN
1330422;CLEAN ACT, INC;;4126;BROADWAY;;NEW YORK
1332573;F.M.H. LAUNDROMAT, INC.;;681;EAST TREMONT AVENUE;;BRONX
1332625;BUSINESS AT1230 OGDEN INC;;1230;OGDEN AVENUE;;BRONX
1335642;NEW CLEAN CITY, INC.;;2200;GRAND CONCOURSE;;BRONX
1335938;PARSONS LAUNDROMAT & WASH INC;;79-09;PARSONS BOULEVARD;;FRESH MEADOWS
1336140;SUPER CLEAN LAUNDROMAT V INC.;;25-15;SEAGIRT BOULEVARD;;FAR ROCKAWAY
1337070;GREAT WALL LAUNDROMAT INC;;44-18;  48 AVENUE;;WOODSIDE
1337186;ESTHER'S CLEANERS INC.;;80-10;SURREY PLACE;;QUEENS
1339257;WAI LAUNDRY CORP;;2189;CLARENDON ROAD;;BROOKLYN
1339363;A-TO-Z LAUNDROMAT INC.;;195;VICTORY BOULEVARD;;STATEN ISLAND
1339911;NEW SAI SAI LAUNDROMAT INC;;8914;  63 DRIVE;;REGO PARK
1274612;R & S LAUNDROMAT & DRY CLEAN, INC;;94-20;LINDEN BOULEVARD;;OZONE PARK
1274791;MACY'S LAUNDROMAT, INC.;;1862;GREENE AVENUE;;RIDGEWOOD
1274892;DOUBLE APPLE CLEANING CORP.;BIG APPLE LAUNDRY DEPOT;1417;NEWKIRK AVENUE;;BROOKLYN
1274956;EZ LAUNDRY OF PARK SLOPE INC;;530;   4 AVENUE;;BROOKLYN
1275047;FOREST WASHERS NY, INC.;;1648;FOREST AVENUE;;STATEN ISLAND
1275075;LUCKY STAR B INC;;2703;SEDGWICK AVENUE;;BRONX
1275158;L & W GOLDEN LAUNDROMAT INC;;180-05;LINDEN BOULEVARD;;ST. ALBANS
1275854;4112 TAPAN LAUNDROMAT CORP;;41-12;JUNCTION BOULEVARD;;QUEENS
1276664;AQUACLEAR, INC.;;46-14;SKILLMAN AVENUE;;SUNNYSIDE
1276905;LIN'S LAUNDROMAT & DRY CLEANING, INC.;;1206;AVENUE Z;;BROOKLYN
1278393;BENEVOLENCE CORP;;1725;NOSTRAND AVENUE;;BROOKLYN
1282545;4605 LAUNDROMAT CORP.;;46-05;BROADWAY;;ASTORIA
1283051;LUCKY LAUNDROMAT, INC;;11;LINDEN BOULEVARD;;BROOKLYN
1283102;18 LAUNDROMAT, INC;;47-18;BROADWAY;;ASTORIA
1286808;ALEX'S 238TH LAUNDROMAT, INC;;448;WEST  238 STREET;;BRONX
1288272;CHEN, LIN FANG;FANG LAUNDROMAT;6821;  20 AVENUE;;BROOKLYN
1291392;Z & U LAUNDROMAT INC.;;145-50;ROCKAWAY BOULEVARD;;JAMAICA
1298388;CRYSTAL SHIRTS SERVICE CORP.;SILVER WORLD SHIRTS SERVICE CO;43-23;  36 STREET;;LONG ISLND CITY
1298781;LI'S TRADING COMPANY, LLC;LI'S GOOD NEIGHBOR LAUNDROMAT & DRYCLEANER;160-26;WILLETS POINT BOULEVARD;;WHITWSTONE
1299727;DFH LAUNDROMAT INC;;2141;   2 AVENUE;;NEW YORK
1302195;CLEAN 88 INC.;;7107;NEW UTRECHT AVENUE;;BROOKLYN
1302324;GUANG XIU LAUNDROMAT INC.;;224-02;BRADDOCK AVENUE;;QUEENS VILLAGE
1303087;2286 D&D LAUNDROMAT CORPORATION;;2286;DAVIDSON AVENUE;;BRONX
1303529;YU, TONG;JIN BAO LAUNDROMAT;777;NEW LOTS AVENUE;1 FL.;BROOKLYN
1305216;YONG MEI LAUNDROMAT INC;;65-18;ROOSEVELT AVENUE;;WOODSIDE
1306608;MR. LONG'S LAUNDROMAT INCORPORATED;;78-33;SPRINGFIELD BOULEVARD;;QUEENS
1307411;KING 55 LANDROMAT INC;;55-14; 103 STREET;;CORONA
1308302;CLEAN RITE CENTERS-1479 BEACH CHANNEL, LLC.;;1479;BEACH CHANNEL DRIVE;;FAR ROCKAWAY
1308322;L & Z LAUNDROMAT, INC;;470;   4 AVENUE;;BROOKLYN
1309182;AI JIE LAUNDROMAT, INC;;8412;FLATLANDS AVENUE;;BROOKLYN
1310114;LC LAUNDROMAT INC;;18;EAST   30 STREET;;NEW YORK
1310453;SUNNY LAUNDROMAT, INC.;;399;UTICA AVENUE;;BROOKLYN
1313567;NEW AGE LAUNDROMAT & CLEANER, INC.;;27-09;  24 AVENUE;;QUEENS
1314106;NEW YORK RELIABLE LAUNDRY & CLEANERS INC.;;506;EAST   82 STREET;;NEW YORK
1315969;TIAN CI LAUNDROMAT, NC;;88-25;  37 AVENUE;;JACKSON HTS
1317054;KE, SHENG FENG;CRYSTAL LAUNDROMAT;1360;ROCKAWAY PARKWAY;;BROOKLYN
1322144;YING LI & JIAN HUA LIN;D & E LAUNDROMAT;314;EAST   53 STREET;;BROOKLYN
1322211;JIAN DONG LAUNDROMAT, INC.;;62-95;FOREST AVENUE;;RIDGEWOOD
1324176;NEW WEST LAKE INC.;;149;SULLIVAN STREET;;NEW YORK
1325591;J. LAUNDROMAT INC.;;685;MORRIS PARK AVENUE;;BRONX
1326670;UNI-CARE SERVICES, INC.;;85;WEST END AVENUE;;BROOKLYN
1327429;JHONALVI SERVICES CORP;H. LOWY CLEANERS & TAILORS;141;EAST   61 STREET;;NEW YORK
1327625;WU, AI WAH;WAH FU LAUNDROMAT;6803;FORT HAMILTON PARKWAY;;BROOKLYN
1328335;MR GEORGE LAUNDROMAT, INC;;2166;COYLE STREET;;BROOKLYN
1328460;SONNYSONS LAUNDRY INC;;105-21;  64 ROAD;;QUEENS
1330157;YOUR HOUSE LAUNDROMAT 11, INC;;1024;WALTON AVENUE;;BRONX
1335465;SMITH LUCKY MAY INC;;1791;OCEAN AVENUE;;BROOKLYN
1336576;LEE'S EVERCLEAN LAUNDROMAT INC;;400;EAST   74 STREET;;NEW YORK
1336608;MNM LAUNDROMAT CORP;;24-07; 150 STREET;;WHITESTONE
1339092;HUDSON KIM CLEANERS, INC;;462;HUDSON STREET;;NEW YORK
1340002;HAPPY SOAP LAUNDROMAT CORP.;;2156;2 AVENUE;;NEW YORK
1340263;Y & Y LAUNDROMAT, INC.;;10809;CORONA AVENUE;;CORONA
1340868;LIN LAUNDRY EXPRESS, INC;;504B;EAST   98 STREET;;BROOKLYN
1295477;ALL-BRITE CLEANERS INC;;6813;  20 AVENUE;;BROOKLYN
1297228;GLOBAL MISSIONS INC;;24519;FRANCIS LEWIS BLVD;;ROSEDALE
1297712;KING COIN LAUNDROMAT INC.;;38-15;GREENPOINT AVENUE;;QUEENS
1301163;88 BENJAMIN LAUNDROMAT INC.;;62-11;  35 AVENUE;;WOODSIDE
1301507;W230 LAUNDRY SERVICES, LLC;;215;WEST  230 STREET;;BRONX
1303191;S&M ORTIZ LAUNDROMAT INC.;;30-10;  44 STREET;;LONG ISLND CITY
1306001;T & S LAUNDROMAT, INC;;448;HERZL ST;;BROOKLYN
1307077;CAMPUS LAUNDRY & CLEANERS, INC.;;146;WEST    4 STREET;;NEW YORK
1307289;NEW LOTS LAUNDROMAT INC.;;719;NEW LOTS AVENUE;;BROOKLYN
1307333;33 CONVENT LAUNDROMAT, INC;EXPRESS 1 LAUNDROMAT;33;CONVENT AVENUE;;NEW YORK
1307437;Q & L FAITH LAUNDROMAT INC.;;71-43;YELLOWSTONE BOULEVARD;;QUEENS
1307618;WASH & CLEAN LAUNDROMAT INC;;223-20;SOUTH CONDUIT AVENUE;;SPRINGFIELD GAR
1308570;WASH-UP LAUNDRAMAT INC;;215;MONTROSE AVENUE;;BROOKLYN
1309420;722 AVE U LAUNDROMAT INC;;722;AVENUE U;;BROOKLYN
1310038;GOLDEN MANDALAY CORP.;RIM'S LAUNDROMAT;36-15;  30 AVENUE;;QUEENS
1310636;HASSEN LAUNDRY GROUP INC;SUPER CLEAN;609;BEACH   20 STREET;;FAR ROCKAWAY
1311218;D-STAR LAUNDROMAT INC;;951;LEGGETT AVENUE;;BRONX
1311318;JIN RONG LAUNDRY, INC;;482;RIVERDALE AVENUE;;BROOKLYN
1312392;FRESH MEADOWS LAUNDROMAT AND WASH, INC.;;195-15;  69 AVENUE;;FRESH MEADOWS
1312686;LGF CLEANER'S INC.;USA CLEANERS;204;AVENUE S;;BROOKLYN
1314413;KHARUN INC.;MR SUPER LAUNDROMAT;205-20;JAMAICA AVENUE;;HOLLIS
1315054;MARIO'S LAUNDROMAT II, INC;;37-57; 108 STREET;;CORONA
1316392;64 WOODSIDE LAUNDROMAT INC.;;64-14;WOODSIDE AVENUE;;WOODSIDE
1319381;WDK PROCLEANERS INC;DDK PROCLEANERS;38-68;  13 STREET;;LONG ISLND CITY
1320823;S & J 21, LLC;;922;COLUMBUS AVENUE;;NEW YORK
1321403;DNG LAUNDROMAT INC.;;3161;CONEY ISLAND AVENUE;;BROOKLYN
1324388;WINGS AT BROOME LAUNDROMAT INC;;299B;BROOME STREET;;NEW YORK
1334080;CLEAN N'GREEN LAUNDROMAT LLC;;504;   5 AVENUE;;BROOKLYN
1336100;LAUNDRY GIANT INC;;2734;JEROME AVENUE;;BRONX
1338180;SNAP LAUNDROMAT, INC.;;1248;MYRTLE AVENUE;;BROOKLYN
1338358;NASSAU LAUNDROMAT INC;SUSAN LAUNDROMAT;244;NASSAU AVENUE;;BROOKLYN
1338851;NEW PHOENIX LAUNDROMAT CORP;;638;EAST  169 STREET;;BRONX
1339280;LULU LAUNDRY INC;;4115;   4 AVENUE;;BROOKLYN
1340502;LINES BUILDER COMPANY, LLC;;351-357;PORT RICHMOND AVENUE;;STATEN ISLAND
1340715;ZIGGS LAUNDRY INC;SOUTH BEACH LAUNDRY;276;SAND LANE;;STATEN ISLAND
1340843;CLEAN RITE CENTERS-112-05 SUTPHIN BLVD., LLC;;112-05;SUTPHIN BLVD;;JAMAICA
1341028;P. LAUNDROMAT INC;;29-17;  34 AVENUE;;ASTORIA
1341385;JIANG'S LAUNDRY I INC;JIANG'S LAUNDRY I INC;152;EAST   22 STREET;;NEW YORK
1341953;UNITED LAUNDRY 135 INC;;135;   7 AVENUE;;BROOKLYN
1342515;1263 LAUNDROMAT CORP;;1263;EDWARD L GRANT HIGHWAY;;BRONX
1342943;NEW 398 HARMAN STREET INC;;398;HARMAN STREET;;BROOKLYN
1343703;L & C WONDER LAUNDROMAT INC.;;2022;BEDFORD AVENUE;;BROOKLYN
1345959;JIE LI DA LAUNDROMAT INC.;;419;92ND ST;;BROOKLYN
1346015;MANSOUR LAUNDRY CORP;;8115;FLATLANDS AVENUE;;BROOKLYN
1346948;CHURCH LAUNDROMAT INC;;4701;CHURCH AVENUE;;BROOKLYN
1347736;FU XING LAUNDROMAT INC;;4823;   6 AVENUE;;BROOKLYN
1350688;XIE, WENJI;NEW SAM'S LANDROMAT & DRY CLEANERS;88-16;  55 AVENUE;;ELMHURST
1352648;CNB-STATEN ISLAND CENTER LLC;;250;BROAD STREET;;STATEN ISLAND
1352940;618 METRO LLC;SPIN CITY LAUNDROMAT & DRY CLEANING;618;METROPOLITAN AVENUE;;BROOKLYN
1356124;JIHONG LAUNDROMAT INC;;9614;JAMAICA AVENUE;;WOODHAVEN
1359530;A & K LAUNDROMAT INC;;4133;53RD ST;;WOODSIDE
1359812;TAO TING CORP.;;5606;7TH AVE;;BROOKLYN
1359898;HOUSE OF SUDZ III LAUNDROMAT;;1090;MANHATTAN AVE;;BROOKLYN
1341225;DO RE MI LAUNDROMAT, INC;;8411;ELMHURST AVENUE;;ELMHURST
1341642;V.S. CLEANERS INC;;713;EAST 180TH STREET;;BRONX
1341937;GIANT UNISOURCE CORP;;2232;PITKIN AVE;;BROOKLYN
1341976;D & W LAUNDROMAT INC;;1121;  39 STREET;;BROOKLYN
1342400;J & M LAUNDROMAT LLC;J & M LAUNDROMAT;88-15;  31 AVENUE;;QUEENS
1343914;CAI LING ZHENG;EMILY LAUNDROMAT;608;BUSHWICK AVENUE;;BROOKLYN
1344017;JESSIE LAUNDRY CORP;;381;EAST  138 STREET;;BRONX
1345428;PAYLESS LAUNDRY CORP;;43-13;DITMARS BOULEVARD;;ASTORIA
1345496;DADA, MOUDAR;GRIVE LAUNDRY;41;GROVE AVENUE;;STATEN ISLAND
1345555;L C EVER BEST, INC;;302;AVENUE U;;BROOKLYN
1346056;CHAN CHIT & POON KONG LING;POON'S LAUNDROMAT;17-08;UTOPIA PARKWAY;;WHITESTONE
1347742;LIN, WEN QING;NEW YONG NENG LAUNDROMAT;1075;CLARKSON AVENUE;;BROOKLYN
1348074;R&L'S LAUNDRY ROOM INC;SHALER AVENUE LAUNDRY CENTER;64-30;SHALER AVE;;GLENDALE
1349306;F M LAUNDROMAT INC.;;531;MARCY AVENUE;;BROOKLYN
1349429;TOMPKINS AVENUE LAUNDROMAT #1, INC.;;393;TOMPKINS AVENUE;;STATEN ISLAND
1350154;THE LAUNDRY CENTER OF WEBSTER AVE LLC;;2008;WEBSTER AVENUE;;BRONX
1351294;FALCON LAUNDROMAT, INC.;;804;WOODWARD AVE;;RIDGEWOOD
1360338;THE LAUNDRY CENTER OF SOUTHERN BLVD LLC;;559;SOUTHERN BLVD;;BRONX
1362970;ZHANG, XIONG XIN;NEW BUCKET OF SUDS;729;MEEKER AVE;;BROOKLYN
1362972;XING WANG LAUNDROMAT INC;;1105;CLARKSON AVE;;BROOKLYN
1365565;THE LAUNDRY CENTER OF NEW YORK LLC;;2467;WEBSTER AVENUE;;BRONX
1372764;ONE DAY LAUNDROMAT INC;;3675;BROADWAY;2 FL;NEW YORK
1373988;WING WONG LAUNDROMAT INC;;180;WYCKOFF AVE;;BROOKLYN
1374217;METRO RITE LAUNDROMAT, INC;;8923;   5 AVENUE;;BROOKLYN
1376523;LIFE LAUNDROMAT INC;;101;E 204TH ST;;BRONX
1376571;DARYA #2 LAUNDROMAT CORP;SPLASH LAUNDROMAT;812;W 187TH ST;;NEW YORK
1377621;297 LAUNDROMAT LIN INC;;297;ST NICHOLAS AVE;;RIDGEWOOD
1378401;BENNYS LAUNDROMAT INC;;1024A;ROSSVILLE AVE;;STATEN ISLAND
1378477;CLEAN CITY LAUNDRY OF RIDGEWOOD INC.;;883;WYCKOFF AVE;;RIDGEWOOD
1378545;YAU SHEONG CLEANERS, INC.;;1206;WHEELER AVE;1 FL;BRONX
1379039;FLATBUSH 2081 CLEANER INC.;;2081;FLATBUSH AVENUE;;BROOKLYN
1379949;BEST NORSTRAND LAUNDROMAT INC;;86-30; 103 AVENUE;;OZONE PARK
1381214;2241 SOUTHERN BLVD. LAUNDROMAT, LLC;;2241;SOUTHERN BLVD;;BRONX
1381552;LUCKY LUC'S INC.;LAUNDROMAT;543;86TH ST;;BROOKLYN
1383510;D & Y LAUNDROMAT, INC;;111-07;LEFFERTS BLVD;;S OZONE PARK
1384656;JIA XIN LAUNDROMAT INC.;;5821;5TH AVE;;BROOKLYN
1385466;NEW 99 LAUNDROMAT INC;;99;AVENUE U;;BROOKLYN
1387127;MY FAMILY LAUNDROMAT INC;;76;WESTERVELT AVE;;STATEN ISLAND
1388578;DAVEBRAND LAUNDRY, INC.;;32-06;36TH AVE;;ASTORIA
1392620;XIN SUNSHINE LAUNDROMAT INC;;300;GEORGIA AVE;;BROOKLYN
1393010;JAVISA LAUNDROMAT CORP.;;2220-22;AMSTERDAM AVE;;NEW YORK
1393138;CLEAN WORLD 1 INC;CLEAN WORLD 1;1036;SUTTER AVE;;BROOKLYN
1393707;BRONX COMMUNITY INC;;1965;UNIVERSITY AVENUE;;BRONX
1393965;FIFTH AVENUE LAUNDROMAT & DRY CLEANING INC.;;1492;   5 AVENUE;;NEW YORK
1395510;COME-TO-WASH LAUNDROMAT CORP.;;134;AVENUE U;GROUND FLOOR;BROOKLYN
1397487;DAS LAUNDROMAT CORP;;2028;WHITE PLAINS RD;;BRONX
1402114;N & S LAUNDROMAT INC;;179-40;HILLSIDE AVENUE;;JAMAICA
1402807;BROADWAY PARK LAUNDROMAT LLC;;4710;BROADWAY;;NEW YORK
1403598;68 J.J LAUNDROMAT INC.;;6809;NEW UTRECHT AVENUE;;BROOKLYN
1403917;TEN FEI LAUNDROMAT INC;;1942;NOSTRAND AVE;;BROOKLYN
1404765;GOOD YU QUAN LAUNDROMAT, INC.;;4917;7 AVENUE;;BROOKLYN
1404836;GENE INDUSTRIES INC.;CYCLE KING;184;AUDUBON AVENUE;;NEW YORK
1405423;SGJC, INC.;;439;W 50TH ST;;NEW YORK
1407759;80TH LAUNDROMAT CORP;;217;WEST   80 STREET;;NEW YORK
1307688;CHEN, SHENG PING;SP & MQ LAUNDROMAT;3102;FULTON STREET;FIRST FLOOR;BROOKLYN
1310616;RAINBOW LAUNDRY SERVICES INC;;8403;  20 AVENUE;STORE #2;BROOKLYN
1313928;MING RONG INC;Y & R LAUNDROMAT;754;SENECA AVENUE;;RIDGEWOOD
1314226;AROUND THE CORNER LAUNDROMAT, INC.;;795;EAST 151 STREET;;BRONX
1320387;BALLY LAUNDROMAT INC;;51-38;GOLDSMITH STREET;;ELMHURST
1320888;SUPER CLEAN LAUNDRY CITY INC;;2716;CHURCH AVENUE;;BROOKLYN
1323903;WESLY LAUNDROMAT LLC;;402;NEW LOTS AVENUE;;BROOKLYN
1324492;GLOBAL LAUNDROMAT INC;;773;  55 STREET;BSMT;BROOKLYN
1327544;Z & Q LAUNDROMAT INC.;;35-25; 153 STREET;;FLUSHING
1328953;J & A NEW CORPORATION;J & A LAUNDROMAT;7510;ROOSEVELT AVENUE;;JACKSON HEIGHTS
1334174;598 LAUNDROMAT INC;;59-08;MYRTLE AVENUE;;RIDGEWOOD
1334248;SELF-SERVICE LAUNDROMAT INC.;;294;CORNELIA STREET;;BROOKLYN
1334818;TJF SNACKS VI LLC;CASTLETON LAUNDROMAT;441-443;CASTLETON AVENUE;;STATEN ISLAND
1335113;G & L LAUNDROMAT INC;;2064;ATLANTIC AVENUE;;BROOKLYN
1335322;BURNS LAUNDROMAT INC;;68-04;BURNS STREET;STORE 3;FOREST HILLS
1336292;CLEAN BRITE SERVICE CENTER, LTD;;959;VAN DUZER STREET;;STATEN ISLAND
1338315;ASTORIA CLEANERS INC;;23-17;  31 STREET;;ASTORIA
1338617;QURESHI, SHAH;SHAH LAUNDROMAT;30-08;  36 AVENUE;;LONG ISLND CITY
1339413;DREAM CLEAN LAUNDROMAT 1 CORP;;245;BERGEN STREET;;BROOKLYN
1340153;GAO & CHENG INC;E-WONDERFUL CLEANER & LAUNDRY;343;EAST 66TH STREET;;NEW YORK
1340522;SUPER BRITE KINGS LAUNDRY INC;;169;CENTRAL AVENUE;;BROOKLYN
1340873;LEXINGTON STAR CLEANERS, INC;;1396;LEXINGTON AVENUE;;NEW YORK
1340928;RYANNA LAUNDROMAT INC;;4514;AVENUE D;;BROOKLYN
1341923;SHIRTS KIM, INC.;;679;EAST  138 STREET;;BRONX
1342044;NY BEST LAUNDROMAT INC.;;2863;FULTON STREET;;BROOKLYN
1342130;CASTLE HILL CLEANER AND LAUNDROMAT INC.;TROPICAL SUDS;1171;CASTLE HILL AVENUE;;BRONX
1342271;CLINTON HILL LAUNDRY INC.;;189;CLINTON STREET;;BROOKLYN
1342354;BSD LAUNDRY INC.;;90-13;  31 AVENUE;;QUEENS
1342428;173RD SIMPLY CLEAN, INC;;600;WEST  173 STREET;;NEW YORK
1342441;FLUFF-N-FOLD LAUNDRY SERVICES LLC;;440;E 75TH ST;;NEW YORK
1343367;MOTHERLOAD LLC;MOTHERLOAD LAUNDRY;2929;AVENUE S;;BROOKLYN
1343754;301 BROADWAY LAUNDROMAT INC.;;4116;BROADWAY;;ASTORIA
1344184;A.V. CHON INC;;86;CANAL ST;;STATEN ISLAND
1344252;E 16 LAUNDROMAT LLC;;1600;CORTELYOU ROAD;;BROOKLYN
1346158;NEW XIN LONG LAUNDROMAT INC;;814;WYCKOFF AVENUE;;BROOKLYN
1346320;ZHANG, YAN HUI;REGO PARK LAUNDROMAT;62-26;WOODHAVEN BOULEVARD;;REGO PARK
1346418;MGK LAUNDRY CORP;;35-01;  31 AVENUE;;QUEENS
1346813;VASQUEZ,DIOSMERY;DIOSMERY SUPER LAUNDROMAT;560;RALPH AVENUE;;BROOKLYN
1347992;JSC LAUNDROMAT INC;;192-19;47TH AVE;;FLUSHING
1349474;NEW NOSTRAND LAUNDROMAT INC.;;1565;NOSTRAND AVENUE;;BROOKLYN
1349791;35 ALLEN LAUNDROMAT CORP.;;35;ALLEN STREET;G/F;NEW YORK
1350697;FRANCISCO, ONG L;FRESH N CLEAN LAUNDRY;18903;UNION TURNPIKE;;FRESH MEADOWS
1351334;MY ELAINE LAUNDROMAT INC.;;3960;LACONIA AVENUE;;BRONX
1352434;JSLS LAUNDRY, INC;;106-17;CORONA AVENUE;;CORONA
1353542;BAO JING, INC;PERFECT LAUNDROMAT;233;ROCKAWAY AVENUE;;BROOKLYN
1353708;SUNNY CHEN LAUNDROMAT INC.;SUNNY LAUNDROMAT;105-18; 177 STREET;;JAMAICA
1354373;E & A LAUNDROMAT CORP;;570;VAN SICLEN AVENUE;;BROOKLYN
1356804;41 WILSON REALTY INC;;5402;CHURCH AVE;;BROOKLYN
1359391;SUPERCLEAN IV INC.;;1501;HYLAN BLVD;;STATEN ISLAND
1367133;BASMATIE BISUNLAL;SPLISH - SPLASH LAUNDROMAT 11;13202;CROSSBAY BOULEVARD;;OZONE PARK
1368941;VIVAX CORP;ULTRA WASH;926;MOTHER GASTON BLVD;;BROOKLYN
1370141;QU BOOMING LAUNDROMAT INC;;766-770;ROGERS AVE;;BROOKLYN
1371088;NEW ORIENTAL LAUNDROMAT INC;;1128;PIERCE AVE;;BRONX
1180296;HOME SWEET HOME LAUNDROMAT CORP.;;876;BELMONT AVENUE;;BROOKLYN
1184622;SNOWFLAKE LAUNDROMAT LLC;;2491;  65 ST;;BROOKLYN
1187270;J.J. METRO LAUNDROMAT CORP.;;53-25;METROPOLITAN AVENUE;;RIDGEWOOD
1187854;DAJA CORP;;326;EAST  194 STREET;;BRONX
1192397;CHEN, JIE MEI;JAMIE LAUNDROMAT COMPANY;19/Sep;  40 AVENUE;;LONG ISLND CITY
1192779;CHAN, CHI CHING;WING FAT LAUNDROMAT;1406;NEWKIRK AVENUE;;BROOKLYN
1201087;W.U.N. LAUNDROMAT INC;;1359;OGDEN AVENUE;;BRONX
1206185;NINA'S LAUNDROMAT, INC;;121-05; 101 AVENUE;;RICHMOND HILL
1209911;SAENID LAUNDROMAT, INC;;2085;LEXINGTON AVENUE;;NEW YORK
1211298;J&M LAUNDRY SERVICES, INC;;760;MCDONALD AVENUE;;BROOKLYN
1214338;JENNY YANG'S LAUNDROMAT, INC.;TEN ST. LAUNDROMAT;286;EAST 10TH STREET;;NEW YORK
1216073;FORTINI, ENRICO;ENRICO FORTINI;25-58;  18 STREET;;QUEENS
1216319;PAN, CALVIN KW;RUPERT WASH & DRY;1670;   3 AVENUE;;NEW YORK
1218040;K & Y AMERICA, LLC.;GREAT AMERICAN LAUNDROMAT;3211;WHITE PLAINS ROAD;;BRONX
1218614;LAU, SOOK YING;GOLD RIVER LAUNDROMAT;195-01;JAMAICA AVENUE;;HOLLIS
1218784;DAHILL LAUNDROMAT CORP.;;210;DAHILL ROAD;;BROOKLYN
1218833;SUPER CLEAN LAUNDROMAT INC;;63-02;FRESH POND ROAD;;RIDGEWOOD
1219251;UNION STREET SUPERWASH CENTER, INC;;134;UNION STREET;;BROOKLYN
1220068;CONWAY, KENNETH O;76 STREET & COOPER AVENUE LAUNDROMAT;69-45;76TH STREET;;MIDDLE VILLAGE
1221506;J.S. FRENCH CLEANERS INC;;1602;NEWKIRK AVENUE;;BROOKLYN
1222643;462 IRVING AVE LAUNDROMAT INC.;;462;IRVING AVENUE;;BROOKLYN
1223959;SOAP SUDS & BUBBLES LAUNDROMAT, INC.;;1263;SPOFFORD AVE;;BRONX
1225633;ZHENG, JIAN GUANG;NEW K D LAUNDROMAT;1991;BRONXDALE AVENUE;;BRONX
1228551;TAN, CUICHANG;MEGA J LAUNDROMAT;3605;  15 AVENUE;;BROOKLYN
1230428;PALOMA LAUNDROMAT, INC;;56;STAGG STREET;;BROOKLYN
1236239;1890 LAUNDRY LLC;THE LAUNDRY STATION;1890;FLATBUSH AVENUE;;BROOKLYN
1238395;FINEST LAUNDROMAT INC;;147-55;  41 AVENUE;;FLUSHING
1240813;R.R.C., CORP.;;378;JERSEY STREET;;STATEN ISLAND
1242052;XU, JIN JUN & XU JIN MIN;J & J LAUNDROMAT;6213;  18 AVENUE;;BROOKLYN
1242753;ST. PAUL'S LAUNDROMAT CORP.;;6;ST PAULS AVENUE;;STATEN ISLAND
1244748;PORT RICHMOND LAUNDROMAT, INC;SPA LAUNDRIES;2028;RICHMOND TERRACE;;STATEN ISLAND
1244930;LIN, XUE YUN;LIN'S LAUNDROMAT;9722;SEAVIEW AVENUE;AKA 9722-9724 SEAVIEW AVENUE;BROOKLYN
1245533;MARMY LAUNDROMAT, INC;;197;MALCOLM X BOULEVARD;;BROOKLYN
1246750;PYRAMID PARTNERS CORP.;JERRI'S UPTOWN;332;EAST   86 STREET;;NEW YORK
1247360;NEW SUNLIGHT LAUNDROMAT INC.;;4012;EAST TREMONT AVENUE;;BRONX
1247890;AQUA CLEAN LAUNDROMAT, INC;;72-06;  57 AVENUE;;QUEENS
1248406;STUDS & SUDS, INC.;;6517;  14 AVENUE;;BROOKLYN
1248784;K.P. LAUNDROMAT, INC.;;212-08;HILLSIDE AVENUE;STORE;QUEENS VILLAGE
1249664;CENTRAL CITY LAUNDROMAT INC.;;110-50;SPRINGFIELD BOULEVARD;;QUEENS VILLAGE
1250168;SUPER J LAUNDROMAT LLC;;497;TINTON AVENUE;;BRONX
1250582;CONSTANT INC.;;1711;BROADWAY;;BROOKLYN
1251402;303 LAUNDROMAT, LLC;;301;EAST  170 STREET;;BRONX
1253440;WANG, HUA;FUN REE LAUNDROMAT;85-17/19;WHITNEY AVENUE;;ELMHURST
1255416;HP 1 LAUNDROMAT, INC.;;20-67;STEINWAY STREET;;ASTORIA
1255558;LINDEN LAUNDROMAT, INC.;;200-10;LINDEN BOULEVARD;;SAINT ALBANS
1257041;IDRISS, ZAHER & IDRISS, MIRNA;FLUFF 'N FOLD;7906;  16 AVENUE;;BROOKLYN
1262178;GOOD HOPE LIBERTY LAUNDROMAT LLC;;149;EAST  165 STREET;;BRONX
1263551;FAMILY LAND, INC.;SO FRESH SO CLEAN;1;TERRACE VIEW AVENUE;;NEW YORK
1265150;NEW AQUA CLEAN WASH, INC.;;75;FEATHERBED LANE;;BRONX
1267240;B & M SALES, INC.;;245;JEWETT AVE;;STATEN ISLAND
1267736;NEW BRITE LAUNDROMAT INC.;;8813;AVENUE L;;BROOKLYN
1268948;B&Z LAUNDROMAT CORP.;LAUNDRYLAND;114-25;MERRICK BOULEVARD;;QUEENS
1269484;MIAO'S BROTHERS INC;;30-78;  14 STREET;;ASTORIA
1334017;LAUNDRY STOP ON JAMAICA INC.;;98-07;JAMAICA AVENUE;;WOODHAVEN
1335225;HILLSIDE LAUNDROMAT & WASH, INC;;144-01;HILLSIDE AVENUE;;QUEENS
1336321;CROSSBAY EXPRESS LAUNDROMAT INC.;;137-20;CROSSBAY BOULEVARD;;QUEENS
1336598;2001 CAMBRIA HEIGHTS LAUNDROMAT INC;;221-25;LINDEN BOULEVARD;;QUEENS
1337604;J J M S CORPORATION;;76-09;  37 AVENUE;;JACKSON HEIGHTS
1337786;LI, YI YU;HUA YU LAUNDROMAT;95-13;  57 AVENUE;;ELMHURST
1338645;JJ & MH, INC.;;3;THAYER STREET;;NEW YORK
1340685;JJ GENESIS INC;BROADWAY LAUNDROMAT;3632;KINGSBRIDGE AVENUE;;BRONX
1341324;KINGSTON LAUNDROMAT LLC;;129;KINGSTON AVENUE;;BROOKLYN
1342104;WENZHONG XIA;YESAN CLEANER;358;BEDFORD PARK BOULEVARD;;BRONX
1342312;CANARSIE 8 LAUNDROMAT LLC;;1881;ROCKAWAY PARKWAY;;BROOKLYN
1342868;LIU, YI XIN;111 LAUNDROMAT;39-17; 111 STREET;2/FL;CORONA
1343046;VENUS LAUNDROMAT LLC;;6924;   8 AVENUE;;BROOKLYN
1343319;SIR SUDS-A-LOT INC;GREEN SPIN LAUNDRY;27-04;23RD AVE;;ASTORIA
1343924;S & J LAUNDROMAT CORP;;83;EAST  110 STREET;;NEW YORK
1344178;RIVERDALE LAUNDRY INC;;3714B;RIVERDALE AVENUE;;BRONX
1344912;845 GRAND STREET SUPER WASH CENTER INC;;845;GRAND STREET;;BROOKLYN
1345462;GUILLAUME, JOSEPH E.;COMMUNITY LAUNDROMAT;2079;NOSTRAND AVENUE;;BROOKLYN
1346791;MEGA 777 INC.;EXPRESS LAUNDROMAT NY;149-15;NORTHERN BOULEVARD;;FLUSHING
1346967;SUPER WASH 85 CORP.;;1615;   1 AVENUE;;NEW YORK
1347502;5712 CLARENDON LAUNDROMAT LLC;;5712;CLARENDON RD;;BROOKLYN
1347526;OSK LAUNDROMAT INC;;115;LOGAN STREET;;BROOKLYN
1347714;1475 FLATBUSH AVENUE LAUNDROMAT, LLC;;1475;FLATBUSH AVENUE;;BROOKLYN
1350260;HANNAH LAUNDROMAT INC.;;75-11;METROPOLITAN AVENUE;;MIDDLE VILLAGE
1356383;RAINBOW LAUNDROMAT NY INC;;375;BROADWAY;;BROOKLYN
1356771;BA WAN JIA INC;;5616;CHURCH AVE;;BROOKLYN
1359557;KAI XUAN LAUNDROMAT INC;;1644;ST NICHOLAS AVE;;NEW YORK
1359608;LUCKY LAUNDRY EXPRESS INC;;7616;18TH AVE;;BROOKLYN
1359622;AVENUE B BEST CLEANER INC;;60;AVENUE B;;NEW YORK
1359849;108 CORONA MEGAWASH INC;;4815;108TH ST;;CORONA
1359984;E-Z CLEAN, INC.;EZ CLEAN LAUNDROMAT;2212;COLLEGE POINT BLVD;;COLLEGE POINT
1360433;GAM LAUNDROMAT INC;SUPER LAUNDROMAT;951;HOE AVE;;BRONX
1362792;SUNSHINE DRY CLEANERS & LAUNDRY CORPORATION;;18808;JAMAICA AVE;;HOLLIS
1367480;RRAF LLC;A-1 LAUNDRY;150;GREAVES LN;;STATEN ISLAND
1368484;DITMARS LAUNDRY CORP;;46-20;DITMARS BLVD;;ASTORIA
1369904;GOLD BULL VEND LLC;SUDSY WATER;1160;BRYANT AVE;;BRONX
1371929;HANA ENTERPRISE NY LLC;SONYA LAUNDROMAT;81-68;LEFFERTS BLVD;;KEW GARDENS
1374560;LIN, QI QIANG;LIN'S C & Z LAUNDROMAT;9522;SEAVIEW AVE;UNIT B;BROOKLYN
1376687;LINCHEN LAUNDROMAT INC;;137;W 67TH ST;;NEW YORK
1377978;ZULLY'S BUBBLES LAUNDROMAT INC;;26-28;18TH ST;;ASTORIA
1378125;DELIGHT LAUNDROMAT, LLC;;17;FORT PL;;STATEN ISLAND
1378199;WITMAN LAUNDROMAT INC;;4232;10TH AVE;;BROOKLYN
1379784;7607 LAUNDRY N CORP.;;7607;JAMAICA AVE;;WOODHAVEN
1380418;MCM LAUNDROMAT INC;HOLLYWOOD LAUNDROMAT;37-04;  31 AVENUE;;QUEENS
1381795;WP & M NYC, INC;;1554;YORK AVE;;NEW YORK
1381928;HUA HUA LAUNDROMAT INC;;51;E 181ST ST;;BRONX
1382682;LANDMARK LAUNDROMAT LLC;;59-37;QUEENS BOULEVARD;;WOODSIDE
1382936;AB LAUNDROMAT I CORP;;1501;NEPTUNE AVE;;BROOKLYN
1383184;LAUNDROMAT 168 CORP;;774;52ND ST;;BROOKLYN
1383689;POLY ORGANIC CLEANERS INC.;;60;W 75TH ST;;NEW YORK
1383853;510 NEW STARLIGHT LAUNDROMAT INC.;;510;W 218TH ST;;NEW YORK
1384418;7005 LAUNDROMAT INC;;7005;FORT HAMILTON PARKWAY;;BROOKLYN
1386948;BELLE HARBOR LAUNDRETTE, LLC;;448;BEACH 129TH ST;;BELLE HARBOR
1388670;50TH STREET LAUNDRY & CLEANERS, INC;;304;E 50TH ST;;NEW YORK
1372453;K & J LAUNDROMAT CORP;;1978;   2 AVENUE;;NEW YORK
1373308;CHAU, YAT FAN;NEW BELLEROSE LAUNDROMAT 2;12419;LIBERTY AVE;;S RICHMOND HILL
1375560;GOLD BULL VEND LLC;SUDSY WATER;2394;ADAM CLAYTON POWELL BLVD;;NEW YORK
1377089;NY SPARKLING LAUNDRY INC.;;122-07;  22 AVENUE;;COLLEGE POINT
1378865;RI XIN LAUNDROMAT INC;;6217;5TH AVE;;BROOKLYN
1379947;NEW SUPER WASH LAUNDROMAT INC;;376;CENTRAL AVENUE;;BROOKLYN
1380544;78 LAUNDRY SERVICES, INC.;;78;MONTAGUE STREET;;BROOKLYN
1381247;WAVERLY EASTERN BROOKLYN INC;;353;WAVERLY AVE;;BROOKLYN
1384552;CLEAN CITY LAUNDRY OF WYKOFF INC.;;82;WYCKOFF AVE;;BROOKLYN
1385220;MIDDLE VILLAGE LAUNDROMAT INC;;6841;79TH ST;;MIDDLE VILLAGE
1390641;JT LAUNDROMAT INC.;;13901;  90 AVENUE;STORE B;JAMAICA
1392537;217 LAUNDROMAT INC;;217;EAST   26 STREET;1ST FL;NEW YORK
1395703;L & D LAUNDROMAT, INC;MADISON STREET CLEANERS;209;MADISON ST;;NEW YORK
1396667;1685 UTICA SUPER LAUNDROMAT INC;;1685;UTICA AVE;;BROOKLYN
1397576;L.Y LIFENG GROUP CO. LTD.;;451;MONROE ST;;BROOKLYN
1399615;740 LAUNDROMAT INC.;;740A;MYRTLE AVE;;BROOKLYN
1400089;Y S FOUR SEASONS CORP;FOUR SEASONS DRY CLEANERS & LAUNDRY;985;PROSPECT AVE;;BRONX
1400838;101 BEST LAUNDROMAT INC;;675;ONDERDONK AVE;;RIDGEWOOD
1401087;A A S LAUNDROMAT, INC;;47-12;  47 AVENUE;;WOODSIDE
1405907;Y H LAUNDROMAT INC.;GREG'S LAUNDROMAT;634;MANHATTAN AVENUE;;BROOKLYN
1407520;NEW KANG SHENG LAUNDROMAT CORP;;4201;NATIONAL STREET;;CORONA
1409055;MARISOL LAUNDROMAT INC;;95-39A;  40 ROAD;;ELMHURST
1411686;JJ SUPER CLEAN LAUNDROMAT INC.;;5802;  23 AVENUE;;BROOKLYN
1412013;PROFESSIONAL TOUCH DRY CLEANING & TAILORING INC;;397;EAST  167 STREET;;BRONX
1412654;START FRESH LAUNDRY INC.;;2523;BROADWAY;1ST FLOOR;L.I.C
1412792;NEW QUICK COIN INC.;;164;   8 AVENUE;;NEW YORK
1412894;METRO WASH INC;;518;WEST  145 STREET;;NEW YORK
1413624;OWM GROUP INC.;;28-19;  36 AVENUE;;LIC
1414521;J M PRADERA LAUNDRYMAT INC;;306;EAST 180 STREET;;BRONX
1414754;ZHU, XUE CHAI;EMPIRE LAUNDROMAT;565;EMPIRE BOULEVARD;;BROOKLYN
1414964;EAST NEW YORK LAUNDROMAT INC;;355;NEW LOTS AVENUE;;BROOKLYN
1415654;DIAN WEI LAUNDROMAT INC.;;61-02;MADISON STREET;;RIDGEWOOD
1415900;GOLD PEACH CORP,;LAUNDRY EXPRESS;440;NOME AVENUE;;STATEN ISLAND
1416291;HUANG CHANG GUANG;SUNNY LAUNDROMAT;39-37;  47 AVENUE;;SUNNYSIDE
1416561;228 ALBANY LAUNDROMAT INC;;228;ALBANY AVE;;BKLYN
1416772;1717 1ST AVE. CORP;THE MAT;1717;   1 AVENUE;GROUND;NEW YORK
1418303;GF LAUNDROMAT INC.;;1808;FLATBUSH AVE;;BROOKLYN
1418450;REGAL LAUNDRY INC.;;55;ROCKAWAY AVE;;BROOKLYN
1419095;IMBRIALE, ANTHONY;LINDENWOOD LAUNDRMAT;8210;151 AVE;;HOWARD BEACH
1419534;SUPER WALTON LAUNDROMAT CORP;;1750;WALTON AVE;;BRONX
1420387;LI BAI LAUNDROMAT INC;;121;ELIZABETH ST;;NEW YORK
1420735;TERTERYAN CO., INC;;898;E 180TH ST;;BRONX
1421045;JAMAO LAUNDROMAT CORP.;;8919;80TH ST;1ST FL;WOODHAVEN
1421255;2054 SPLISH SPLASH LAUNDROMAT CORP.;;2054;WALLACE AVE;AKA 2054-2056 WALLACE AVE;BRONX
1424684;JAMIL MANSOOR CORP;;425;E 21ST ST;;BROOKLYN
1424822;JAE LAUNDRY SERVICES INC;;590;SENECA AVE;;RIDGEWOOD
1426256;NATAGANA, INC;;2342;31ST DR;;ASTORIA
1427080;FU LI 18 INC;LUCKY LAUNDRY;61;E 18TH ST;;BROOKLYN
1429170;TOP 1 LAUNDROMAT, INC.;;4102;5TH AVE;;BROOKLYN
1430147;1615 UNIV AVENUE, INC;GOLDEN LAUNDROMAT;1615;UNIVERSITY AVE;A/K/A DR MARTIN LUTHER KING BLVD;BRONX
1430299;BAXTER LAUNDROMAT, LLC;SUPER BAXTER LAUNDRY;8220;BAXTER AVE;;ELMHURST
1430755;FAMILY LAUNDROMAT, INC;;13863;QUEENS BLVD;13865 QUEENS BLVD;JAMAICA
1431027;NYC 1 LAUNDROMAT INC;;2;W 126TH ST;;NEW YORK
1433327;NEW NICE & FRESH LAUNDROMAT INC;;843;TRINITY AVE;;BRONX
1340238;FREE ORIENTAL OASIS INC;;235;EAST 25 STREET;A;NEW YORK
1340694;ISLAND FRESH LAUNDRY, LLC;;1153;CASTLETON AVENUE;;STATEN ISLAND
1341372;CLEAN RITE CENTER - 1332 FLATBUSH AVE LLC;;1332;FLATBUSH AVE;;BROOKLYN
1341502;A & S LAUNDROMAT & DRY CLEANING INC;;12410;JAMAICA AVENUE;;RICHMOND HILL
1341512;LIANG, YAO WEN;LIANG YAO WEN LAUNDROMAT;12605;LIBERTY AVENUE;;SO RICHMND HILL
1341709;QQ LAUNDROMAT INC;;1814;   3 AVENUE;;NEW YORK
1341901;MK LAUNDROMAT CORP;;33-14;  31 AVENUE;;QUEENS
1342183;G & V LAUNDRY INC.;;3668;NOSTRAND AVENUE;;BROOKLYN
1342555;LI, GUI MEI;LI'2 DRY CLEANER;157;ALLEN STREET;AKA 159 ALLEN ST;NEW YORK
1342963;TOP CHOICE LAUNDROMAT INC;;2627;BRIGGS AVENUE;;BRONX
1344299;T S R LAUNDRY CORPORATION;;3559;WHITE PLAINS ROAD;;BRONX
1345324;SENO & RON LAUNDROMAT, LLC;;842;CLARKSON AVENUE;;BROOKLYN
1345735;GREEN POINT LAUNDROMAT INC.;SUSAN LAUNDROMAT;184;NASSAU AVENUE;;BROOKLYN
1347899;KARMA DEVELOPMENT CORP;LINCOLN LAUNDROMAT;132;LINCOLN AVENUE;;STATEN ISLAND
1350979;LAUNDROMARY CORPORATION;;16418;69TH AVENUE;;FLUSHING
1354279;MARK'S LAUNDROMAT NY, INC.;;2811;  86 STREET;;BROOKLYN
1355037;PROFESSIONAL LAUNDROMAT & CLEANERS INC;DOUBLE FORTUNE LAUNDROMAT & CLEANERS;103-05;101ST AVENUE;;OZONE PARK
1355324;DSC LAUNDROMAT INC;;1745;AMSTERDAM AVENUE;;NEW YORK
1357365;A & R RICHMOND HILL INC;;10234;JAMAICA AVENUE;;RICHMOND HILL
1358099;LIZNEL LAUNDROMAT CORP;;132;VERMILYEA AVENUE;;NEW YORK
1358910;BTS ENTERPRISE LLC;KING OF CLEAN LAUNDROMAT & DRY CLEANERS;14208;ROCKAWAY BLVD;;JAMAICA
1362987;CLEAN CITY LAUNDRY DEPOT INC.;;673;BUSHWICK AVENUE;;BROOKLYN
1365899;PROSPERITY LAUNDROMAT INC;;90-11;63RD DR;;REGO PARK
1367495;725 W 181 STREET LAUNDRY CORP;;725;W 181ST ST;;NEW YORK
1368179;SUDS R US LAUNDRY, LLC;BAILEY AVENUE LAUNDRY;3114;BAILEY AVE;;BRONX
1370610;TIFFANY LAUNDROMAT CORP;;981;WESTCHESTER AVE;;BRONX
1371596;KIONE ENTERPRISES INC;62SPIN.COM LAUNDROMAT;6224;ROOSEVELT AVE;;WOODSIDE
1372046;DOBBINS, AKIE;SURPRISE CLEANER OF EAST 91ST STREET;300;EAST   91 STREET;;NEW YORK
1375270;PEOPLES' LAUNDROMAT INC;;2171;7TH AVE;;NEW YORK
1375868;MULBERRY LAUNDROMAT INC;LIN'S LAUNDROMAT;384;BROOME ST;;NEW YORK
1376593;NEW NICE LAUNDROMAT INC;;103-15;GLENWOOD RD;;BROOKLYN
1376669;XING BIN LAUNDROMAT INC;;101-18;LIBERTY AVE;;OZONE PARK
1378305;S&M ORTIZ LAUNDROMAT II INC;;35-05;DITMARS BOULEVARD;;QUEENS
1379068;ATLANTIC LAUNDROMAT KINGS INC;;5120;   6TH AVE;;BROOKLYN
1380217;JIE MEI LAUNDROMAT INC.;;6023;   5 AVENUE;;BROOKLYN
1380839;BAO'S LAUNDROMAT INC.;;9610;31ST AVE;;E ELMHURST
1380868;CHEN 168 LAUNDROMAT INC.;;4230;COLLEGE POINT BLVD;;FLUSHING
1381084;MAYFLOWER LAUNDRY DEPOT INC;;90;BELMONT AVENUE;;BROOKLYN
1381127;ZHEN WEI LAUNDROMAT INC;;3712;75TH ST;;JACKSON HEIGHTS
1381361;QIU SHI LAUNDROMAT INC;;40-01;28TH AVE;;ASTORIA
1381427;KLEANPIA LAUNDROMAT INC;;526;E 187TH ST;;BRONX
1381489;2090 LINDEN-WASH-O-MATIC LLC;WASH-O-MATIC;2090;LINDEN BLVD;;BROOKLYN
1381730;CLEAN RITE CENTERS - 80-10 ROCKAWAY AVE LLC;;80-12;ROCKAWAY BOULEVARD;;JAMAICA
1383294;SUPER CLEANER & LAUNDRY INC;;72;AVE O;;BROOKLYN
1384311;MEE LAUNDROMAT LLC;BEST LAUNDRY & CLEANERS;3744;29TH ST;;L.I.C
1384428;LAVANDERIA EXPRESS VII, INC.;;204;CHESTNUT AVE;;BROOKLYN
1386218;146 CORNER HAPPY CORP;;144-75;NORTHERN BLVD;;FLUSHING
1388104;SO CLEAN LAUNDROMAT INC;;328;E 78TH ST;;NEW YORK
1390554;NEW 7 STAR LAUNDRY CENTER INC.;;356;UTICA AVE;;BROOKLYN
1393494;GARMENT CARE CLEANERS & LAUNDROMAT, INC.;;5605;AVENUE L;;BROOKLYN
1394888;BLISS CLEANERS INC;;324;E 91ST ST;;NEW YORK
1395601;PARK EAST MADISON CLEANERS INC;;31;E 30TH ST;;NEW YORK
1396940;M AND D WASH AND DRY LAUNDRY CORP;;452;ONDERDONK AVE;;RIDGEWOOD
1341029;PARKWAY LAUNDRY & DRY CLEANING INC.;;9619;GLENWOOD ROAD;;BROOKLYN
1341297;LAUNDLAND OF BAYSIDE INC.;;215-23;  73 AVENUE;;QUEENS
1341304;LAUNDRY.COM USA INC;;2061;BATH AVENUE;;BROOKLYN
1341828;P & G PLACE, LLC;GLADY'S WASH & DRY CLEANERS;412;BRIGHTON BEACH AVENUE;;BROOKLYN
1341883;88 SUNSHINE LAUNDROMAT, INC;;6905;   5 AVENUE;;BROOKLYN
1342300;FOREMOST LAUNDROMAT CENTER INC.;;72-01;  35 AVENUE;;QUEENS
1342341;CHINESE LAUNDRY INC;;201;WEST   87 STREET;;NEW YORK
1343147;GREAT STAR LAUNDRY, INC.;;970;SENECA AVENUE;;RIDGEWOOD
1347773;FS LAUNDRY CORPORATION;WASH CLUB;6305;   5 AVENUE;;BROOKLYN
1347776;BAISLEY LAUNDRY INC;;17516;BAISLEY BLVD;;ST ALBANS
1350900;AMERICAN SUDS I LAUNDROMAT INC;;2919;SURF AVENUE;;BROOKLYN
1351129;ORIENTAL STAR NYC, INC.;;3233;AMPERE AVENUE;;BRONX
1354418;KOALA LAUNDROMAT INC.;;77-22;164 STREET;;FLUSHING
1355219;CARLTON MANAGEMENT CORP;;10703;ROCKAWAY BLVD;;S. OZONE PARK
1356394;B & J LAUNDROMAT NY INC;;549;KNICKERBOCKER AVENUE;;BROOKLYN
1357117;CLEAN RITE CENTERS-82-11 FLATLANDS, LLC;;8211;FLATLANDS AVE;;BROOKLYN
1359184;USA NY SHIRT LAUNDRY CENTER INC;;1189;BEDFORD AVE;;BROOKLYN
1359389;SUPER HAPPY LAUNDROMAT CORP;;1240;FLATBUSH AVE;;BROOKLYN
1361380;JIANG, XU;JH LAUNDROMAT;8515;  37 AVENUE;;JACKSON HGTS
1362271;XIAO Y YANG;NEW Q'S LAUNDROMAT;10410;METROPOLITAN AVE;;FOREST HILLS
1371022;MERENGUE DRY CLEANERS CORP;;1138;FLATBUSH AVE;;BROOKLYN
1371551;LUCKY WATSON LAUNDROMAT INC;;1552;WATSON AVE;;BRONX
1371834;LUCKY UNO LAUNDROMAT INC;;5119;4TH AVE;;BROOKLYN
1375277;CLEAN RITE CENTERS-2519 86TH ST.,LLC;;2515;86TH ST;;BROOKLYN
1376167;GREEN LEAF LAUNDROMAT INC;;1238;HANCOCK ST;;BROOKLYN
1376223;CHECO LAUNDROMAT CORP;;2125;AMSTERDAM AVE;;NEW YORK
1376521;BUBBLE WORKS INC;;11619;JAMAICA AVE;;RICHMOND HILL
1377198;NEW BRILLANCE INC;;2149;WALLACE AVE;;BRONX
1378722;LAUNDRY QUEEN III, INC;;207;CLINTON ST;;NEW YORK
1380478;JIAN JIE YANG;YANG LAUNDROMAT;52-11; 103 STREET;;QUEENS
1381602;QTS LAUNDROMAT CORP.;;67-16;ROOSEVELT AVE;;WOODSIDE
1385235;BRIGHTWAY LAUNDRY, INC.;;255;BRIGHTON BEACH AVE;;BROOKLYN
1385338;LE TAI INC;;1528;UTICA AVE;;BROOKLYN
1385712;G & B LAUNDROMAT INC;CRYSTAL & CLEAN;4325;WHITE PLAINS RD;;BRONX
1385885;CHEN, XIU CHAI;CHEN'S LAUNDROMAT;7926;164TH ST;;JAMAICA
1386121;CRYSTAL TOUCH LAUNDROMAT & DRY CLEANERS INC.;;1110;ST JOHNS PL;;BROOKLYN
1386915;YONG KANG ENTERPRISES INC;PARKWAY LAUNDROMAT;8721;MYRTLE AVE;;RIDGEWOOD
1388846;NEW STAR LAUNDROMAT, INC;;7709;101ST AVE;;OZONE PARK
1392251;KAN'S HOLDING LTD.;CITY BRITE CLEANERS;176;LAFAYETTE STREET;;NEW YORK
1392392;KT LAUNDROMAT INC.;;500;HENRY ST;;BROOKLYN
1394426;HAPPY FAMILY LAUNDROMAT CORP;;932;MORRIS AVE;;BRONX
1395005;MISS ZEBRA, INC.;GOLDEN FRENCH CLEANERS;9711;64TH AVE;;REGO PARK
1395529;BRILLIS SERVICES INC.;LAVANDERIA EXPRESS IV;287;GRAHAM AVENUE;;BROOKLYN
1399392;THERESA LAUNDROMAT INC;;169-24;HILLSIDE AVE;;JAMAICA
1400610;50-02 WF LAUNDROMAT INC;;50-02;SKILLMAN AVENUE;;WOODSIDE
1401017;JJMJ CONCEPTS 3, INC;SPEED WASH LAUNDER CENTER II;21-15;  21 AVENUE;;ASTORIA
1403313;74 & 79 LAUNDROMAT INC;;204;BUSHWICK AVENUE;;BROOKLYN
1406984;RIM'S LAUNDROMAT INC;;101-02;  37 AVENUE;;CORONA
1407455;NEW HK LAUNDROMAT INC;;10430;CORONA AVE;;CORONA
1409512;HESTER ST LAUNDROMAT INC.;;179;HESTER ST;;NEW YORK
1412070;KEVIN'S LAUNDRY INC.;;1329;HALSEY STREET;;BROOKLYN
1413562;CJ LAUNDROMAT INC;;394;KINGS HIGHWAY;;BROOKLYN
1413995;101 HAPPY WORLD INC;;1148;WEST FARMS ROAD;;BRONX
1415089;CRISPY CLEAN LAUNDROMAT INC;;8619;   3 AVENUE;;BROOKLYN
1415334;MULTIPLE SERVICE LAUNDROMAT INC.;;1202;BAY STREET;;STATEN ISLAND
1416770;999 ENTERPRISE INC.;;1504;COLLEGE POINT BLVD;;FLUSHING
1416908;FU LIN LAUNDROMAT INC;;3201;CHURCH AVE;;BROOKLYN
1416992;4122 LAUNDROMAT INC;;4122;10TH AVE;;BROOKLYN
1417282;CRISLYNN LAUNDRY CORP;LAUNDRY PRO;938;E 163RD ST;;BRONX
1417682;YAN LIN & JIAN YU LU;SKILLMAN LAUNDROMAT;4812;SKILLMAN AVE;;SUNNYSIDE
1418279;PAN, XIAO QUAN;JJ LAUNDROMAT;4624;AVE J;;BROOKLYN
1418759;NY BELLA LAUNDROMAT INC;;5513;5TH AVE;;BROOKLYN
1419002;LCR STILLWELL AVE LLC;;2307;STILLWELL AVE;;BROOKLYN
1419038;UTICA WASH & FOLD INC;;2102;UTICA AVE;;BROOKLYN
1419329;EXPRESS LAUNDRY SERVICE, LTD;;9302;LIBERTY AVE;;OZONE PARK
1419416;SOFTY LAUNDROMAT INC;;8832;PARSONS BLVD;;JAMAICA
1420008;FRESH LAUNDROMAT, INC.;;265;W KINGSBRIDGE RD;;BRONX
1423122;CLEAN CITY OF MANHATTAN INC.;;79;E 115TH ST;;NEW YORK
1428933;K. & S. 86, INC;;7609;37TH AVE;;JACKSON HEIGHTS
1429053;DD LAUNDROMAT CORP;;324;E 73 ST;1 FL;NEW YORK
1433520;CLEAN RITE CENTER-SEAGIRT AVE LLC;CLEAN RITE CENTERS;2515;SEAGIRT BLVD;;ROCKAWAY
1433760;SUI JIN AND HUI INC;;9123;ROCKAWAY BEACH BLVD;;ROCKAWAY BEACH
1440064;CHENG YUN LAUNDROMAT INC;;207;AVE M;;BROOKLYN
1440475;11 CHINATOWN LAUNDROMAT, INC;;11/Sep;DELANCEY ST;GROUND FL;NEW YORK
1440509;W.R. LAUNDROMAT INC;;47-49;THAYER ST;;NEW YORK
1441060;TOP 1 CLEANER INC;;111;4 AVE;;BROOKLYN
1441649;TEN LAUNDROMAT LLC;CO-OP CITY LAUNDROMAT;691;COOP CITY BLVD;6D;BRONX
1441843;K & W BEST LAUNDROMAT INC;;991;CLARKSON AVE;;BROOKLYN
1444305;HD 138 LAUNDERETTE INC.;;431;E 138TH ST;;BRONX
1446335;E-Z SPIN CORP;;1551;FULTON ST;;BROOKLYN
1446700;GLN CORP;LOST SCOK LAUNDROMAT;44-20;30TH AVE;;ASTORIA
1447345;NEW BIG WASH LAUNDROMAT_INC;;1189;GATES AVE;;BROOKLYN
1273423;NO. 1 RAINBOW LAUNDROMAT, INC.;;6401;  14 AVENUE;;BROOKLYN
1273895;FAMILY CLEANERS, INC;;1137;BRIGHTON BEACH AVENUE;;BROOKLYN
1275064;ST. MARY'S ULTRA WASH LAUNDROMAT INC;;2356;TIEBOUT AVENUE;2356-58-54;BRONX
1275156;Z & S LAUNDROMAT INC.;;2415;BATH AVENUE;;BROOKLYN
1275295;WASH-A-LOT LLC;;529;TARGEE STREET;;STATEN ISLAND
1275388;LI & P LAUNDROMAT, INC.;;296;WEST    4 STREET;;NEW YORK
1275429;CHONG, LIAN WAH;ONE STOP DO ALL LAUNDROMAT;43-06;NATIONAL STREET;;CORONA
1275434;HOUSE OF SUDZ II INC;;33-02;  28 AVENUE;;QUEENS
1275795;CHANG CAI LAUNDROMAT INC;;45-13;  48 AVENUE;;WOODSIDE
1276201;CANARSIE BEST LAUNDRY INC;;8901;FLATLAND AVENUE;;BROOKLYN
1276329;BUBBLE HOUSE LAUNDROMAT INC.;;1035;WYCKOFF AVENUE;;RIDGEWOOD
1276949;326 BEDFORD AVE. CLEANERS, INC.;;326;BEDFORD AVENUE;;BROOKLYN
1276951;1919 LAUNDROMAT EXPRESS CORP.;;1919;EASTERN PARKWAY;;BROOKLYN
1277155;CLEAN RITE CENTERS-128-01 MERRICK BLVD., LLC;;128-03;MERRICK BOULEVARD;AKA 128-01 MERRICK BOULEVARD;JAMAICA
1277422;ABC LAUNDROMAT, LLC;;1975;WHITE PLAINS ROAD;;BRONX
1278736;KLEEN R LAUNDROMAT, INC.;;483;MYRTLE AVENUE;;BROOOKLYN
1279433;XU LAUNDROMAT, INC;;166-18;HILLSIDE AVENUE;;QUEENS
1279928;BISSOONDYAL, GANGARAM;;96-01; 101 AVENUE;;QUEENS
1281092;BLUE OCEAN LAUNDROMAT INC.;NONE;493;PARK AVENUE;;BROOKLYN
1282843;QUEEN BEE LAUNDROMAT, INC;;43-78; 162 STREET;;QUEENS
1284070;JAMAICA PARK LAUNDROMAT INC.;;10438;JAMAICA AVE;;RICHMOND HILL
1284784;S & D LAUNDERETTE INC;;200;WEST   80 STREET;;NEW YORK
1288657;BROWN BAG LAUNDRY CORP;;208;MERCER STREET;;NEW YORK
1291072;XREX LAUNDROMAT, INC;;865;KNICKERBOCKER AVENUE;;BROOKLYN
1291356;Y Z BRITE LAUNDROMAT, INC.;;115;EAST   31 STREET;;NEW YORK
1292381;CYRIL SASTRI JOSEPH & BIBI M. JOSEPH;BJ'S GIFTS GIVEAWAY & MINI LAUNDROMAT;75-02;JAMAICA AVENUE;;WOODHAVEN
1293393;EXCELLENT LAUNDRY SERVICE INC;;350;EAST   67 STREET;;NEW YORK
1293475;LAM'S 7TH AVE LAUNDROMAT INC.;;683;  60 STREET;;BROOKLYN
1293899;PETRILLO, MARIE & STRAUS, JUDY;;548;KINGS HIGHWAY;548-550;BROOKLYN
1295123;LIN'S LAUNDROMAT KINGS INC.;;835;BROADWAY;;BROOKLYN
1297501;V & E RAINBOW LAUNDROMAT INC;;5A;HULL STREET;;BROOKLYN
1298713;JSES, INC.;LAUNDRY CITY SUPERSTORE;632;GRAND AVENUE;;BROOKLYN
1299680;RAINBOW 2 LAUNDRY, INC;;1735;PITKIN AVENUE;;BROOKLYN
1303911;L & YING TRADING INC;;100;MARCUS GARVEY BOULEVARD;;BROOKLYN
1304331;JIA TING LAUNDROMAT INC.;;405;CRESCENT STREET;;BROOKLYN
1306233;IPANEMA LAUNDRY INC.;;65;LENOX AVENUE;;NEW YORK
1307466;PERFECT THINGS LLC;;3357;BROADWAY;;NEW YORK
1307683;LOON XING II LAUNDROMAT INC;;126-17;LIBERTY AVENUE;;S. RICHMND HILL
1312969;M&M ULTRAMAT INC;;566;WOODWARD AVENUE;;RIDGEWOOD
1313807;LAUNDRY QUEEN 2 INC.;;524;SUTTER AVENUE;;BROOKLYN
1314334;HARLEM SPIN CITY, LLC;;2275;   3 AVENUE;;NEW YORK
1314627;HEB614 INC.;LAUNDRY DAY;1309;BOSTON ROAD;;BRONX
1317504;KLM-WESTCHESTER AVE, LLC;;2463;WESTCHESTER AVENUE;;BRONX
1321398;APOLLO CLEANERS INC.;APHRODITE CLEANERS;47;KINGSLAND AVENUE;;BROOKLYN
1323818;CLEAN RITE CENTERS-FOREST AVE., LLC;;2256;FOREST AVENUE;;STATEN ISLAND
1324679;KLEANPIA INC;;3060;   3 AVENUE;;BRONX
1325445;CLEAN CITY BRUCKNER LLC;;1979;BRUCKNER BOULEVARD;;BRONX
1331563;NEW DARLIN LAUNDROMAT INC;NEW DARLIN LAUNDROMAT;122;WEST BURNSIDE AVENUE;;BRONX
1333656;101 LAUNDROMAT INCORPORATED;;80-19; 101 AVENUE;;S OZONE PARK
1336639;AQUA LAUNDROMAT LLC;;80;NAGLE AVENUE;;NEW YORK
1337185;CHEN'S LAUNDROMAT II INC.;CHEN'S LAUNDROMAT;5318;CHURCH AVENUE;;BROOKLYN
1337367;BALSDON, GLADSTONE;MIRACLE WASHOMATIC;550;MAPLE STREET;;BROOKLYN
1338357;GRAHAM LAUNDROMAT INC;SUSAN LAUNDROMAT;489;GRAHAM AVENUE;;BROOKLYN
1361741;GRANT LAUNDROMAT INC.;;18418;HORACE HARDING EXPRESSWAY;;FRESH MEADOWS
1363167;CLEANTOPIA OF NY INC;;178;W HOUSTON ST;;NEW YORK
1365002;NATAGANA INC;;2927;NEWTOWN AVE;;ASTORIA
1368042;NEW SUPER STAR LAUNDROMAT INC;;7320;13TH AVE;;BROOKLYN
1370898;ACLS LAUNDROMAT INC;;99-18/20;NORTHERN BLVD;;CORONA
1372992;M I LAUNDROMAT 78 INC;;402;E 78TH ST;;NEW YORK
1375796;EXPRESS LAUNDROMAT OF GERARD AVE LLC;;752;GERARD AVE;;BRONX
1378000;CAXX LLC;BRIGHT MART;1065;BROADWAY;;BROOKLYN
1378102;I. Z. A. 05 CORP;;8303;101ST AVE;;OZONE PARK
1378266;H & H LAUNDROMAT INC;;59-10;KISSENA BLVD;;FLUSHING
1379366;JIN WU LIN;NEW STAR LAUNDROMAT;1564;ST NICHOLAS AVE;;NEW YORK
1379708;COLLECT COIN, INC;;750;10TH AVE;;NEW YORK
1380837;KSH LAUNDRY INC;BUHRE LAUNDROMAT;3046;BUHRE AVE;;BRONX
1382061;QI FA LAUNDROMAT INC;;6524;17TH AVE;;BROOKLYN
1382367;MEI XIAN LIN;58TH LAUNDROMAT;43-06A;  58 STREET;;WOODSIDE
1382796;ZHENG, QING RONG;HONG KONG LAUNDROMAT;123;GRAHAM AVE;;BROOKLYN
1383511;NEW QUICK SPIN LAUNDROMAT INC;;11405;BEACH CHANNEL DR;;FAR ROCKAWAY
1383652;SPIN CITY CORP;;22-11;ASTORIA BLVD;;ASTORIA
1383806;Q.C. SUPER LAUNDRY, INC;;80-11;BROADWAY;;QUEENS
1384580;THE 43 AVE TOP N' QUALITY CORP;;42-16;43RD AVE;;SUNNYSIDE
1384626;C AND G JETSTREAM, INC.;;7927;MYRTLE AVE;1ST FLOOR;GLENDALE
1385056;714 LAUNDROMAT INC;;714;5TH AVE;;BROOKLYN
1385689;197 HILLSIDE LAUNDROMAT, LLC;;19708;HILLSIDE AVE;;HOLLIS
1387642;529 UTICA AVE. LAUNDROMAT, LLC;;531;UTICA AVE;;BROOKLYN
1388100;G & Y LAUNDROMAT INC;;103-24;NORTHERN BLVD;;CORONA
1388732;CLEANING CONCEPT 88 CORP.;PARAGON CLEANERS;7330;GRAND AVE;;MASPETH
1389471;NEW TD LAUNDROMAT INC;;6901;6TH AVE;;BROOKLYN
1390576;SOAPY LAUNDRY CORP.;;418;BROADWAY;;STATEN ISLAND
1391820;MR C'S LAUNDRY LLC;;52;BRIGHTON AVE;;STATEN ISLAND
1396149;ZHENG, YUN JIAN;HONG KONG WASH & DRY;106-02;JAMAICA AVE;;RICHMOND HILL
1396584;REGO PARK BUBBLES LAUNDRY, INC.;;63-82;WOODHAVEN BLVD;;REGO PARK
1397755;4522 LAUNDROMAT INC;;4522;6TH AVE;;BROOKLYN
1397955;BUBBLE WASH LAUNDROMAT INC;LUXURY LAUNDRY & WASH;92-15;ROCKAWAY BOULEVARD;;OZONE PARK
1399228;JIN SHA LAUNDROMAT INC;;5217;5TH AVENUE;;BROOKLYN
1399914;GO LAUNDRY INC;;2426;EASTCHESTER RD;;BRONX
1400409;BAYVIEW LAUNDROMAT INC.;;521;BAY STREET;;STATEN ISLAND
1401231;BIN FANG LAUNDROMAT INC.;;2808;AVENUE D;;BROOKLYN
1402069;LEE WASH & DRY LAUNDROMAT (A), INC;;143;WEST  116 STREET;;NEW YORK
1404994;SUPER LAUNDRY EQUIPMENT CORP;;1616;AMSTERDAM AVENUE;;NEW YORK
1406481;CHANG WON CORP.;;3716-3718;13 AVENUE;;BROOKLYN
1406511;173RD STREET LAUNDROMAT INC;;4091;BROADWAY;;NEW YORK
1409927;YANG,YAOJIA;168 LAUNDROMAT MARKET;2951;FULTON STREET;;BROOKLYN
1411106;ZHENG, BENJIA;RONG LAUNDROMAT;43-22;  91 PLACE;;ELMHURST
1411279;SUPER LAUNDROMAT BRONX INC;WASH CLUB LAUNDROMAT;936;UTICA AVENUE;;BROOKLYN
1411388;ZHENG ROBERTO INC;;1508;PITKIN AVENUE;;BROOKLYN
1413853;568 WEST 184 LAUNDROMAT INC;;568;WEST  184 STREET;;NEW YORK
1414018;A & G PACKAGING, INC.;LAUNDRY LAND;269;ECKFORD STREET;;BROOKLYN
1414056;NEW SAINT LAWRENCE LAUNDROMAT CORP;;1255;SAINT LAWRENCE AVENUE;;BRONX
1414180;WAN XIAN YIP;YING YOON LAUNDRY;601;WEST  112 STREET;;NEW YORK
1415120;MEI HAO LAUNDROMAT, INC.;;85-20;JAMAICA AVENUE;;WOODHAVEN
1415331;NEW WASH CLUB INC;;1469;BROADWAY;;BROOKLYN
1415554;R'S LAUNDROMAT 11 INC;;1507;BUSHWICK AVENUE;;BROOKLYN
1415823;SANGJOON, PARK;GREENRIDGE LAUNDROMAT;3285;RICHMOND AVENUE;;STATEN ISLAND
1415904;GOLD PEACH II CORP.;CORAL LAUNDROMAT;1650;RICHMOND AVENUE;;STATEN ISLAND
1392284;3462 THIRD AVE LAUNDROMAT, INC;;3462;   3 AVENUE;;BRONX
1393089;7605 LAUNDROMAT INC.;;7605;3RD AVE;;BROOKLYN
1395211;BABA LAUNDROMAT INC;;8818;95TH AVE;;OZONE PARK
1395354;LAUNDRY REALM INC;;772;44TH ST;BSMT;BROOKLYN
1397483;HANG DA CLEANERS INC;;75-27;164TH ST;;FRESH MEADOWS
1397879;AARON'S LAUNDROMAT INC.;;1327;ST NICHOLAS AVE;;NEW YORK
1398903;HUANG & ZHOU EXPRESS INC;;339;MARCUS GARVEY BLVD;;BROOKLYN
1403827;21 AVENUE LAUNDROMAT CORP;;2311;21ST AVE;;ASTORIA
1405111;JUQUILITA LAUNDRY & DELI CORP.;;343;BROADWAY;;STATEN ISLAND
1408133;1453 PITKIN AVENUE SUPERWASH CENTER INC;;1453;PITKIN AVE;;BROOKLYN
1410521;HA SUNNYSIDE LAUNDROMAT, INC;;39-37;  48 AVENUE;;SUNNYSIDE
1412115;SUPERCLEAN V, INC.;;319;NEW DORP LANE;;STATEN ISLAND
1412899;KING LAUNDROMAT INC.;;475;RALPH AVENUE;;BROOKLYN
1413374;CUCI LAUNDRY SERVICES, INC;;932;AMSTERDAM AVENUE;;NEW YORK
1413720;ESTRELLA LAUNDROMAT III CORP.;;2592;PITKIN AVENUE;;BROOKLYN
1415320;JASMIN'S LAUNDROMAT LLC;;1011;FREEMAN ST;;BRONX
1415431;SUPER BUBBLE LAUNDROMAT INC.;;900;EAST TREMONT AVENUE;;BRONX
1415866;LEE SUNNY LAUNDROMAT CORP.;;1742;BATH AVENUE;;BROOKLYN
1416705;SAL DANIEL HOLDINGS INC;SUPER SUDS;22405;141ST AVE;;LAURELTON
1416882;NEW PACIFIC LAUNDROMAT INC;;6114;4TH AVE;;BROOKLYN
1416899;FU LIN LAUNDROMAT, INC;;3118;CHURCH AVE;;BROOKLYN
1417509;U-CITY CLEANERS INC;;2039;BARTOW AVE;;BRONX
1418145;S & B 3608 DEXTER EXPRESS LAUNDRY INC;;3608;CLARENDON RD;;BROOKLYN
1419280;NEW KINGSTON LAUNDROMAT INC;;223;KINGSTON AVE;;BROOKLYN
1419392;ECO WASH, LLC;;1323;E 15TH ST;;BROOKLYN
1419856;SUDSATIONAL LAUNDROMAT, INC;;748;BURKE AVE;;BRONX
1420708;WINNING LAUNDROMAT INC;;18;AVENUE O;;BROOKLYN
1421010;WINNER LAUNDROMAT INC;;6512;60TH PL;;RIDGEWOOD
1423129;W-D LAUNDROMAT INC;;7909;NORTHERN BLVD;;JACKSON HEIGHTS
1423411;2037 SEVENTH AVENUE LAUNDROMAT LLC;;2037;7TH AVE;;NEW YORK
1423625;LUCKY EIGHT LAUNDROMAT INC;;14701;LIBERTY AVE;;JAMAICA
1424540;CHUN IL CHOI;EVER GREENS LAUNDRY;24508;HORACE HARDING EXPWY;;LITTLE NECK
1424792;WONWON LAUNDROMAT INC;;3008;36TH AVE;;L I C
1426037;JAHAIRA LAUNDROMAT CORP;;3601;BAINBRIDGE AVE;;BRONX
1427074;NOBA WASH CORP.;STAR BRITE LAUNDROMAT;4705;AVE N;;BROOKLYN
1427407;WIN MIN THEIN INC;#1 LAUNDROMAT;4344;46TH ST;;SUNNYSIDE
1428754;48TH AVENUE LAUNDROMAT CORP.;;4812;104TH ST;;CORONA
1429475;BELMONT LAUNDRY CENTER LLC;;2340;BELMONT AVE;;BRONX
1430122;SAUCHA INC;;7927;MYRTLE AVE;;GLENDALE
1431635;LAUNDRYXPRESS NYC CORP.;;5917;GRAND AVE;;MASPETH
1432986;W & L LAUNDROMAT INC;ALL RIGHT LAUNDROMAT;1011;ROGERS AVE;;BROOKLYN
1438456;CHOPGREEN INC;LAUNDRY ON THE CORNER;404;NOSTRAND AVE;;BROOKLYN
1438762;KM SASKA KEPA CORP;;131;5TH AVE;;BROOKLYN
1439694;MEI TAI LANDROMAT INC;;886;DEKALB AVE;;BROOKLYN
1440531;LEON, HERIBERTO;LILI'S LAUNDROMAT;2515;BOSTON RD;;BRONX
1441801;SAN HING EXPRESS II, INC.;;1015;RUTLAND RD;;BROOKLYN
1448028;XING LONG LAUNDROMAT EXPRESS INC;;7014;20TH AVE;;BROOKLYN
1412586;APRIL LAUNDROMAT, INC;;97-24;METROPOLITAN AVENUE;;QUEENS
1412717;UP ALL NIGHT LAUNDRY 2 INC;;433;EDGECOMBE AVENUE;;NEW YORK
1412791;QUICK COIN ONE LAUNDRY, INC.;;175;   1 AVENUE;;NEW YORK
1412947;NEW 337 EASTSIDE LAUNDROMAT CORP;;337;PLEASANT AVE;APT 1F;NEW YORK
1414332;CLASSIC LAUNDRY CENTER PITKIN LLC;;391;BROOK AVENUE;;BRONX
1414464;MERCEDES LAUNDROMAT INC;;21235;JAMAICA AVE;FIRST FL;QUEENS VILLAGE
1415079;FREDERICK DOUGLAS LAUNDROMAT LLC;;2475;FREDERICK DOUGLAS BLVD;;NEW YORK
1415309;WELLAND MANAGMENT INC;;4402;   4 AVENUE;;BROOKLYN
1415684;CHICO'S LAUNDROMAT LLC;;996;FLUSHING AVENUE;;BROOKLYN
1416613;CHEN, FENG;LUCKY LAUNDROMAT;2618;AVENUE D;;BROOKLYN
1416966;HAPPY LAUNDROMAT CORP;;4536;BELL BLVD;;BAYSIDE
1417170;AWESOME LAUNDRY & CLEANER INC;;209;E 81ST ST;;NEW YORK
1417353;TENDA LAUNDRY INC.;;1309;NEWKIRK AVE;;BROOKLYN
1418280;NEW LE FENG LAUNDRY INC.;;119;HESTER ST;;NEW YORK
1419740;J AND G LAUNDRY SERVICES LLC;;501;W 168TH ST;;NEW YORK
1420204;ZHONGHUA LAUNDROMAT INC;;22030;JAMAICA AVE;;QUEENS VILLAGE
1420752;KIM & SUNG CORP;COOPER LANUDROMAT;363;1ST AVE;;NEW YORK
1420889;TWO FUTURE DREAMS INC;45 GROVE STREET LAUNDROMAT;45;GROVE ST;;NEW YORK
1421090;MCDM LAUNDROMAT, INC.;;21208;HILLSIDE AVE;;QUEENS VILLAGE
1421885;JS LAUNDROMAT INC;;302;BEDFORD AVE;;BROOKLYN
1421952;HOPE LAUNDROMAT INC;;1602;AVE H;;BROOKLYN
1422915;F & S LAUNDROMAT & DRY CLEANERS INC.;;1160;FLATBUSH AVE;;BROOKLYN
1422926;215 CYPRESS LAUNDROMAT INC;;215B;CYPRESS AVE;;RIDGEWOOD
1423132;9-11 LAUNDROMAT, INC.;;11/Sep;DELANCY ST;;NEW YORK
1423904;1ST AVENUE LAUNDRY CENTER INC;;33;1ST AVE;;NEW YORK
1424872;YORKVILLE CT LLC;;2035;3RD AVE;;NEW YORK
1425051;LAUNDRY PALACE AUSTIN LLC;;1763;HOE AVE;;BRONX
1425126;THE HIGHEST LAUNDROMAT INC;;1093;ST NICHOLAS AVE;;NEW YORK
1425868;DIJIE BRIGHT LAUNDROMAT INC;;9042;CORONA AVE;;ELMHURST
1426941;NAVARRETE LAUNDROMAT CORP;;1171;JEROME AVE;;BRONX
1428377;THE LAUNDRY ROOM INC;;441;CASTLETON AVE;;STATEN ISLAND
1428631;CHEN, HUI & CHEN, XIU RUI;RUIS DRY CLEAN & LAUNDRY;507;84TH ST;;BROOKLYN
1430953;EVERGREEN LAUNDRY (USA) INC.;;2106;FULTON ST;;BROOKLYN
1435568;J & C SAMUEL LAUNDROMAT, INC;;11219;FRANCIS LEWIS BLVD;;QUEENS VILLAGE
1437143;EVERYDAY LAUNDROMAT INC;;1493;MYRTLE AVE;;BROOKLYN
1438613;ANDY'S PLACE LAUNDROMAT INC;BROOKLYNITES LAUNDRY & CLEANERS;212;MCGUINESS BLVD;;BROOKLYN
1441346;PARK AVENUE LAUNDROMAT & DRY CLEANING CORP;;3201;PARK AVE;;BRONX
1444042;GOLD DRAGON LAUNDROMAT INC;;6917;MYRTLE AVE;;QUEENS
1444502;LAUNDRY DE POINT INCORPORATED;;2007;127TH ST;GROUND FL;COLLEGE POINT
1445051;ZHU, YUN DENG;;7213;13  AVE;;BROOKLYN
1446290;MYT LAUNDROMAT INC;;2217;AVE  U;;BROOKLYN
1447951;NEW MR. CLEAN RITE LAUNDROMAT 45TH, INC.;;4264;81ST ST;;ELMHURST
1448242;KARLA'S LAUNDROMAT CORP;KARLA'S LAUNDROMAT;3222;BAINBRIDGE AVE;;BRONX
1433491;XIN XIN LAUNDRY INC;;1221;SUTTER AVE;;BROOKLYN
1437510;RED HOOK LAUNDROMAT # 1 INC;;282;VAN BRUNT ST;;BROOKLYN
1437971;LINS JAMAICA LAUNDROMAT INC.;;9506;JAMAICA AVE;;WOODHAVEN
1440061;CRAIG'S WORLD LLC;PRESTIGE LAUNDRY;409;AMSTERDAM AVE;;NEW YORK
1440292;YANCUI'S LAUNDROMAT LLC;;10313;39TH AVE;GROUND FL;QUEENS
1440778;79 LAN'S LUCKY LAUNDRY CORP;;79;4 AVE;;BROOKLYN
1441995;JAGDEO, PRAKASH;PRAKASH LAUNDROMAT;12707;111TH AVE;;SOUTH OZONE PK
1442633;FIVE STAR LAUNDROMAT IN BKLYN INC;;1029;CHURCH AVE;;BROOKLYN
1338484;SOOKRAM, DHANDAI;;3288;FULTON STREET;;BROOKLYN
1338737;ALGENY A TORRES;CLEAN LAUNDROMAT;316;EAST  188 STREET;;BRONX
1339024;PARAMOUNT CLEAN US INC;PROMPT CLEANERS;414;AVENUE M;;BROOKLYN
1339883;LEMA, LUIS A & LEMA,LAURA B;LEMA'S LAUNDROMAT;153;LAFAYETTE AVENUE;;STATEN ISLAND
1339967;Q & B LAUNDROMAT INC;;208;HOYT STREET;;BROOKLYN
1340768;SHAN XUN CHEN;CHEN'S LAUNDROMAT;4624;AVENUE J;;BROOKLYN
1341149;ROCKAWAY BOULEVARD LAUNDRY, CORP;;140-20;ROCKAWAY BOULEVARD;;S OZONE PARK
1341305;PEARL RIVER LAUNDROMAT INC;;1618;NEWKIRK AVENUE;;BROOKLYN
1341447;LIU, MEI YUN;NEW BEAUTIFUL LAUNDROMAT;5804;   4 AVENUE;;BROOKLYN
1341695;55 LAUNDRY INC;;55-02;ROOSEVELT AVENUE;;WOODSIDE
1341854;QUICK COIN FOUR INC.;;178;7 AVENUE;;NEW YORK
1342648;KA KA LAUNDROMAT INC.;;5715;   6 AVENUE;;BROOKLYN
1342782;GEE LAUNDROMAT INC.;78 LAUNDROMAT;7824;   3 AVENUE;;BROOKLYN
1343068;RYAN L&W LAUNDROMAT LLC;;916;JEFFERSON AVE;;BROOKLYN
1343226;AQUAWASH LAUNDRY CORP.;;255;EAST   98 STREET;;BROOKLYN
1343453;ROOSEVELT ISLAND CLEANER INC;;571;MAIN STREET;;ROOSEVELT ISL
1343946;AM/DM COMPANY, INC;;3161;AMBOY ROAD;UNIT  L;STATEN ISLAND
1344037;STELLAIRE LAUNDROMAT CORP;;2420;RALPH AVE;;BROOKLYN
1345381;A & F LAUNDROMAT CORP;;1638;MADISON AVENUE;;NEW YORK
1347348;NEW ROEBLING LAUNDROMAT INC.;;225;ROEBLING STREET;;BROOKLYN
1347480;11 GOODLY LAUNDROMAT INC.;;309;E 37 ST;;NEW YORK
1351228;ANNSTONE INC;COME KLEEN LAUNDRY;184-17;HILLSIDE AVENUE;;QUEENS
1352251;LIZHEN WAN;MILLION WASH & DRY LAUNDROMAT;31-83;32ND STREET;;ASTORIA
1357015;SHERLIN LAUNDROMAT INC.;;19014;HILLSIDE AVENUE;;HOLLIS
1358104;ELITE ZIP BUSINESS INC;ZIP LAUNDRY CENTER;164;STANTON STREET;;NEW YORK
1362895;L & L LAUNDROMAT LLC;;803;DUMONT AVE;510 VAN SICLEN AVENUE;BROOKLYN
1362985;MING CLEANER & ALTERATION INC;;445;E 78TH ST;;NEW YORK
1363950;ANNA LAUNDROMAT INC;;83-08;ATLANTIC AVE;;OZONE PK
1365815;LI'S LAUNDROMAT(NY) INC;;73-14;NORTHERN BOULEVARD;;QUEENS
1366142;SUPER LUCKY LAUNDROMAT INC;;63-16;AUSTIN ST;;REGO PARK
1367703;MR STUD LAUNDROMAT CORPORATION;;1707;65TH ST;;BROOKLYN
1368728;LIBERTY SUPER CLEAN LAUNDROMAT INC;;547;6TH AVE;;BROOKLYN
1373682;QUICK COIN AVENUE B LAUNDROMAT INC;;46;AVENUE B;;NEW YORK
1374262;LIBERTY AVENUE LAUNDRY CORP;;13302;LIBERTY AVENUE;;RICHMOND HILL
1375794;LEI & TENG CORP;LUCKY LAUNDROMAT;80;AVENUE O;;BROOKLYN
1375830;EAST TREMONT SUPER LAUNDROMAT INC;;3492;EAST TREMONT AVE;;BRONX
1376125;W & W LAUNDROMAT INC;;1208;AVENUE U;;BROOKLYN
1376302;J & J LAUNDROMAT NY INC;;1372;NOSTRAND AVE;;BROOKLYN
1377122;JIANG FAMILY LAUNDROMAT INC;;446;NEW LOTS AVE;;BROOKLYN
1377158;MAGIC WASH LAUNDROMAT INC;;178;HOYT ST;;BROOKLYN
1378785;ALL PURPOSE LAUNDROMAT, INC.;;204;8TH AVE;;NEW YORK
1379687;APOLLO LAUNDROMAT INC;;18-14;PUTNAM AVE;;RIDGEWOOD
1380052;NEW WHITE WAVE LAUNDROMAT INC;;2690;GERRITSEN AVENUE;;BROOKLYN
1381157;BRIGHT WHITE 29, INC.;;401;3RD AVE;;NEW YORK
1382968;PARK'S LAUNDRY & TAILOR CORP;;628;KINGS HWY;;BROOKLYN
1384807;CLEAN CITY OF BROOKLYN, INC;;846;ST JOHNS PL;;BROOKLYN
1384852;KINGSHWY LAUNDROMAT CORP;;622;KINGS HWY;;BROOKLYN
1385322;7416 NEW UTRECHT LAUNDROMAT INC.;;7416;NEW UTRECHT AVE;;BROOKLYN
1385866;AUFA OMEGA, INC.;SUPER LAUNDROMAT;68;BERGEN ST;;BROOKLYN
1387038;INTEGRO INC;WASH/DRY LAUNDROMAT;78-07;JAMAICA AVENUE;;WOODHAVEN
1392518;AQUA BLUE LAUNDROMAT CORP;;84-14;37TH AVE;;JACKSON HEIGHTS
1392666;T & E WHOLESALE DRY CLEANING INC.;;2227;65TH ST;;BROOKLYN
1394199;8122 18TH AVENUE LAUNDROMAT INC;MONSTER WASH 3;8122;18TH AVE;;BROOKLYN
1396669;LCR 7TH AVENUE LLC;;2067;7TH AVE;;NEW YORK
1397034;EVERGREEN LAUNDRY NY INC;;426;E 14TH ST;;NEW YORK
1397395;VIVA LAUNDROMAT, INC;;9434;VAN WYCK EXPY;;S RICHMOND HILL
1398172;CLEAN RITE CENTER-135 HILLSIDE AVENUE, LLC;;13511;HILLSIDE AVE;;QUEENS
1399168;JPY AMERICA LLC;CRYSTAL CLEAN LAUNDROMAT;1387;BOSTON RD;;BRONX
1400620;TSIPOURO INC;WISHY WASHY;730;MELROSE AVE;;BRONX
1401013;JJMJ CONCEPTS 2, INC;SPEED WASH LAUNDER CENTER I;29-19;  21 AVENUE;;QUEENS
1401860;9506 JAMAICA LAUNDROMAT CORP;;9506;JAMAICA AVENUE;;WOODHAVEN
1403386;STAR LIGHT LAUNDROMAT INC.;;1253;FULTON STREET;;BROOKLYN
1404528;101 NORTHERN LAUNDROMAT, INC;SUSAN LAUNDROMAT;101-18;NORTHERN BOULEVARD;;CORONA
1405235;47-02 LAVANDERIA, LLC;;47-02;  48 AVENUE;;WOODSIDE
1405869;WESTCHESTER AVE. WASH & DRY, INC;;791;WESTCHESTER AVENUE;;BRONX
1406543;BLUE CASTLE LAUNDROMAT, INC;;608;CASTLE HILL AVENUE;;BRONX
1409007;L & H LAUNDROMAT INC;LEE'S FIVE STAR LAUNDROMAT;101-06;LIBERTY AVENUE;;OZONE PARK
1409506;ZHONG LI LAUNDROMAT INC.;;222-13;BRADDOCK AVENUE;;QUEENS VILLAGE
1411171;KOOSAN INC;ALOHA LAUNDROMART;786;COURTLANDT AVENUE;;BRONX
1411983;CLEAR 215 LAUNDROMAT INC;;215-11;  39 AVENUE;;QUEENS
1415238;EDUARDO VB CORP;;118-21;GUY R BREWER BOULEVARD;;JAMAICA
1415585;LIZ CUSTOM CLEAERS INC;;900;HYLAN BOULEVARD;;STATEN ISLAND
1416615;MIDWOOD EXPRESS LAUNDRY INC;;2320;NOSTRAND AVE;;BROOKLYN
1417738;5719R LAUNDROMAT INC.;;5719;4TH AVE;;BROOKLYN
1418130;DSM LAUNDROMAT INC;;8901;ASTORIA BLVD;1ST FL;EAST ELMHURST
1418789;SPLISH-SPLASH LAUNDROMAT, INC;;6507;WOODHAVEN BLVD;;REGO PARK
1419214;CUMBERBATCH, SHERRIAN;THE STAR PEOPLE LAUNDRYMAT;176;PORT RICHMOHD AVE;;STATEN ISLAND
1420596;LCR-WEBSTER AVE., LLC;;2856;WEBSTER AVE;;BRONX
1420603;COIN-OP, LLC;;703;10TH AVE;;NEW YORK
1420663;CASMAS LAUNDROMAT INC.;;980;MORRIS AVE;;BRONX
1421098;MORRIS, WINSTON;MARCY LAUNDROMAT;161;4TH AVE;;BROOKLYN
1422452;SUPER PLANET LAUNDROMAT INC;;1769;84TH ST;;BROOKLYN
1422580;N Y WASH INC.;;648;AMSTERDAM AVE;;NEW YORK
1424624;S&J BRIGHT LAUNDROMAT INC;;935-937;MCDONALD AVE;;BKLYN
1426021;DIRT FREE INC.;COSMOPOLITAN LAUNDROMAT AND DRY CLEANING;179;E 105TH ST;;NEW YORK
1427869;JT CHELSEA CLEANERS INC;NISHI CLEANERS LAUNDROMAT;302;W 21ST ST;;NEW YORK
1429076;AZIMULLA, NAZMOON;AAL'S LAUNDROMAT;11414;LIBERTY AVE;;S RICHMOND HILL
1430787;KLEENER KING GROUP INC;;254;E 122TH ST;;NEW YORK
1430905;LAUNDRY CENTER ROCHDALE INC;;16819;BAISLEY BLVD;;JAMAICA
1433056;GL 108 LAUNDROMAT INC.;;5304; 108 ST;;CORONA
1435474;BUSY CORNER LAUNDROMAT INC.;;419;MADISON ST;;BROOKLYN
1435823;GLENWOOD LAUNDROMAT INC;;1102;GLENWOOD RD;;BROOKLYN
1437590;PRESSED AND READY LLC;;208;E 117TH ST;1 FL;NEW YORK
1443163;SENECA CRYSTAL CLEANERS, INC.;;789;SENECA AVE;;RIDGEWOOD
1443827;YAN YAN LAUNDROMAT INC;;3093;37TH ST;;ASTORIA
1446670;JUST CLEAN IT LAUNDROMAT INC;;548-550;KINGS HWY;;BROOKLYN
1447494;BOSTON ROAD LAUNDROMAT  INC;MEGASUDS;1490;BOSTON RD;;BRONX
1396695;HICKS MEGAS LAUDROMAT INC;;779;HICKS ST;;BROOKLYN
1397104;RISING SUN LAUNDROMAT INC;;7523;13TH AVE;;BROOKLYN
1398179;CLEAN RITE CENTERS-FARMERS 2005, LLC;;11713;FARMERS BLVD;;QUEENS
1400949;893 LAUNDROMAT INC;;893;NOSTRAND AVENUE;;BROOKLYN
1401521;AVENUE U LAUNDRY INC;;546;92ND ST;;BROOKLYN
1405921;WASH YOUR THINGS NY INC.;;1903;CORNAGA AVENUE;;FAR ROCKAWAY
1407175;4521 LAUNDROMAT, LLC;;4521;   7 AVENUE;;BROOKLYN
1407663;AAA CLEANER AT BWAY 21, INC;;21-13;BROADWAY;;QUEENS
1410811;BABA LOKENATH LAUNDROMAT, INC;;42-17;JUNCTION BOULEVARD;;CORONA
1412515;SPRINGFIELD LAUNDROMAT INC;;22801; 147 AVENUE;;SPRNGFLD GRDNS
1413336;123 LAUNDROMAT CORP;;2022;LEXINGTON AVENUE;;NEW YORK
1413436;LUM, ALFONSO;T.J. LAUNDROMAT;166;FORBELL STREET;;BROOKLYN
1414091;NEW FU XING I, INC.;;1337;NOSTRAND AVE;;BROOKLYN
1414805;252 LAUNDROMAT CORP;;252-01;NORTHERN BLVD;;QUEENS
1415158;MINT WASH_LAUNDROMAT INC;;10720; 101 AVE;;OZONE PARK
1415258;3 LUCKY STARS LAUNDRY & DRYCLEANING CENTER INC.;AVENUE X LAUNDRY & DRY CLEANING CENTER;381;AVENUE X;;BROOKLYN
1415699;GOLDEN PEAK LAUNDROMAT, INC.;;64-34; 108 STREET;;FOREST HILLS
1415796;SPARKLE INDUSTRIES INC;;1625;LEXINGTON AVENUE;;NEW YORK
1416047;S & K LAUNDROMAT INC;;51;BRUCKNER BOULEVARD;;BRONX
1416932;NEW KEEP IT CLEAN LAUNDROMAT INC;;13803;101ST AVE;;JAMAICA
1417379;PRECIOUS 3 LAUNDROMAT INC.;;2304;36TH AVE;;LIC
1419520;AQUA SUDSATION, INC.;;224;GRAVESEND NECK RD;;BROOKLYN
1419780;SPEEDY LAUNDROMAT LTD;;14835;HILLSIDE AVE;;JAMAICA
1419866;PERROTTO, CAROL ANN CHRISTINA;LAUNDERAMA;419;FOREST AVE;;STATEN ISLAND
1421525;GIANBOLDT LLC;;850;HUNTS POINT AVE;;BRONX
1422191;888 CLEAN LAUNDROMAT INC.;;3609B;164TH ST;;FLUSHING
1423035;A1 LAUNDROMAT INC;;1751;LEXINGTON AVE;;NEW YORK
1423082;GOOD NEIGHBOR LAUNDROMAT CORP.;;10502;37TH AVE;;CORONA
1424468;CHAU, LIANG WAI;;131-17;JAMAICA AVE;;RICHMOND HILLS
1426121;AQUA KING LAUNDROMAT INC;;517;JERSEY ST;;STATEN ISLAND
1427063;TRITRONG OF P & P INC.;;4305;BROADWAY;4305-4307;NEW YORK
1427693;KANG WEI LAUNDROMAT INC.;;5409;6TH AVE;;BROOKLYN
1427973;A & T LAUNDRY ENTERPRISES, INC;;1801;EDISON AVE;;BRONX
1429182;COMFORT LANDROMAT INC;;3409;24TH ST;;LIC
1430941;BROADWAY LAUNDROMAT AND CLEANER, CORP;;678;BROADWAY;;BROOKLYN
1431160;CLEAN RITE CENTER-1450 HYLAN BLVD, LLC;CLEAN RITE CENTER;1450;HYLAN BLVD;;STATEN ISLAND
1431581;SANON ENTERPRISE INC;ROSEDALE LAUNDROMAT;14514;243RD ST;1/FL;ROESEDALE
1434349;DAILY LAUNDROMAT INC;;9210;101ST AVE;;OZONE PARK
1434630;SAN HING EXPRESS I, INC;;968;RUTLAND RD;;BROOKLYN
1434804;STOP & WASH SUPER LAUNDROMAT AND CLEANER COPRORATION;;7820;WOODSIDE AVE;;ELMHURST
1435733;SARA H & Y REALTY LLC;;11706;JAMAICA AVE;;RICHMOND HILL
1436115;CAROLINA LAUNDROMAT INC;;5524;3RD AVE;STORE;BROOKLYN
1438148;SUPER SONIC SUDS INC.;;166;W 231ST ST;;BRONX
1438952;JJ KLEAN LLC;GREEN PARROT LAUNDRY;859;INTERVALE AVE;;BRONX
1440477;LI LAUNDROMAT CORPORATION;;4431;KISSENA BLVD;;QUEENS
1441000;ZHOU, SHIXIONG;NEW LAUNDROMAT;5201;6TH AVE;;BROOKLYN
1441379;SEA OF TREASURES LAUNDROMAT CORP;;3136;MILES AVE;;BRONX
1445128;MVSP ENTERPRISES, INC.;LAUNDRYXPRESS NYC;5917;GRAND AVE;;MASPETH
1416428;SHUNSHING ENTERPRISES, INC.;;142;ATLANTIC AVENUE;;BROOKLYN
1416643;CHEN UP & UP LAUNDROMAT INC;;13;AVE A;;NEW YORK
1416807;C&S WASHING WELL, LLC;;1363;WEBSTER AVE;;BRONX
1417413;SIG SELF SERVICE LAUNDROMAT, LLC;GENTLE CYCLE;5101;AVE D;;BROOKLYN
1417898;COUTURE CLEANERS LLC;;679;WASHINGTON ST;;NEW YORK
1419583;NOERLUND LLC;;303;E HOUSTON ST;;NEW YORK
1420195;BROOK LAUNDRY INC;EXPRESS LAUNDROMAT;515;E 138TH ST;;BRONX
1420546;GOOD LUCKY BRAND LAUNDROMAT INC;;11602;ROCKAWAY BOULEVARD;;SO OZONE PARK
1420928;P & J LUCKY LANDROMAT INC;;451;MONROE ST;;BROOKLYN
1420952;SALSA LAUNDROMAT INC;;91;STUYVESANT PL;AKA 93 STUYVESAT PLACE;STATEN ISLAND
1421017;HONG KONG LAUNDROMAT INC;;13505;LIBERTY AVE;;S RICHMOND HILL
1421077;ATLANTIC SOUTH LAUNDROMAT NY INC.;;2064;ATLANTIC AVE;;BROOKLYN
1423504;G&Q LAUNDROMAT, INC;;7504;31ST AVE;;EAST ELMHURST
1425590;LEE, TAE SUN;NEW NEIGHBOR LAUNDROMAT;9523;3RD AVE;;BROOKLYN
1426046;SOL & LUNA LAUNDROMAT CORP;;3031A;VALENTINE AVE;;BRONX
1426324;NEW YORK CLEAN LAUNDROMAT INC;;1402-1406;WYTHE PL;;BRONX
1426502;JULY'S LAUNDROMAT AND DRY CLEANER INC;;8709;126TH ST;;RICHMOND HILL
1431506;NEW CANAL LAUNDROMAT INC;;81;CANAL ST;;NEW YORK
1432091;4TH AVE LAUNDRY BK, INC;;6717;4TH AVE;;BROOKLYN
1434677;U NICE LAUNDRY INC;;6213;  18TH AVE;;BROOKLYN
1434786;BELL LAUNDROMAT, INC;;4230;BELL BLVD;;BAYSIDE
1435258;SOUNDVIEW LAUNDROMAT OF BRONX LLC;;803;SOUNDVIEW AVE;;BRONX
1435984;XINLONG LAUNDROMAT INC;;5924;7TH AVE;;BROOKLYN
1437807;EASY TOP KLEEN CORP.;GOOD NEIGHBOR LAUNDROMAT;980;E 233RD ST;;BRONX
1437853;LUCKYSTAR LAUNDROMAT INC;;7527; 164TH ST;;FRESH MEADOWS
1439230;WEDO DRY CLEANERS CORP;;211;E 106TH ST;;NEW YORK
1439499;214-50 JAMAICA LAUNDROMAT, LLC;;21450;JAMAICA AVE;;QUEENS VILLAGE
1439884;DONGS CONCOURSE LAUNDROMAT, INC;;2565;GRAND CONCOURSE;;BRONX
1441666;SUNRISE FOREST LLC;;1309;FOREST AVE;1ST FL;STATEN ISLAND
1442345;ROJO LAUNDRY LLC;;334;KNICKERBOCKER AVE;;BROOKLYN
1444619;NEW 88 LAUNDROMAT & DRY CLEANERS INC.;;8815;JAMAICA AVE;;WOODHAVEN
1445588;JI XIANG 168 LAUNDROMAT INC.;;2824;UNION ST;;FLUSHING
1445723;QUAN ZHEN LAUNDROMAT INC.;;12315;18TH  AVE;;COLLEGE POINT
1447030;MARTA'S CLEANERS LLC;;534;DRIGGS AVE;GROUND FLOOR;BROOKLYN
1064824;VELEZ, JUAN B & VALERO, DAYSI;J & D DRY CLEANER;1582-88;WATSON AVENUE;;BRONX
1077065;ITMAM INC.;;2149;CATON AVENUE;;BROOKLYN
1080595;LAU, YUK PUI;MY PLACE;2018;BATH AVENUE;;BROOKLYN
1082891;FINE TOUCH KLEAN, INC;;1435;   1 AVENUE;;NEW YORK
1085311;2117 8TH AVENUE LAUNDROMAT CORP;;2117;   8 AVENUE;;NEW YORK
1093468;WYCKOFF BIG WASH LLC;;452;WYCKOFF AVENUE;;BROOKLYN
1095346;EVERGREEN LAUNDROMAT, INC.;;883;  60 STREET;;BROOKLYN
1096909;AVENUE C. LAUNDROMAT, INC.;;69;AVENUE C;;NEW YORK
1098822;DAE YOUNG NEW YORK CORP.;;102;WEST   96 STREET;;NEW YORK
1102155;829 LAUNDRY TIME INC.;;829;EMPIRE BLVD;;BROOKLYN
1106194;BAY STREET SUPER CLEAN, INC;;1169;BAY STREET;;STATEN ISLAND
1121938;FUK, SUNG WOO & OI, FAN WONG;MR. WOO LAUNDROMAT;2413;MERMAID AVENUE;;BROOKLYN
1123146;JIAN HUI LIANG & MIAO XIA LIANG;CARMEN'S LAUNDROMAT COMPANY;112-12; 101 AVENUE;;QUEENS
1127308;PRESTIGE LAUND-CLEAN INC;;351;EAST   18 STREET;;NEW YORK
1127848;185-115 LAUNDROMAT, INC.;;185;EAST  115 STREET;;NEW YORK
1131366;CLEAN RITE CENTERS- 1 PUTNAM AVENUE LLC;;1;PUTNAM AVENUE;;BROOKLYN
1135621;KING FANG LAUNDROMAT INC.;;112;KINGSTON AVENUE;;BROOKLYN
1137354;SHINE BRIGHT LAUNDROMAT CORP.;;3929;BAYCHESTER AVENUE;;BRONX
1138105;YAN, DONG;LUCKY LAUNDROMAT;323;LAFAYETTE AVENUE;;BROOKLYN
1142973;X Y LAUNDROMAT INC.;;504;  46 STREET;;BROOKLYN
1143790;ELMCOR LAUNDROMAT INC;;92-12;CORONA AVENUE;;ELMHURST
1148300;MA, XUE MING;MAHS(I) LAUNDROMAT;7110;BAY PARKWAY;;BROOKLYN
1153764;ROSE AND ELI, INC.;;4401;BROADWAY;;NEW YORK
1155062;XTREEM KLEEN LLC;;772;AMSTERDAM AVENUE;;NEW YORK
1157747;S & D MAGIC LAUNDROMAT INC.;;935;MCDONALD AVENUE;935-937;BROOKLYN
1158124;1320 2ND AVE CLEANERS INC;CREST CLEANERS;1320;   2 AVENUE;;NEW YORK
1160772;SUDS FOR YOUR DUDS CORP.;;210;E 165TH ST;;BRONX
1163455;GOODLOOKING LIN LAUNDROMAT INC;;1468;LEXINGTON AVENUE;;NEW YORK
1167578;THE LAUNDRY LOUNGE INC;COBBLE HILL CLEANERS & LAUNDRY;226;COURT STREET;;BROOKLYN
1169141;888 BOOTH MEMORIAL LAUNDROMAT, INC.;;136-08;BOOTH MEMORIAL AVENUE;;FLUSHING
1171617;123 WEST 135TH STREET LAUNDRY CORP.;;123;WEST  135 STREET;;NEW YORK
1173856;HONG WAH LAUNDROMAT, INC;;176;MAC DOUGAL STREET;;NEW YORK
1175440;WAN QIANG LAUNDROMAT INC;;170-14;JAMAICA AVENUE;;QUEENS
1179735;148 LAUNDRY INC;;48-09;43RD AVENUE;;SUNNYSIDE
1186710;LIN, JIAN GUO;LIN KEE LAUNDROMAT;945;PENNSYLVANIA AVENUE;;BROOKLYN
1188016;JIN LAUNDROMAT INC;;8507;  21 AVENUE;;BROOKLYN
1188402;B & S LAUNDROMAT, INC.;;423;CHURCH AVENUE;;BROOKLYN
1192493;GNN GROUP LTD;CLEAN BRITE LAUNDROMAT;1612;RALPH AVENUE;;BROOKLYN
1192609;EAGER CORPORATION;;86-16;37TH AVENUE;;JACKSON HEIGHTS
1196514;GARCIA, LU;LULU LAUNDRY;103-29;QUEENS BOULEVARD;;FORST HILLS
1197233;114-14 LAUNDROMAT, INC.;TROPICAL BREEZE LAUNDROMAT;114-14;ROCKAWAY BEACH BOULEVARD;;ROCKAWAY PARK
1197616;210-19 HOLLIS AVENUE LAUNDRY CORP.;;210-19;HOLLIS AVENUE;;QUEENS VILLAGE
1198044;NEW 569 WILSON LAUNDROMAT, INC.;;569;WILSON AVENUE;;BROOKLYN
1200186;REYES, PACO;BAILEY LAUNDROMAT;3008;BAILEY AVENUE;;BRONX
1207672;328 LAUNDROMAT INC.;;627;CHURCH AVENUE;;BROOKLYN
1210776;ALKAIFI, ABDO H;CORNAGA SUPER LAUNDRY;14-18;CORNAGA AVENUE;;FAR ROCKAWAY
1211327;PRICE, DARRYL S;LAURELTON LAUNDROMAT;226-17;MERRICK BOULEVARD;;QUEENS
1216156;WESSAL HAPPY LAUNDROMAT INC;;857;BRYANT AVENUE;;BRONX
1216500;LAUNDRY ON THIRD, INC.;;8020;3RD AVENUE;;BROOKLYN
1216702;BEST WASH AND DRY, INC.;;670;9TH AVENUE;;NEW YORK
1216765;L ONE LAUNDROMAT, INC;;98-20;CORONA AVENUE;;CORONA
1216906;3025 LAUNDROMAT, LLC;QUALITY WASH CENTER;3025;FT HAMILTON PARKWAY;;BROOKLYN
1217221;1995 LAUNDRY BOY, INC.;;1829;   2 AVENUE;;NEW YORK
1218288;DAI JIA CORP;;90-24;ROOSEVELT AVENUE;;QUEENS
1224052;SUSAN LAUNDROMAT, INC;;178;DRIGGS AVENUE;;BROOKLYN
1224063;SHIRLEY LAUNDROMAT, INC.;;44-20;  30 AVENUE;;ASTORIA
1224511;PUEBLA LAUNDROMAT INC.;;98-14;NORTHERN BOULEVARD;;QUEENS
1227837;A. HANDYMAN CORP.;RINSE CYCLE;5427;FLATLANDS AVENUE;;BROOKLYN
1229535;DASS, SURENDRA;RYAN LAUNDROMAT AND CLEANERS;3386;BOSTON ROAD;;BRONX
1232173;YUNITY ENTERPRISES, INC;CLEAN HOUSE;2429;ARTHUR AVENUE;;BRONX
1232470;CIAMPA NORTH LLC;;51-24A;NORTHERN BOULEVARD;;WOODSIDE
1236614;169 EAST 98TH STREET CORP.;;169;EAST   98 STREET;;BROOKLYN
1236748;ARIAS-LEON, HORTENCIA;HORTENCIA'S LAUNDROMAT;82-18;  31 AVENUE;;QUEENS
1238805;NATALIE'S LAUNDROMAT INC.;;2281-85;BATHGATE AVENUE;;BRONX
1240517;S & D WHITNEY LAUNDROMAT, INC.;;86-14;WHITNEY AVENUE;;QUEENS
1241169;THE LAUNDRY ON GRAHAM LTD;;423;GRAHAM AVENUE;;BROOKLYN
1242332;BRITE CITY LAUNDROMAT, INC;;1809;UTICA AVENUE;;BROOKLYN
1242712;EVERGREEN BUSHWICK CORPORATION;BUSHWICK LAUNDROMAT;409;BUSHWICK AVENUE;;BROOKLYN
1244020;VA QUICK LAUNDRY INC.;;289;BEACH   14 STREET;;FAR ROCKAWAY
1244373;169TH LAUNDROMAT CENTER CORP;;229;E 169TH ST;;BRONX
1245593;KINGS LAUNDRY CENTER, INC;;2618;FULTON STREET;;BROOKLYN
1246129;LAUNDRY LADY,INC;;75-05;PARSONS BOULEVARD;;FLUSHING
1246216;CHEN, YONG XIN;KANGWEI LAUNDROMAT;5409;6TH AVENUE;;BROOKLYN
1246729;LMX SUNNY LAUNDRY & CLEAN, INC.;;7523;NEW UTRECHT AVENUE;;BROOKLYN
1246815;WILLIAMS FAMILY ENTERPRISES, INC.;;14-05;  31 AVENUE;;LONG ISLND CITY
1247117;ROSEDALE LAUNDRY INC;;244-31;MERRICK BOULEVARD;;ROSEDALE
1249987;132-03 JAMAICA LAUNDRY CORP;;132-03;JAMAICA AVENUE;;JAMAICA
1250073;SUPER FRESH LAUNDROMAT, INC.;;43-11; 104 STREET;;CORONA
1255665;S & L LAUNDROMAT INC;;104-01; 101 AVENUE;;OZONE PARK
1257819;CJ & EJ INC.;;145-87;GUY R BREWER BOULEVARD;;JAMAICA
1259536;D & S LAUNDROMAT, INC.;;6810;  18 AVENUE;;BROOKLYN
1260280;JING HUI LAUNDROMAT INC;;64-24;ROOSEVELT AVENUE;;WOODSIDE
1261602;21-39 LAUNDROMAT CORP.;EXPRESS 1 LAUNDROMAT;21-39;45TH RD;;ASTORIA
1262088;WEALTHY LAUNDROMAT INC.;;5621;FORT HAMILTON PARKWAY;;BROOKLYN
1262143;HOLLAND LAUNDROMAT, INC;M  & V LAUNDROMAT;2131;HOLLAND AVENUE;;BRONX
1263420;DRIGGS AVE. LAUNDROMAT & CLEANERS, LLC;;258;DRIGGS AVENUE;;BROOKLYN
1263444;LUCKY 999 LAUNDROMAT #2, INC.;;55;   2 AVENUE;;NEW YORK
1263855;RONG CHENG LAUNDROMAT INC.;;133-24;SANFORD AVENUE;;QUEENS
1270011;MOK LAUNDROMAT, INC.;;82;KINGS HIGHWAY;;BROOKLYN
1270027;DAVID'S LAUNDROMAT, INC;;1080;CYPRESS AVENUE;;RIDGEWOOD
1271082;NAGLE WASHRITE LLC;;228;NAGLE AVENUE;;NEW YORK
1272734;W & J LAUNDROMAT, INC;;30-67;  14 STREET;;ASTORIA
1273455;M & N QUALITY CLEANERS, INC.;;207;EAST   14 STREET;;NEW YORK
1273834;SUPER LI LAUNDROMAT INC.;;1211;CHURCH AVENUE;;BROOKLYN
1274640;J A & A LAUNDRY, INC.;;4207;ONEIDA AVENUE;;BRONX
1275051;RUSHMAN INC.;;442;THROOP AVENUE;;BROOKLYN
1275184;OURS LAUNDROMAT, INC.;;235;EAST  198 STREET;;BRONX
1275263;MR. WASH OF FLATLANDS, INC.;;929-933;EAST  107 STREET;;BROOKLYN
1275454;BAO MING FA LAUNDROMAT INC.;;82-65/75;PARSONS BOULEVARD;;JAMAICA
1275837;J & S LAUNDROMAT OF N.Y, INC.;;250-11;HOOK CREEK BOULEVARD;;ROSEDALE
1275852;LAUNDRY MANAGEMENT-N. 3RD STREET, INC.;;173;NORTH    3 STREET;;BROOKLYN
1275920;E-Z DAY LAUNDRY INC;KERRIE'S LAUNDRY LAND;211;MAIN STREET;;STATEN ISLAND
1275968;SUPERIOR SUDS, INC.;;704;   4 AVENUE;;BROOKLYN
1276528;X'TRA KLEEN INC.;;210;WEST   94 STREET;;NEW YORK
1276867;YIN PING LAUNDROMAT INC.;;5310;   4 AVENUE;;BROOKLYN
1278238;AMOR LAUNDROMAT INC;;48-12; 104 STREET;;QUEENS
1279921;XIN DONG FANG LAUNDROMAT INC;;669;FLATBUSH AVENUE;;BROOKLYN
1279999;GLENDALE LAUNDROMAT INC;;69-01;CENTRAL AVENUE;;QUEENS
1281906;J S & T LAUNDROMAT, INC.;;1566;EAST 174 STREET;;BRONX
1283567;GLO LAUNDROMAT, INC.;;57-33;CATALPA AVENUE;;RIDGEWOOD
1284398;M & B LAUNDROMAT CORP.;;13513;LEFFERTS BLVD;;SO OZONE PARK
1285305;KEYCLEAN LAUNDROMAT INC.;;199-09;JAMAICA AVENUE;;JAMAICA
1285724;UPTOWN LAUNDROMAT II INC;;3320;FORT INDEPENDENCE STREET;;BRONX
1287529;LAUNDRY HAVEN CORP.;;85-42;WOODHAVEN BOULEVARD;;WOODHAVEN
1287573;DOUBLE DRAGON LAUNDROMAT INC;;1007;WINTHROP STREET;;BROOKLYN
1288538;CLEAN CITY E ELMHURST, LLC;;95-09;  31 AVENUE;;QUEENS
1288859;ULTRA LAUNDROMAT CORP;;710;LYDIG AVENUE;;BRONX
1290847;SMW LAUNDRY AND DRY-CLEANING SERVICES, INC.;;2432;PITKIN AVENUE;;BROOKLYN
1291238;CROSSBAY LAUNDRY INC.;;133-13;CROSSBAY BOULEVARD;;QUEENS
1293510;R&A LAUNDROMAT INC.;;3001;WEBSTER AVE;;BRONX
1293730;TIE BING CHEN;C & Y LAUNDROMAT;92-10; 101 AVENUE;;QUEENS
1294023;NEW ABSOLUTE LAUNDRY INC;;137;LEXINGTON AVENUE;;NEW YORK
1294304;8 AVE. OF BAO LAUNDROMAT INC.;;772;  59 STREET;;BROOKLYN
1294706;LAUNDRY HOUSE NEPTUNE CORP;;39;NEPTUNE AVENUE;;BROOKLYN
1295475;ROGER'S LAUNDROMAT, INC.;;292;ROGERS AVENUE;;BROOKLYN
1296451;GREENUP LAUNDROMAT, INC.;;3223;YATES AVENUE;;BRONX
1296921;LIANG, SHAO XIANG;HAPPY PANDA LAUNDROMAT CO;611;AVENUE Z;;BROOKLYN
1302725;UNITED MERITIM SHIPPING LTD.;U.S. LAUNDROMAT;2333;HYLAN BOULEVARD;;STATEN ISLAND
1302957;GOLDEN BUBBLE LAUNDROMAT, INC;;1547;WATSON AVENUE;;BRONX
1304192;U NICE LAUNDRY INC.;;1810;AVENUE U;;BROOKLYN
1304236;METROPOLITAN LAUNDRY INC.;;3875;BROADWAY;GROUND FL;NEW YORK
1304560;LUCKY LAUNDROMAT NY INC.;;89-18; 163 STREET;;JAMAICA
1304916;KENKLEEN CORP;BRIGESTONE CLEANERS;45-55;WASHINGTON STREET;AKA 109 FRONT STREET;BROOKLYN
1305118;ERNEST WINZER CLEANERS, LLC;;1828;CEDAR AVENUE;;BRONX
1305322;ROGERS AVENUE LAUNDRY CENTER INC.;;1021;ROGERS AVENUE;;BROOKLYN
1306273;ST. JOHNS LAUNDROMAT INC;;1400;ST JOHNS PLACE;;BROOKLYN
1306745;PATH-WASH, INC;;815;STANLEY AVENUE;;BROOKLYN
1309151;LI & WU HILLSIDE LAUNDROMAT INC.;;170-05;HILLSIDE AVENUE;;QUEENS
1310589;BEST SEASON LAUNDROMAT INC;;18;AVENUE O;;BROOKLYN
1311486;NEW YORK RELIABE LAUNDRY & CLEANERS INC;;414;EAST   73 STREET;;NEW YORK
1312143;LIONS 123 INC;;116-11;METROPOLITAN AVENUE;;KEW GARDENS
1313170;31 ST WASH WORLD INC;;31-11;  31 STREET;;QUEENS
1313818;PENG & FU (USA) CORPORATION;;8150;NEW UTRECHT AVE;;BROOKLYN
1315171;BEST BRITE LAUNDRY II, INC.;;854;FLUSHING AVENUE;;BROOKLYN
1316602;AUBURNDALE LAUNDROMAT INC.;;36-24;FRANCIS LEWIS BOULEVARD;;QUEENS
1316993;Z & J LAUNDROMAT, INC.;;47-52;46 STREET;;WOODSIDE
1318656;ELEVEN LAUNDROMAT INC;;41-19;  58 STREET;;WOODSIDE
1318866;KISSENA CLRANERS INC;;59-14;KISSENA BOULEVARD;;FLUSHING
1331234;69 LAUNDROMAT INC;;69-05;WOODSIDE AVENUE;;WOODSIDE
1331431;118-12 LAUNDROMAT INC;;118-12;LIBERTY AVENUE;;RICHMOND HILL
1336792;FRESH POND CLEAN INC.;;6406;FRESH POND RD;;RIDGEWOOD
1336829;NEW SMILE LAUNDROMAT, INC;;85-12;GRAND AVENUE;;QUEENS
1337115;WASHMART MANAGEMENT LLC;KEEP IT CLEAN;519;EAST  137 STREET;;BRONX
1338189;GOOD LAUNDROMAT INC;;138-65;QUEENS BOULEVARD;;JAMAICA
1338884;JSJ LAUNDROMAT INC.;;2707;   8 AVENUE;;NEW YORK
1339268;JIE LIAN ZHAO;LUCKY LAUNDROMAT;1073;NOSTRAND AVENUE;;BROOKLYN
1339327;A & R HEMPSTEAD AVENUE INC;;218-02;HEMPSTEAD AVENUE;;QUEENS VILLAGE
1339971;JJ WASHINGTOWN INC;;27-01;FRANCIS LEWIS BOULEVARD;;QUEENS
1340585;LINES BUILDER COMPANY, LLC;;1283;CASTLETON AVENUE;;STATEN ISLAND
1341275;PAN, KER CHUNG;W R LAUNDROMATE;112;EAST    4 STREET;;NEW YORK
1341443;TRIPLE G USA, INC;;4717;FRANCIS LEWIS BOULEVARD;;BAYSIDE
1342131;72-13 J.C. LAUNDROMAT INC.;;5810;8TH  AVENUE;2FL;BROOKLYN
1342305;DEREK'S LAUNDROMAT INC;;59;ST NICHOLAS AVENUE;STORE#1;NEW YORK
1342331;NEW LAN'S LUCKY LAUNDRY CORP;;79;   4 AVENUE;;BROOKLYN
1342557;OLATUNDE, NIKE S;PRINCESS LAUNDROMAT;8948;FRANCIS LEWIS BOULEVARD;;QUEENS VILLAGE
1342803;FLUFFY'S LAUNDRY CENTER INC;;509;  72 STREET;;BROOKLYN
1343227;WASH & WIN LAUNDROMAT, INC.;;29-01;  21 AVENUE;;QUEENS
1343275;10906 FARMERS CORP;;109-06;FARMERS BOULEVARD;;ST. ALBANS
1343751;MIDDLE VILLAGE LAUNDROMATE INC;;67-51;  78 STREET;;MIDDLE VILLAGE
1344142;3607 BROADWAY REALTY LLC;;3607;BROADWAY;;NEW YORK
1344658;NY BEST BRITE LAUNDRY INC;;1045;RUTLAND ROAD;;BROOKLYN
1344911;HUANG'S LUCKY LAUNDRY, INC;;6208;  20 AVENUE;;BROOKLYN
1345904;NEW SEAVIEW CLEANERS, INC.;GRAND CLEANERS;9522;SEAVIEW AVENUE;;BROOKLYN
1346358;SMK65, LLC;5TH AVENUE LAUNDROMAT;674;   5 AVENUE;;BROOKLYN
1346422;MGK LAUNDRY CORP;;3517;  31 AVENUE;;ASTORIA
1347830;WANG JIAO LAUNDROMAT INC;;196;PENNSYLVANIA AVENUE;;BROOKLYN
1347949;NAKI 924 LLC;;924;SOUTHERN BOULEVARD;;BRONX
1348654;SHI HU LAUNDROMAT INC.;;480;MCDONALD AVENUE;;BROOKLYN
1349086;LEUNG, CATHY;MAY LAUNDROMAT;1217;GRAVESEND NECK ROAD;;BROOKLYN
1352065;HONG XIN LAUNDROMAT, INC;;3380;DECATUR AVENUE;;BRONX
1353881;THREE BROS. LAUNDRY CORP;;856;SENECA AVENUE;;RIDGEWOOD
1353987;THE QUEENS WU CORP;SPIN TIME LAUNDRY;248-25;NORTHERN BOULEVARD;UNIT 1E;LITTLE NECK
1355179;SUN KING LAUNDROMAT INC;;2730;23 STREET;;ASTORIA
1355941;LAUNDRY HOUSE UTICA CORP.;;2037;UTICA AVENUE;;BROOKLYN
1357319;P S Y  DOUGLASTON LAUNDROMAT INC;;4419;DOUGLASTON PARKWAY;;DOUGLASTON
1357564;ROGERS CLOTHES CARE CENTER INC;;1695;  86 STREET;;BROOKLYN
1361234;EN DIAN LAUNDROMAT, INC;;1791;STILLWELL AVENUE;;BROOKLYN
1362295;NAXOS CORP;APHRODITE CLEANERS;823;W 181ST ST;;NEW YORK
1363530;NICE & FRESH LAUNDROMAT INC;;843;TRINITY AVE;;BRONX
1363563;ZHU YANG UNION CORP;;2824;UNION STREET;;FLUSHING
1363759;TYS LAUNDROMAT INC;;215;E 116TH ST;;NEW YORK
1364307;5TH AVE LAUNDRY CENTER INC;;565;5TH AVE;;BROOKLYN
1364413;NEW TREND LAUNDROMAT CORP;;90-09;31ST AVE;;EAST ELMHURST
1367295;MARS LAUNDROMAT INC.;;450;   6 AVENUE;;BROOKLYN
1370506;MONTAGUE CLEANERS INC;;140;MONTAGUE STREET;1/FL.;BROOKLYN
1373352;812 LAUNDROMAT & CLEANERS INC;;2946;AVENUE R;;BROOKLYN
1374659;FOUR ANGELS LAUNDROMAT INC;;1004;ST NICHOLAS AVE;;NEW YORK
1375832;KING LAUNDROMAT CENTER INC;;2427;7TH AVE;;NEW YORK
1376959;KEVIN LAUNDROMAT & DRY CLEANING INC;;107-09;LIBERTY AVE;;QUEENS
1378215;U NICE LAUNDRY INC;;2714;AVENUE U;;BROOKLYN
1378230;ESTRELLA LAUNDROMAT II, CORP;;9420;KINGS HIGHWAY;;BROOKLYN
1379052;Q & H LAUNDROMAT INC;;4615;   8TH AVE;;BROOKLYN
1379146;HONG XIANG LAUNDROMAT, INC;;63-22;99TH ST;;REGO PARK
1379560;WASHLAND, LLC;;794;9TH AVE;;NEW YORK
1379706;BEST CHOICE LAUNDROMAT INC.;BEST CHOICE LAUNDROMAT;609;FLATBUSH AVE;;BROOKLYN
1382141;MAN'S LAUNDROMAT INC;WONDER WASH;675;MORRIS AVE;;BRONX
1382275;Y & M LUCKY LAUNDROMAT, INC;;101-24;JAMAICA AVE;;RICHMOND HILL
1383187;WOODSIDE 39TH AVE LAUNDROMAT INC;;6308;39TH AVE;;WOODSIDE
1383980;EAST TREMONT LAUNDRY ZONE INC;;830;E TREMONT AVE;;BRONX
1384562;GOLDEN SWAN LAUNDROMAT, INC;;4119;GREENPOINT AVE;;SUNNYSIDE
1385243;MINDGREEN LAUNDRY, INC;;16821A;HILLSIDE AVE;;QUEENS
1386920;ZHONG CHENG GROUP INC;CAO ZHONG LAUNDROMAT;2210;AVE X;;BROOKLYN
1388202;HERE TO CLEAN, INC.;;124;AVENUE C;;NEW YORK
1388533;BIAO LI & YUE BAO WU;NEW DORIS LAUNDROMAT;3074;  21 STREET;;ASTORIA
1388867;36 QB LAUNDROMAT INC;;2118;36TH AVE;;LONG ISLND CITY
1389253;LWQ LAUNDRY INC.;;350;ST NICHOLAS AVE;;RIDGEWOOD
1393422;WANSHUEN CORP;;1507;BROADWAY;;BROOKLYN
1394607;824 GREEN LAUNDROMAT INC;;824;ST NICHOLAS AVE;;NEW YORK
1395316;GOLDEN WASH LAUNDROMAT INC;;80-11;MYRTLE AVE;;GLENDALE
1396002;LONDON BUSINESS GROUP LLC;SUPER BRIGHT LAUNDROMAT;1242;CASTLETON AVE;;STATEN ISLAND
1396671;PAN, JIAN;SEASON LAUNDROMAT KINGS;6805;20TH AVE;;BROOKLYN
1397026;SIHOMBING, YENNI;43RD SUPER LAUNDROMAT;42-24;43RD AVE;;SUNNYSIDE
1397558;H & D LAUNDROMAT CORP;;4814;4TH AVE;;BROOKLYN
1397881;CLEAN RITE CENTERS-FLATBUSH AVENUE, LLC;;1715;FLATBUSH AVE;;BROOKLYN
1398264;NY CITY LAUNDROMAT 1 INC;;384;EVERGREEN AVE;;BROOKLYN
1401041;N & C LAUNDROMAT INC.;CRYSTAL TOUCH LAUNDRY;2053;2ND AVE;;NEW YORK
1403884;LORA, CHRISTIAN;LORA'S LAUNDROMAT;5924;SNYDER AVENUE;;BROOKLYN
1406163;MANNY INTERNATIONAL BUSINESS CORP.;;1848;AMSTERDAM AVE;;NEW YORK
1407456;BROOKLYN'S FAMOUS LAUNDRY & CLEANERS CORP.;;851;ATLANTIC AVENUE;;BROOKLYN
1408318;BLUE WATER LAUNDROMAT INC.;;473;48TH ST;1ST FLOOR;BROOKLYN
1408609;BRITTON LAUNDROMAT LLC;;8527;BRITTON AVENUE;;ELMHURST
1409818;HUIHUI LAUNDROMAT, INC.;;47-24;  30 AVENUE;;ASTORIA
1409902;TESCO LAUNDROMAT, INC;CLOVE ROAD LAUNDROMAT;1290;CLOVE ROAD;;STATEN ISLAND
1410610;BUBBLES R US, INC;ZAINHANA;1026;ST. NICHOLAS AVE;1ST FLOOR;NEW YORK
1411490;AHURA INC;SAMMIE'S LAUNDROMAT;217-11;JAMAICA AVENUE;;QUEENS VILLAGE
1412755;BLANCA'S CLEANERS, CORP.;;762;  10 AVENUE;;NEW YORK
1414273;V.N.M.G. SERVICES, LLC;;35-02;  28 AVENUE;;QUEENS
1414280;YE CHENG LAUNDROMAT INC.;;6906;BAY PARKWAY;;BROOKLYN
1414467;JMW ROCKET LAUNDROMAT INC;;24-06;31 STREET;;ASTORIA
1415392;RK & A LAUNDROMAT LLC;;510;FOSTER AVE;;BROOKLYN
1415559;BEST SUN INC;;6012;  18 AVENUE;;BROOKLYN
1415804;GRAND COMMUNITY LAUNDROMAT, INC.;;302;GRAND STREET;;BROOKLYN
1415907;CRYSTAL BUBBLES LAUNDROMAT & DRY CLEAN INC;;8210;   3 AVENUE;;BROOKLYN
1416727;EARLYBIRD LAUNDRY INC.;;833;E NEW YORK AVE;;BROOKLYN
1417297;JAMAICA FRENCH CLEANERS, INC;BEST GREEN CLEANER;16903;JAMAICA AVE;;JAMAICA
1417335;JIMMY'S LAUNDROMAT INC.;;42;LOTT AVE;;BROOKLYN
1417703;P&K LAUNDROMAT, INC.;;432;AMSTERDAM AVE;;NEW YORK
1417804;132 STREET AND MADISON AVENUE LAUNDROMAT, LLC;;2096;MADISON AVE;;NEW YORK
1418123;MORRIS DEVOP LLC;;2260;MORRIS AVE;;BRONX
1418692;GO FRESH LAUNDROMAT INC;;74;MANHATTAN AVE;;BROOKLYN
1420025;BOYLE, NERVA;NASHCA COIN LAUNDRY;4015;35TH AVE;;LONG ISLAND CIT
1421465;MIN HUA LAUNDROMAT INC;;511;HALSEY ST;;BKLYN
1421636;W & L SISTER LAUNDROMAT INC.;;615;MARLBOROUGH RD;;BROOKLYN
1423714;CLEAN RITE CENTER - 87-36 LEFFERTS BLVD, LLC;CLEAN RITE CENTER;8730;LEFFERTS BLVD;;QUEENS
1424233;LUCKY L & W LAUNDROMAT INC;;835;UNION ST;;BROOKLYN
1426963;BUDDHA LAUNDROMAT, INC;;551;ONDERDONK AVE;;RIDGEWOOD
1427116;JIE LI LAUNDROMAT INC;;124;MOTT ST;;NEW YORK
1429336;CENTRAL INVESTMENT LLC;;418;BROADWAY;;STATEN ISLAND
1430675;SHAN CUN CHEN;;6909;FT HAMILTON PKWY;;BROOKLYN
1432701;D & Y LAUNDROMAT EXPRESS INC;;7014;  20 AVE;;BROOKLYN
1434965;EVEREST LAUNDROMAT INC;;16012;HILLSIDE AVE;;JAMAICA
1435132;ALBANY 2012 LLC.;;484;ALBANY AVE;;BROOKLYN
1435205;LAUNDRO KING INC.;;474;GATES AVE;;BROOKLYN
1435395;NEW DO RIGHT ENTERPRISE INC;;5406; 100 ST;;CORONA
1437102;GLOBAL WASH & CLEANER CORP;;357;E 68TH ST;;NEW YORK
1439531;GRAND OY LAUNDRY INC;;5623;METROPOLITAN AVE;;RIDGEWOOD
1439998;SARAH LAUNDROMAT INC;;1325;LAFAYETTE AVE;;BRONX
1442830;LUPOLI, ANNA M;BUSY BEE LAUNDROMAT;15127;34TH AVE;;FLUSHING
1443598;STEWART, AVIS;BUDGET LAUNDROMAT;20107;MURDOCK AVE;;ST ALBANS
1444146;ZHENG XIN NY LAUNDROMAT INC;;6072;72ND ST;;MASPETH
1444825;FENG LAUNDROMAT & DRY CLEANERS INC;;1215;STRATFORD AVE;;BRONX
